type,address_1,address_2,open_hours,city,state,postal_code,latitude,longitude
Pizza Hut Express,1200 N. Muldoon Road,,10:00 AM - 11:00 PM,Anchorage,AK,99504,61.2037,-149.7447
Pizza Hut Express,150 West 100th Ave,Suite A,10:00 AM - 11:00 PM,Anchorage,AK,99515,61.1194,-149.8974
Pizza Hut,2220 Abbott Rd,,10:00 AM - 11:00 PM,Anchorage,AK,99507,61.1535,-149.8289
Pizza Hut,341 Boniface Pkwy,Unit G,10:00 AM - 12:00 AM,Anchorage,AK,99504,61.2037,-149.7447
Pizza Hut,3727 Spenard Highway,,10:00 AM - 12:00 AM,Anchorage,AK,99517,61.1901,-149.9361
Pizza Hut,11740 Old Glenn Hwy,,10:00 AM - 10:00 PM,Eagle River,AK,99577,61.3114,-149.5085
Pizza Hut,89 College Rd,,10:00 AM - 12:00 AM,Fairbanks,AK,99701,64.8378,-147.7164
Pizza Hut,257 N Santa Claus Ln,,11:00 AM - 11:00 PM,North Pole,AK,99705,64.7805,-147.3694
Pizza Hut,44332 Sterling Hwy,,11:00 AM - 10:00 PM,Soldotna,AK,99669,60.4818,-151.1358
Pizza Hut Express,1801 East Parks Highway,,,Wasilla,AK,99654,61.5923,-149.3959
Pizza Hut,851 E Parks Hwy,,10:00 AM - 10:00 PM,Wasilla,AK,99654,61.5923,-149.3959
Pizza Hut Express,250 South Colonial Drive,,,Alabaster,AL,35007,33.1934,-86.7944
Pizza Hut,634 1st St NE,Ste 200,10:00 AM - 11:00 PM,Alabaster,AL,35007,33.1934,-86.7944
Pizza Hut,6815 Hwy 431 South,,10:00 AM - 11:00 PM,Albertville,AL,35950,34.2739,-86.2064
Pizza Hut,4581 Hwy 280,,10:30 AM - 10:00 PM,Alexander City,AL,35010,32.9164,-85.9368
Pizza Hut,1203 Dr Martin Luther King Jr Exp,,10:30 AM - 10:30 PM,Andalusia,AL,36420,31.2971,-86.4905
Pizza Hut,2109 Quintard Avenue,,11:00 AM - 10:00 PM,Anniston,AL,36201,33.6539,-85.8382
Pizza Hut,229 French Farms Blvd,Ste A,10:00 AM - 10:00 PM,Athens,AL,35611,34.8036,-86.9707
Pizza Hut,1515 S Main St,,11:00 AM - 10:30 PM,Atmore,AL,36502,31.0572,-87.4873
Pizza Hut,1923 S. College St.,,10:45 AM - 9:00 PM,Auburn,AL,36832,32.592,-85.5189
Pizza Hut,604 McMeans Ave,,10:00 AM - 10:00 PM,Bay Minette,AL,36507,30.8635,-87.7644
Pizza Hut,14031 S Wintzell Ave,,10:00 AM - 10:00 PM,Bayou La Batre,AL,36509,30.408,-88.2507
Pizza Hut Express,4889 Promenade Parkway,,,Bessemer,AL,35022,33.3224,-86.9657
Pizza Hut,501 West Town Plaza,Ste 101,10:00 AM - 10:00 PM,Bessemer,AL,35020,33.409,-86.9475
Pizza Hut Express,1654 Gadsden Highway,Target - T1773,,Birmingham,AL,35235,33.6328,-86.6493
Pizza Hut,2016 5th Ave S.,,10:00 AM - 11:00 PM,Birmingham,AL,35233,33.5062,-86.8003
Pizza Hut,2145 Bessemer Rd.,,10:00 AM - 10:00 PM,Birmingham,AL,35210,33.5452,-86.6655
Pizza Hut,2346 Center Point Pkwy,,10:00 AM - 11:00 PM,Birmingham,AL,35215,33.6493,-86.7057
Pizza Hut,437 Green Springs Hwy,Suite 121,10:00 AM - 10:00 PM,Birmingham,AL,35209,33.4653,-86.8082
Pizza Hut,4500 Montevallo Rd,Space No. A101,10:00 AM - 7:30 PM,Birmingham,AL,35210,33.5452,-86.6655
Pizza Hut,9170 Parkway E,,11:00 AM - 10:00 PM,Birmingham,AL,35206,33.5678,-86.7199
Pizza Hut,10631 Highway 5,Rt. 2 Box 6 Aaa Hwy. 5,11:00 AM - 10:00 PM,Brent,AL,35034,32.9357,-87.2114
Pizza Hut,590 South Blvd.,,11:00 AM - 10:00 PM,Brewton,AL,36426,31.1294,-87.0961
Pizza Hut,136 Marketplace Circle,Suite C,10:00 AM - 11:00 PM,Calera,AL,35040,33.1098,-86.756
Pizza Hut,1558 W Main St,,11:00 AM - 10:00 PM,Centre,AL,35960,34.1116,-85.6092
Pizza Hut,411 Chelsea Crossroads,,10:00 AM - 10:00 PM,Chelsea,AL,35043,33.2982,-86.6563
Pizza Hut,710 2nd Ave NW,,12:00 PM - 8:00 PM,Cullman,AL,35055,34.1761,-86.8298
Pizza Hut,609 N Daleville Ave,,10:30 AM - 10:00 PM,Daleville,AL,36322,31.2811,-85.7305
Pizza Hut Express,1241 Point Mallard Pkwy.,Bldg A-4,,Decatur,AL,35601,34.5896,-86.9887
Pizza Hut,2941 Point Mallard Pkwy. SE,Suite I,11:00 AM - 10:00 PM,Decatur,AL,35603,34.5484,-87.0004
Pizza Hut,926 Beltline Rd SW,,10:00 AM - 10:00 PM,Decatur,AL,35601,34.5896,-86.9887
Pizza Hut,1912 SE Ross Clark Cir,,11:00 AM - 11:00 PM,Dothan,AL,36301,31.1481,-85.3718
Pizza Hut,4412 Montgomery Highway,,11:00 AM - 10:00 PM,Dothan,AL,36303,31.2668,-85.3971
Pizza Hut Express,4601 Montgomery Hwy,,,Dothan,AL,36303,31.2668,-85.3971
Pizza Hut,977 Alabama 203,,10:30 AM - 10:00 PM,Elba,AL,36323,31.4137,-86.0777
Pizza Hut,1010 Ft Rucker,,10:30 AM - 10:00 PM,Enterprise,AL,36330,31.3408,-85.8421
Pizza Hut,1110 S Eufaula Ave,,10:30 AM - 10:00 PM,Eufaula,AL,36027,31.9051,-85.1656
Pizza Hut,21465 Hwy. 31,,11:00 AM - 10:00 PM,Flomaton,AL,36441,31.0402,-87.2664
Pizza Hut,859 Cox Creek Parkway,#2,10:00 AM - 11:00 PM,Florence,AL,35630,34.8305,-87.656
Pizza Hut,1350 S. McKenzie Rd.,,10:00 AM - 11:00 PM,Foley,AL,36535,30.4007,-87.6857
Pizza Hut,203 Greenhill Blvd.,,10:00 AM - 10:00 PM,Fort Payne,AL,35967,34.4368,-85.7124
Pizza Hut Express,3489 Lowery Parkway,,10:00 AM - 8:00 PM,Fultondale,AL,35068,33.6017,-86.8265
Pizza Hut,510 E Meighan Blvd,# 7,11:00 AM - 10:00 PM,Gadsden,AL,35903,33.9845,-85.9077
Pizza Hut,1000 W Maple Ave,,10:30 AM - 10:00 PM,Geneva,AL,36340,31.0414,-85.8847
Pizza Hut,41263C Al Hwy. 75,,11:00 AM - 10:00 PM,Geraldine,AL,35974,34.3592,-86.024
Pizza Hut,915 Fort Dale Rd,,10:00 AM - 10:00 PM,Greenville,AL,36037,31.81,-86.6229
Pizza Hut Express,3820 Gulf Shores Pkwy.,,,Gulf Shores,AL,36542,30.2717,-87.7589
Pizza Hut,1819 11th Avenue,,11:00 AM - 10:00 PM,Haleyville,AL,35565,34.2314,-87.5938
Pizza Hut,360 Bexar Ave. East,,11:00 AM - 10:00 PM,Hamilton,AL,35570,34.1534,-88.0085
Pizza Hut,200 Highway 31 SW,,10:00 AM - 10:00 PM,Hartselle,AL,35640,34.4482,-86.9242
Pizza Hut,16640 US Highway,#431,10:30 AM - 10:00 PM,Headland,AL,36345,31.3534,-85.3323
Pizza Hut,495 Helena Market Place,,10:00 AM - 10:00 PM,Helena,AL,35080,33.2663,-86.902
Pizza Hut,2312 John Hawkins Pkwy,,10:00 AM - 10:00 PM,Hoover,AL,35244,33.3538,-86.8254
Pizza Hut Express,5561 Grove Blvd.,,,Hoover,AL,35226,33.3967,-86.8346
Pizza Hut,3029 Allison Bonnett Memorial Dr,# 109,10:00 AM - 11:00 PM,Hueytown,AL,35023,33.468,-87.0924
Pizza Hut,11570 Memorial Pkwy S,,11:00 AM - 10:00 PM,Huntsville,AL,35803,34.6205,-86.551
Pizza Hut,2246 Winchester Rd. NE,Unit #308,11:00 AM - 10:00 PM,Huntsville,AL,35811,34.7789,-86.5438
Pizza Hut,2417 N Memorial Pkwy,,11:00 AM - 8:00 PM,Huntsville,AL,35810,34.7784,-86.6091
Pizza Hut Express,2750 Carl T Jones Drive SE,Target - T1367,,Huntsville,AL,35802,34.6679,-86.5603
Pizza Hut,4802 University Dr NW,,11:00 AM - 10:00 PM,Huntsville,AL,35816,34.7389,-86.6249
Pizza Hut Express,6275 University Drive NW,Target - T1346,,Huntsville,AL,35806,34.7448,-86.6704
Pizza Hut Express,4623 Grantswood Rd,Quick Shop #23,,Irondale,AL,35210,33.5452,-86.6655
Pizza Hut,2123 N. College,,10:00 AM - 10:00 PM,Jackson,AL,36545,31.5131,-87.8672
Pizza Hut,816 Pelham Rd S,,10:30 AM - 10:00 PM,Jacksonville,AL,36265,33.831,-85.7752
Pizza Hut,1160 Hwy 78 East,,10:30 AM - 10:00 PM,Jasper,AL,35501,33.8312,-87.2775
Pizza Hut,24557 US Hwy. 31,,10:00 AM - 10:00 PM,Jemison,AL,35085,32.9805,-86.7181
Pizza Hut,1127 Highway 72,#8,11:00 AM - 10:00 PM,Killen,AL,35645,34.9016,-87.5082
Pizza Hut,424 S. Forest Ave.,,11:00 AM - 10:00 PM,Luverne,AL,36049,31.7074,-86.2566
Pizza Hut,7950 Highway 72 W,,11:00 AM - 11:00 PM,Madison,AL,35758,34.7108,-86.7425
Pizza Hut Express,8207 Highway 72 W,,,Madison,AL,35758,34.7108,-86.7425
Pizza Hut,8830 Madison Blvd,,11:00 AM - 11:00 PM,Madison,AL,35758,34.7108,-86.7425
Pizza Hut,11818 US Hwy 231/431 North,,11:00 AM - 10:00 PM,Meridianville,AL,35759,34.8618,-86.5789
Pizza Hut,4110 Highway 14,,10:00 AM - 10:00 PM,Millbrook,AL,36054,32.4995,-86.3641
Pizza Hut,1866-A Government St,,10:00 AM - 10:00 PM,Mobile,AL,36606,30.6729,-88.1009
Pizza Hut,1956 S University,,10:00 AM - 10:00 PM,Mobile,AL,36609,30.6605,-88.1618
Pizza Hut,2502 Schillinger,,10:00 AM - 10:00 PM,Mobile,AL,36695,30.6474,-88.2292
Pizza Hut Express,307 N. University Blvd.,University Of South Alabama,,Mobile,AL,36688,30.6962,-88.1821
Pizza Hut,5821 Old Shell Rd,Ste G,10:00 AM - 11:00 PM,Mobile,AL,36608,30.6817,-88.2945
Pizza Hut,7745-A Moffat Rd,,10:00 AM - 11:00 PM,Mobile,AL,36618,30.7322,-88.1758
Pizza Hut,2060 S. Hwy. 21 Bypass,,10:00 AM - 10:00 PM,Monroeville,AL,36460,31.5153,-87.341
Pizza Hut,750 Main St.,,10:00 AM - 10:00 PM,Montevallo,AL,35115,33.1248,-86.8622
Pizza Hut Express,1061 Eastern Blvd,Lion's Pride #4 Eastern Bypass,,Montgomery,AL,36117,32.3736,-86.1833
Pizza Hut,2865 E South Blvd,,10:00 AM - 10:00 PM,Montgomery,AL,36116,32.3129,-86.2421
Pizza Hut,3992 Atlanta Highway,,10:00 AM - 11:00 PM,Montgomery,AL,36106,32.3543,-86.2673
Pizza Hut,6371 Atlanta Hwy,,10:00 AM - 10:00 PM,Montgomery,AL,36117,32.3736,-86.1833
Pizza Hut,7827 Vaughn Rd,,11:00 AM - 8:00 PM,Montgomery,AL,36116,32.3129,-86.2421
Pizza Hut,11930 Hwy 157,,11:00 AM - 10:00 PM,Moulton,AL,35650,34.5058,-87.2224
Pizza Hut,611 E. Avalon Ave,,10:00 AM - 10:00 PM,Muscle Shoals,AL,35661,34.7561,-87.6304
Pizza Hut,720 2nd Ave E,,10:00 AM - 8:00 PM,Oneonta,AL,35121,33.9259,-86.4741
Pizza Hut Express,2640 Enterprise Drive,,,Opelika,AL,36801,32.6454,-85.3783
Pizza Hut,3611 Pepperell Pkwy,,11:00 AM - 10:00 PM,Opelika,AL,36801,32.6454,-85.3783
Pizza Hut,902 Florala Highway 331 South,,11:00 AM - 10:00 PM,Opp,AL,36467,31.2799,-86.2571
Pizza Hut,25908-I Canal Road,,10:00 AM - 11:00 PM,Orange Beach,AL,36561,30.281,-87.5815
Pizza Hut,6585 B Hwy 431S,,11:00 AM - 10:00 PM,Owens Cross Roads,AL,35763,34.6215,-86.4644
Pizza Hut,202 Hamric Dr E,,11:00 AM - 11:00 PM,Oxford,AL,36203,33.5815,-85.8328
Pizza Hut,1110 280 Byp,,11:00 AM - 11:00 PM,Phenix City,AL,36867,32.4978,-85.0234
Pizza Hut,2319 Lee Road 427,Suite 1,,Phenix City,AL,36867,32.4978,-85.0234
Pizza Hut Express,2953 Legends Parkway,,,Prattville,AL,36066,32.4787,-86.43
Pizza Hut,711 E Main St,,10:00 AM - 10:00 PM,Prattville,AL,36067,32.4715,-86.4831
Pizza Hut,3 Independent Dr,,10:00 AM - 10:00 PM,Rainbow City,AL,35906,33.9318,-86.0898
Pizza Hut,200 Main St W,Ste. 102,11:00 AM - 10:00 PM,Rainsville,AL,35986,34.4989,-85.8446
Pizza Hut,3019 Highway 431 Byp S,,10:30 AM - 10:00 PM,Roanoke,AL,36274,33.1512,-85.3722
Pizza Hut,22722 Hwy. 59 S.,,10:00 AM - 10:00 PM,Robertsdale,AL,36567,30.5616,-87.6373
Pizza Hut,16086 US Hwy 72,,11:00 AM - 10:00 PM,Rogersville,AL,35652,34.8495,-87.3237
Pizza Hut,13450 Highway 43,,10:00 AM - 10:00 PM,Russellville,AL,35653,34.5066,-87.7257
Pizza Hut,12 Hwy. 43 South,,10:00 AM - 10:00 PM,Saraland,AL,36571,30.8332,-88.0934
Pizza Hut,3310 S. Broad Street,,10:30 AM - 10:00 PM,Scottsboro,AL,35769,34.618,-86.0562
Pizza Hut,1121 Highland Ave,,11:00 AM - 10:00 PM,Selma,AL,36703,32.4156,-87.0135
Pizza Hut Express,2530 US Hwy 80,Lion's Pride Cross Roads,,Selma,AL,36701,32.4197,-87.0245
Pizza Hut,426 W. Lawrence Harris Hwy.,,10:30 AM - 9:00 PM,Slocomb,AL,36375,31.0956,-85.583
Pizza Hut,10179 Eastern Shore Blvd.,Space 103,10:00 AM - 10:00 PM,Spanish Fort,AL,36527,30.6959,-87.8867
Pizza Hut,300 Springville Station Rd.,Ste. 1500,10:00 AM - 10:00 PM,Springville,AL,35146,33.7386,-86.4394
Pizza Hut,620 W Fort Williams St,,10:30 AM - 10:00 PM,Sylacauga,AL,35150,33.1717,-86.2713
Pizza Hut,205 Battle Street East,,10:30 AM - 10:00 PM,Talladega,AL,35160,33.4354,-86.1134
Pizza Hut,1514 Gilmer Avenue,,10:30 AM - 10:00 PM,Tallassee,AL,36078,32.551,-85.8978
Pizza Hut,5827 Hwy. 90 West,Suite A,10:00 AM - 10:00 PM,Theodore,AL,36582,30.5444,-88.1807
Pizza Hut,33566 Hwy. 43 N.,,10:00 AM - 9:00 PM,Thomasville,AL,36784,31.9067,-87.7598
Pizza Hut,109 Hwy 231 North,,11:00 AM - 10:00 PM,Troy,AL,36081,31.7945,-85.9655
Pizza Hut,1110 N Chalkville Rd,Ste 100,10:00 AM - 10:00 PM,Trussville,AL,35173,33.6339,-86.5981
Pizza Hut Express,160 McCorvey Drive,University Of Alabama,,Tuscaloosa,AL,35487,33.3072,-87.5859
Pizza Hut,1875 McFarland Blvd N,Ste 150,10:30 AM - 10:00 PM,Tuscaloosa,AL,35406,33.2722,-87.536
Pizza Hut,5000 Oscar Baxter Dr,,10:00 AM - 9:00 PM,Tuscaloosa,AL,35401,33.1969,-87.5627
Pizza Hut,703 W. Martin Luther King Hwy.,Suite 4,11:00 AM - 8:00 PM,Tuskegee,AL,36083,32.4316,-85.6861
Pizza Hut,3009 20th Ave,,10:30 AM - 10:00 PM,Valley,AL,36854,32.8113,-85.1749
Pizza Hut,5229 US Hwy 231,,10:00 AM - 10:00 PM,Wetumpka,AL,36092,32.5927,-86.2153
Pizza Hut,2184 Hwy 43,,11:00 AM - 10:00 PM,Winfield,AL,35594,33.9303,-87.7972
Pizza Hut,415 W. Cherry St.,Suite 105,11:00 AM - 10:00 PM,Alma,AR,72921,35.5,-94.2073
Pizza Hut,1201 North 10th Street,,10:30 AM - 10:00 PM,Arkadelphia,AR,71923,34.1153,-93.069
Pizza Hut,142 Hwy 62/412,,10:30 AM - 10:00 PM,Ash Flat,AR,72513,36.2201,-91.6421
Pizza Hut,1110 S. Constitution Ave.,,10:30 AM - 10:00 PM,Ashdown,AR,71822,33.6787,-94.1351
Pizza Hut,3115 Harrison St,,11:00 AM - 12:00 AM,Batesville,AR,72501,35.7826,-91.6352
Pizza Hut,2043 W. Center St.,,10:30 AM - 10:00 PM,Beebe,AR,72012,35.0937,-91.9074
Pizza Hut,30 Sugar Creek Ctr.,,10:00 AM - 10:00 PM,Bella Vista,AR,72714,36.4676,-94.2166
Pizza Hut,1050 Salem Rd.,,11:00 AM - 10:00 PM,Benton,AR,72019,34.604,-92.6259
Pizza Hut,1202 Military Road,,11:00 AM - 10:00 PM,Benton,AR,72015,34.4933,-92.5896
Pizza Hut,912 W Trimble Ave,,11:00 AM - 9:00 PM,Berryville,AR,72616,36.3519,-93.5587
Pizza Hut,825 E. Main St.,Suite J,10:30 AM - 10:00 PM,Blytheville,AR,72315,35.9273,-89.919
Pizza Hut,1516 N. Main Street,,10:45 AM - 10:00 PM,Brinkley,AR,72021,34.8781,-91.1886
Pizza Hut,2919 N Reynolds Rd.,,11:00 AM - 10:00 PM,Bryant,AR,72022,34.6068,-92.492
Pizza Hut Express,7377 Alcoa Rd,,,Bryant,AR,72022,34.6068,-92.492
Pizza Hut,622 W Main St,,10:30 AM - 10:00 PM,Cabot,AR,72023,34.9457,-92.0318
Pizza Hut,306 E Centerton Blvd,,10:30 AM - 11:00 PM,Centerton,AR,72719,36.367,-94.3089
Pizza Hut,1151 S Rogers St,,10:30 AM - 10:00 PM,Clarksville,AR,72830,35.4908,-93.4911
Pizza Hut,160 Bone St.,,10:45 AM - 10:00 PM,Clinton,AR,72031,35.6045,-92.4758
Pizza Hut,1825 E. Oak St.,,10:30 AM - 10:00 PM,Conway,AR,72032,35.0842,-92.4236
Pizza Hut Express,201 Donaghey Avenue,University Of Central Arkansas,,Conway,AR,72035,35.1053,-92.3549
Pizza Hut Express,501 Elsinger Blvd.,,,Conway,AR,72032,35.0842,-92.4236
Pizza Hut,705 Club Lane,Suite 101,10:00 AM - 12:00 AM,Conway,AR,72034,35.0823,-92.4683
Pizza Hut,511 Union St,,11:00 AM - 10:00 PM,Dardanelle,AR,72834,35.1955,-93.1873
Pizza Hut,130 Hwy 71 North,,10:45 AM - 10:00 PM,De Queen,AR,71832,34.0442,-94.3386
Pizza Hut,705 Hwy. 65 S.,,10:30 AM - 10:00 PM,Dumas,AR,71639,33.8921,-91.4861
Pizza Hut Express,408 State Highway 149 North,Travel Centers Of America,,Earle,AR,72331,35.2799,-90.4503
Pizza Hut,1706 North West Ave,,10:30 AM - 11:00 PM,El Dorado,AR,71730,33.2073,-92.6629
Pizza Hut,2048 E Van Buren,,3:00 PM - 9:00 PM,Eureka Springs,AR,72632,36.4175,-93.7379
Pizza Hut,1261 N. Steamboat Dr.,Suite 5,11:00 AM - 11:00 PM,Fayetteville,AR,72704,36.0877,-94.3093
Pizza Hut,314 South School Avenue,,11:00 AM - 12:00 AM,Fayetteville,AR,72701,36.052,-94.1534
Pizza Hut,117 Marshall Rd.,,11:00 AM - 8:00 PM,Flippin,AR,72634,36.2682,-92.578
Pizza Hut,1114 W 4th St,,10:45 AM - 10:00 PM,Fordyce,AR,71742,33.8176,-92.4225
Pizza Hut,2023 N Washington St,,10:30 AM - 10:00 PM,Forrest City,AR,72335,35.0091,-90.7886
Pizza Hut,1323 Highway 71 S,,10:30 AM - 10:00 PM,Fort Smith,AR,72901,35.3653,-94.411
Pizza Hut,1923 Grand Ave,,10:00 AM - 12:00 AM,Fort Smith,AR,72901,35.3653,-94.411
Pizza Hut Express,4001 Phoenix Ave,,,Fort Smith,AR,72903,35.3427,-94.3784
Pizza Hut,8632 Rogers Ave,,10:30 AM - 11:00 PM,Fort Smith,AR,72903,35.3427,-94.3784
Pizza Hut,8 S. Broadview,Suite C,10:30 AM - 10:00 PM,Greenbrier,AR,72058,35.2295,-92.3578
Pizza Hut,910 W. Center St.,Suite D,10:30 AM - 10:00 PM,Greenwood,AR,72936,35.1955,-94.253
Pizza Hut,1602 North Main,,10:30 AM - 10:00 PM,Harrison,AR,72601,36.2417,-93.1062
Pizza Hut,515 S Main,,10:30 AM - 10:00 PM,Harrison,AR,72601,36.2417,-93.1062
Pizza Hut,1800 Hwy 25 N,,11:00 AM - 10:00 PM,Heber Springs,AR,72543,35.5103,-92.0392
Pizza Hut,905 Commerce Drive,,10:30 AM - 10:00 PM,Hope,AR,71801,33.6736,-93.6068
Pizza Hut,1607 Albert Pike Rd,Suite A,11:00 AM - 11:00 PM,Hot Springs,AR,71913,34.5317,-93.0638
Pizza Hut,3539 Central Ave,# D,11:00 AM - 11:00 PM,Hot Springs,AR,71913,34.5317,-93.0638
Pizza Hut,211 S. Harris,,11:00 AM - 8:00 PM,Huntsville,AR,72740,36.1043,-93.7279
Pizza Hut,2126 N 1st St,Suite P,10:30 AM - 11:00 PM,Jacksonville,AR,72076,34.919,-92.1419
Pizza Hut Express,3000 East Highland Drive,,8:00 AM - 10:00 PM,Jonesboro,AR,72401,35.833,-90.6965
Pizza Hut,900 S. Caraway Rd,,10:30 AM - 11:00 PM,Jonesboro,AR,72401,35.833,-90.6965
Pizza Hut,10101 Mabelvale Plaza Dr,Ste 6,10:30 AM - 11:00 PM,Little Rock,AR,72209,34.6725,-92.3529
Pizza Hut,11410 W Markham Road,,10:00 AM - 11:00 PM,Little Rock,AR,72211,34.7413,-92.4222
Pizza Hut Express,12700 Chenal Parkway,,,Little Rock,AR,72211,34.7413,-92.4222
Pizza Hut,14710 Cantrell Rd,,10:30 AM - 10:00 PM,Little Rock,AR,72223,34.7902,-92.5044
Pizza Hut Express,18 Colonel Glenn Plaza Dr,Rave Colonel Glenn #1083,,Little Rock,AR,72210,34.7076,-92.466
Pizza Hut,20501 Arch St.,,11:00 AM - 10:00 PM,Little Rock,AR,72206,34.6836,-92.2776
Pizza Hut,2912 S University Ave,,10:30 AM - 11:00 PM,Little Rock,AR,72204,34.7269,-92.344
Pizza Hut Express,420 S. University Avenue,,,Little Rock,AR,72205,34.751,-92.3455
Pizza Hut,903A N. Bloomington,Ste. 107,10:00 AM - 11:00 PM,Lowell,AR,72745,36.2554,-94.1308
Pizza Hut,1621 E Main St,,11:00 AM - 10:00 PM,Magnolia,AR,71753,33.2647,-93.2392
Pizza Hut,115 Audubon Dr,Suite 3,10:30 AM - 10:00 PM,Maumelle,AR,72113,34.8491,-92.4059
Pizza Hut,582 AR-365,Suite G,10:30 AM - 10:00 PM,Mayflower,AR,72106,34.9669,-92.4001
Pizza Hut,703 Highway 71 N,,10:45 AM - 10:00 PM,Mena,AR,71953,34.5814,-94.221
Pizza Hut,133 North Park Dr.,Ste. 15,10:30 AM - 10:00 PM,Monticello,AR,71655,33.625,-91.7948
Pizza Hut,1804 E Harding,,10:45 AM - 10:00 PM,Morrilton,AR,72110,35.1692,-92.7354
Pizza Hut,1205 Hwy 62 E,,10:30 AM - 9:00 PM,Mountain Home,AR,72653,36.3312,-92.3753
Pizza Hut,Intersections 5 9 & 14,,10:45 AM - 9:00 PM,Mountain View,AR,72560,35.8208,-92.0389
Pizza Hut,1716 S 4th St.,Ste. 6,10:30 AM - 10:00 PM,Nashville,AR,71852,33.9576,-93.8707
Pizza Hut,305 Highway 367 North,,11:00 AM - 10:00 PM,Newport,AR,72112,35.5988,-91.2571
Pizza Hut Express,3300 AR-391,Pilot Travel Center #332,,North Little Rock,AR,72117,34.7658,-92.1524
Pizza Hut,4438 Camp Robinson Rd,,10:30 AM - 11:00 PM,North Little Rock,AR,72118,34.8337,-92.3289
Pizza Hut,1512 W Commercial Street,,10:30 AM - 10:00 PM,Ozark,AR,72949,35.5246,-93.8374
Pizza Hut,2711 W. Kings Highway,Ste. 18,10:45 AM - 10:00 PM,Paragould,AR,72450,36.06,-90.5251
Pizza Hut,150 South Curtis A,,10:30 AM - 10:00 PM,Pea Ridge,AR,72751,36.4539,-94.118
Pizza Hut Express,1200 N. University Dr.,University Of Arkansas At Pine Bluff,,Pine Bluff,AR,71601,34.209,-91.9859
Pizza Hut,2711 S Hazel St,,10:00 AM - 10:00 PM,Pine Bluff,AR,71603,34.1897,-92.0448
Pizza Hut,114 E. First St.,#518,10:30 AM - 9:00 PM,Prescott,AR,71857,33.804,-93.3725
Pizza Hut,1717 W. Walnut St.,#A,10:00 AM - 12:00 AM,Rogers,AR,72756,36.3363,-94.1148
Pizza Hut Express,2404 Promenade Blvd.,,,Rogers,AR,72758,36.3169,-94.1545
Pizza Hut,502 North Arkansas Avenue,,11:00 AM - 11:00 PM,Russellville,AR,72801,35.2842,-93.1315
Pizza Hut,906 E. Beebe Capps Expwy.,,11:00 AM - 12:00 AM,Searcy,AR,72143,35.2436,-91.7317
Pizza Hut,1310 S. Rock St.,,10:30 AM - 10:00 PM,Sheridan,AR,72150,34.3165,-92.3657
Pizza Hut,8611 Hwy. 107,#110,10:30 AM - 11:00 PM,Sherwood,AR,72120,34.8807,-92.2303
Pizza Hut,1772 W. Sunset,#2-A,11:00 AM - 11:00 PM,Springdale,AR,72762,36.1835,-94.1762
Pizza Hut,2921 S. Old Missouri Road,,11:00 AM - 11:00 PM,Springdale,AR,72764,36.1716,-94.0428
Pizza Hut,210A W 22nd St,,10:30 AM - 10:00 PM,Stuttgart,AR,72160,34.4854,-91.5487
Pizza Hut,101 East Street,,10:30 AM - 10:00 PM,Texarkana,AR,71854,33.431,-93.8765
Pizza Hut,3704 N State Line Avenue,,10:30 AM - 11:00 PM,Texarkana,AR,71854,33.431,-93.8765
Pizza Hut,1214 Speedway,,11:00 AM - 10:00 PM,Trumann,AR,72472,35.5882,-90.562
Pizza Hut,1514 Fayetteville Rd,Ste E,10:30 AM - 11:00 PM,Van Buren,AR,72956,35.454,-94.3278
Pizza Hut,555 Frankie Matthew Dr,,10:45 AM - 9:00 PM,Waldron,AR,72958,34.9026,-94.0772
Pizza Hut,2811 Hwy 67 North,,10:30 AM - 10:00 PM,Walnut Ridge,AR,72476,36.0244,-90.9288
Pizza Hut,105 W Central St,,10:30 AM - 10:00 PM,Warren,AR,71671,33.614,-92.0778
Pizza Hut,1109 N Missouri St,,10:00 AM - 10:00 PM,West Memphis,AR,72301,35.1484,-90.1779
Pizza Hut,7197 Sheridan Rd,Suite 104,10:30 AM - 10:00 PM,White Hall,AR,71602,34.274,-92.091
Pizza Hut,1817 N Falls Blvd,,10:30 AM - 10:00 PM,Wynne,AR,72396,35.233,-90.793
Pizza Hut,240 S Phelps Drive,,10:30 AM - 10:00 PM,Apache Junction,AZ,85120,33.3931,-111.5768
Pizza Hut,10685 W. Indian School Rd.,#J,10:30 AM - 12:00 AM,Avondale,AZ,85392,33.4777,-112.3093
Pizza Hut,1450 N. Dysart Road,,10:30 AM - 11:00 PM,Avondale,AZ,85323,33.4321,-112.3438
Pizza Hut,1217 E US Hwy 85,,10:30 AM - 11:00 PM,Buckeye,AZ,85326,33.3703,-112.5838
Pizza Hut,1300 S Watson Road,Suite A103,10:30 AM - 12:00 AM,Buckeye,AZ,85326,33.3703,-112.5838
Pizza Hut,19580 W Indian School Rd,,10:30 AM - 11:00 PM,Buckeye,AZ,85396,33.468,-112.4787
Pizza Hut,1855 Highway 95,,10:30 AM - 10:00 PM,Bullhead City,AZ,86442,35.106,-114.5947
Pizza Hut Express,3699 Highway 95,,,Bullhead City,AZ,86442,35.106,-114.5947
Pizza Hut,714 E Florence Blvd,,10:30 AM - 11:00 PM,Casa Grande,AZ,85122,32.8905,-111.754
Pizza Hut,1000 N Arizona Ave,,10:30 AM - 12:00 AM,Chandler,AZ,85225,33.3105,-111.8239
Pizza Hut,1919 W. Chandler Blvd.,#104,10:30 AM - 11:00 PM,Chandler,AZ,85224,33.3301,-111.8632
Pizza Hut,2960 S Alma School Rd.,#2,10:30 AM - 11:00 PM,Chandler,AZ,85286,33.2711,-111.8311
Pizza Hut Express,3425 W. Frye Road,,,Chandler,AZ,85226,33.3092,-111.9198
Pizza Hut Express,3777 S. Arizona Avenue,,,Chandler,AZ,85248,33.2509,-111.8593
Pizza Hut,4970 S. Gilbert Rd.,,10:30 AM - 11:00 PM,Chandler,AZ,85249,33.2414,-111.7745
Pizza Hut,5055 W Ray Road,A-6,10:30 AM - 12:00 AM,Chandler,AZ,85226,33.3092,-111.9198
Pizza Hut,985 W. Elliott Rd.,#3,10:30 AM - 11:00 PM,Chandler,AZ,85225,33.3105,-111.8239
Pizza Hut Express,100 Main Street,Best Western Canyon De Chelly Inn,,Chinle,AZ,86503,36.1304,-109.6037
Pizza Hut,312 Marketplace Dr,,10:30 AM - 10:00 PM,Chino Valley,AZ,86323,34.7757,-112.4731
Pizza Hut,109 N Arizona Blvd,,10:30 AM - 10:00 PM,Coolidge,AZ,85128,32.9574,-111.5344
Pizza Hut,472 S. Main Street,,10:30 AM - 10:00 PM,Cottonwood,AZ,86326,34.7055,-112.0091
Pizza Hut Express,1737 S Avenue 64 E,Dateland Travel Center,,Dateland,AZ,85333,32.8679,-113.4631
Pizza Hut,300 16th St,,10:30 AM - 10:00 PM,Douglas,AZ,85607,31.3511,-109.5447
Pizza Hut,3720 W Tohono Dr,,10:30 AM - 10:00 PM,Eloy,AZ,85131,32.7509,-111.5833
Pizza Hut Express,1050 S. Knoles Drive,Northern Arizona University,,Flagstaff,AZ,86011,35.1981,-111.6513
Pizza Hut Express,1650 S. Milton Road,,,Flagstaff,AZ,86001,35.1859,-111.662
Pizza Hut,2700 S Woodlands Village Blvd,Ste 400,10:30 AM - 11:00 PM,Flagstaff,AZ,86001,35.1859,-111.662
Pizza Hut,4825 Hwy 95,# 6 & 7,10:30 AM - 10:00 PM,Fort Mohave,AZ,86426,35.0052,-114.5687
Pizza Hut,13693 N. Fountain Hills Blvd.,#103,10:30 AM - 10:00 PM,Fountain Hills,AZ,85268,33.6085,-111.7237
Pizza Hut Express,3931 S. Gilbert Road,,,Gilbert,AZ,85297,33.2781,-111.7096
Pizza Hut,895 S Val Vista Dr,,10:30 AM - 12:00 AM,Gilbert,AZ,85296,33.3354,-111.7406
Pizza Hut Express,10404 North 43rd Avenue,,,Glendale,AZ,85302,33.5675,-112.1753
Pizza Hut,13105 W Glendale Ave,,10:30 AM - 11:00 PM,Glendale,AZ,85307,33.5376,-112.3137
Pizza Hut,4322 W Glendale Ave,,10:30 AM - 10:00 PM,Glendale,AZ,85301,33.5311,-112.1767
Pizza Hut,5825 W Bell Rd,,10:30 AM - 12:00 AM,Glendale,AZ,85308,33.6539,-112.1694
Pizza Hut,6650 W Bethany Home Rd,,10:30 AM - 12:00 AM,Glendale,AZ,85301,33.5311,-112.1767
Pizza Hut,8860 N 43rd Ave,,10:30 AM - 12:00 AM,Glendale,AZ,85302,33.5675,-112.1753
Pizza Hut,1497 Ash St,,10:30 AM - 11:00 PM,Globe,AZ,85501,33.4024,-110.7892
Pizza Hut,15557 W. Roosevelt,Suite #106,10:30 AM - 12:00 AM,Goodyear,AZ,85338,33.4368,-112.3834
Pizza Hut Express,995 S. Cotton Lane,,8:00 AM - 9:00 PM,Goodyear,AZ,85338,33.4368,-112.3834
Pizza Hut,18850 S Nogales Hwy,,10:30 AM - 10:00 PM,Green Valley,AZ,85614,31.8543,-111.0003
Pizza Hut,1606 Navajo Blvd.,,10:30 AM - 10:00 PM,Holbrook,AZ,86025,34.9085,-110.1434
Pizza Hut,2911 Stockton Hill Rd,,10:30 AM - 11:00 PM,Kingman,AZ,86401,35.1328,-113.7033
Pizza Hut,3295 E Andy Devine Ave,,10:30 AM - 10:00 PM,Kingman,AZ,86401,35.1328,-113.7033
Pizza Hut,230 Swanson Ave,,10:30 AM - 10:00 PM,Lake Havasu City,AZ,86403,34.4814,-114.3483
Pizza Hut,2960 N. Kiowa Blvd.,,10:30 AM - 10:00 PM,Lake Havasu City,AZ,86404,34.5575,-114.3307
Pizza Hut,5270 W. Baseline Rd.,#165,10:30 AM - 12:00 AM,Laveen,AZ,85339,33.3436,-112.1716
Pizza Hut,21101 N. John Wayne Hwy.,,10:30 AM - 10:00 PM,Maricopa,AZ,85139,32.9576,-112.0534
Pizza Hut Express,1051 N. Dobson Rd.,Cinemark Mesa 16 #366,,Mesa,AZ,85201,33.4317,-111.8469
Pizza Hut,1140 S. Country Club Dr.,#110,10:30 AM - 12:00 AM,Mesa,AZ,85210,33.3887,-111.8428
Pizza Hut Express,1230 S. Longmore Avenue,,9:00 AM - 7:00 PM,Mesa,AZ,85202,33.3851,-111.8724
Pizza Hut,1901 W Main St,,10:30 AM - 12:00 AM,Mesa,AZ,85201,33.4317,-111.8469
Pizza Hut,2056 E Baseline Rd,,10:30 AM - 11:00 PM,Mesa,AZ,85204,33.3992,-111.7896
Pizza Hut,2639 E Broadway Rd,Ste 104,10:30 AM - 12:00 AM,Mesa,AZ,85204,33.3992,-111.7896
Pizza Hut,2727 E. McKellips Rd.,#106,10:30 AM - 11:00 PM,Mesa,AZ,85213,33.4367,-111.7731
Pizza Hut,6017 East McKellips Rd.,,10:30 AM - 10:00 PM,Mesa,AZ,85215,33.4707,-111.7188
Pizza Hut,6671 E Baseline Rd.,#121,10:30 AM - 11:00 PM,Mesa,AZ,85206,33.4026,-111.7242
Pizza Hut,9053 E. Baseline Rd.,#105A,10:30 AM - 10:00 PM,Mesa,AZ,85209,33.3782,-111.6406
Pizza Hut,9333 East Apache Trail,Suite 101,10:30 AM - 11:00 PM,Mesa,AZ,85207,33.4321,-111.6426
Pizza Hut,589 Grand Ave,,10:30 AM - 10:00 PM,Nogales,AZ,85621,31.377,-110.9435
Pizza Hut,6 S Lake Powell Blvd,,10:00 AM - 10:00 PM,Page,AZ,86040,36.9147,-111.4558
Pizza Hut,1004 California Ave.,,10:30 AM - 10:00 PM,Parker,AZ,85344,34.15,-114.2891
Pizza Hut,113 S Beeline Hwy,,10:30 AM - 11:00 PM,Payson,AZ,85541,34.2198,-111.2878
Pizza Hut,21391 N. Lake Pleasant Pkwy.,Suite 1840,10:30 AM - 10:00 PM,Peoria,AZ,85382,33.6308,-112.2072
Pizza Hut,24786 N 67th Ave,#110,10:30 AM - 10:00 PM,Peoria,AZ,85383,33.7169,-112.238
Pizza Hut Express,24890 N Lake Pleasant Pkwy,,,Peoria,AZ,85383,33.7169,-112.238
Pizza Hut,6750 W. Peoria Ave.,#111,10:30 AM - 11:00 PM,Peoria,AZ,85345,33.5761,-112.2344
Pizza Hut,9151 W. Peoria Rd.,Suite 101,10:30 AM - 1:00 AM,Peoria,AZ,85345,33.5761,-112.2344
Pizza Hut,13624 N. 35th Avenue,,10:30 AM - 11:00 PM,Phoenix,AZ,85029,33.5961,-112.1199
Pizza Hut,1520 N 43rd Ave,,10:30 AM - 12:00 AM,Phoenix,AZ,85009,33.4564,-112.1284
Pizza Hut Express,16806 N. 7th Street,,,Phoenix,AZ,85022,33.6315,-112.052
Pizza Hut,1816 W. Bethany Home Road,Ste 104,10:30 AM - 12:00 AM,Phoenix,AZ,85015,33.5082,-112.1011
Pizza Hut,1839 W Indian School Rd,,10:30 AM - 10:00 PM,Phoenix,AZ,85015,33.5082,-112.1011
Pizza Hut,20206 North 27th Ave.,Suite B,10:30 AM - 12:00 AM,Phoenix,AZ,85027,33.6819,-112.0996
Pizza Hut,21 W. Van Buren St.,Ste. G4,10:30 AM - 12:00 AM,Phoenix,AZ,85003,33.4511,-112.0774
Pizza Hut,2436 E Bell Rd,,10:30 AM - 12:00 AM,Phoenix,AZ,85032,33.6238,-112.0044
Pizza Hut Express,2660 W. Thunderbird,,,Phoenix,AZ,85023,33.6324,-112.1118
Pizza Hut,2835 N 16th St.,#103,10:30 AM - 10:00 PM,Phoenix,AZ,85006,33.465,-112.0474
Pizza Hut,3103 E. Cactus Road,,10:30 AM - 10:00 PM,Phoenix,AZ,85028,33.5851,-112.0087
Pizza Hut,3145 E Chandler Blvd,,10:30 AM - 11:00 PM,Phoenix,AZ,85048,33.316,-112.0669
Pizza Hut,34640 N. North Valley Pkwy.,#A3,10:30 AM - 11:00 PM,Phoenix,AZ,85086,33.8155,-112.1202
Pizza Hut,3602 E Thomas Rd,,10:30 AM - 1:00 AM,Phoenix,AZ,85018,33.4958,-111.9883
Pizza Hut,3602 W Camelback Rd,,10:30 AM - 11:00 PM,Phoenix,AZ,85019,33.5123,-112.1417
Pizza Hut,420 E. Bell Road,Suite C101,10:30 AM - 10:00 PM,Phoenix,AZ,85022,33.6315,-112.052
Pizza Hut Express,4515 East Thomas Road,,,Phoenix,AZ,85018,33.4958,-111.9883
Pizza Hut,4708 S 48th St,,10:30 AM - 12:00 AM,Phoenix,AZ,85040,33.4061,-112.0265
Pizza Hut,5045 W Indian School Rd,,10:30 AM - 10:00 PM,Phoenix,AZ,85031,33.4939,-112.1696
Pizza Hut,5233 S Central Ave,Ste 9,10:30 AM - 12:00 AM,Phoenix,AZ,85040,33.4061,-112.0265
Pizza Hut Express,5715 N. 19th Avenue,,,Phoenix,AZ,85015,33.5082,-112.1011
Pizza Hut,5832 16th Street,,10:30 AM - 12:00 AM,Phoenix,AZ,85016,33.5021,-112.0305
Pizza Hut,6601 W Indian School Rd,,10:30 AM - 10:00 PM,Phoenix,AZ,85033,33.4944,-112.2132
Pizza Hut Express,7409 W. Virginia Avenue,,,Phoenix,AZ,85035,33.4724,-112.1832
Pizza Hut,8052 N. 19th Ave.,#14,10:30 AM - 12:00 AM,Phoenix,AZ,85021,33.56,-112.0927
Pizza Hut,8225 W Indian School Rd.,#1,10:30 AM - 12:00 AM,Phoenix,AZ,85033,33.4944,-112.2132
Pizza Hut,1512 Willow Creek Rd,# C,10:30 AM - 10:00 PM,Prescott,AZ,86305,34.8185,-112.9584
Pizza Hut,7430 Pav Way,,10:30 AM - 11:00 PM,Prescott Valley,AZ,86314,34.6019,-112.3264
Pizza Hut Express,21398 S. Ellsworth Loop Road,,,Queen Creek,AZ,85142,33.2487,-111.6343
Pizza Hut,40930 N. Ironwood,Suite 110,10:30 AM - 11:00 PM,Queen Creek,AZ,85140,33.1911,-111.528
Pizza Hut,561 E Bella Vista Rd,Ste. 100,10:30 AM - 10:00 PM,Queen Creek,AZ,85143,33.1911,-111.528
Pizza Hut,7507 S. Power Rd.,#106,10:30 AM - 11:00 PM,Queen Creek,AZ,85142,33.2487,-111.6343
Pizza Hut,1305 W Thatcher Blvd,,10:30 AM - 10:00 PM,Safford,AZ,85546,32.8295,-109.6266
Pizza Hut Express,48710 Vicksburg Road,Pride Travel Center,,Salome,AZ,85348,33.7481,-113.5715
Pizza Hut,624 San Luis Plaza Drive,,10:30 AM - 10:00 PM,San Luis,AZ,85349,32.487,-114.7822
Pizza Hut,11291 E. Via Linda,#128,10:30 AM - 10:00 PM,Scottsdale,AZ,85259,33.5879,-111.8404
Pizza Hut,6501 E. Greenway Parkway,Ste. 108,10:30 AM - 10:00 PM,Scottsdale,AZ,85254,33.6165,-111.9554
Pizza Hut,7790 E. McDowell Road,Suite 102,10:30 AM - 11:00 PM,Scottsdale,AZ,85257,33.4669,-111.9151
Pizza Hut,4460 S White Mountain Rd,,10:30 AM - 10:00 PM,Show Low,AZ,85901,34.2998,-110
Pizza Hut,3680 E Fry Blvd,,10:30 AM - 10:00 PM,Sierra Vista,AZ,85635,31.5365,-110.2666
Pizza Hut Express,4151 E Highway 90,,,Sierra Vista,AZ,85635,31.5365,-110.2666
Pizza Hut,900 E. Fry Blvd,,10:30 AM - 10:00 PM,Sierra Vista,AZ,85635,31.5365,-110.2666
Pizza Hut,10050 W Bell Rd.,#22,10:30 AM - 10:00 PM,Sun City,AZ,85351,33.6061,-112.2797
Pizza Hut,13706 W Bell Rd,Ste 16,10:30 AM - 12:00 AM,Surprise,AZ,85374,33.63,-112.3314
Pizza Hut,14763 W. Cactus Rd.,#120,10:30 AM - 12:00 AM,Surprise,AZ,85379,33.6021,-112.3736
Pizza Hut,16846 W. Bell Rd.,#114,10:30 AM - 12:00 AM,Surprise,AZ,85374,33.63,-112.3314
Pizza Hut,716 N. Main Street,Ste 102,10:30 AM - 10:00 PM,Taylor,AZ,85939,34.439,-110.0858
Pizza Hut,1712 E. Guadalupe Rd.,#102,10:30 AM - 12:00 AM,Tempe,AZ,85283,33.3665,-111.9312
Pizza Hut,1740 E. Broadway,#109,10:30 AM - 12:00 AM,Tempe,AZ,85282,33.3917,-111.9249
Pizza Hut Express,1800 Rio Salado Pkwy,#120,,Tempe,AZ,85281,33.4227,-111.9261
Pizza Hut,808 W Broadway Rd,,10:30 AM - 12:00 AM,Tempe,AZ,85282,33.3917,-111.9249
Pizza Hut,2755 S. 99th Ave.,#101,10:30 AM - 12:00 AM,Tolleson,AZ,85353,33.4347,-112.2774
Pizza Hut Express,9830 W Lower Buckeye Rd.,,,Tolleson,AZ,85353,33.4347,-112.2774
Pizza Hut Express,1010 N. 339th Avenue,Travel Centers Of America,,Tonopah,AZ,85354,33.4228,-112.9528
Pizza Hut Express,1300 E Tucson Marketplace Blvd,Cinemark Tucson Marketplace #1136,,Tucson,AZ,85713,32.1941,-110.9739
Pizza Hut,1502 W. Saint Marys,Suite 110,10:30 AM - 11:00 PM,Tucson,AZ,85745,32.2434,-111.0179
Pizza Hut,1865 W. Valencia,,10:30 AM - 11:00 PM,Tucson,AZ,85746,32.1422,-111.0506
Pizza Hut,1927 E Speedway Blvd,,10:30 AM - 10:30 PM,Tucson,AZ,85719,32.2474,-110.9491
Pizza Hut,2680 E. Valencia,Suite 176,10:00 AM - 10:30 PM,Tucson,AZ,85706,32.1392,-110.9451
Pizza Hut,3801 S. 6th Ave.,,10:30 AM - 10:00 PM,Tucson,AZ,85714,32.1707,-110.9719
Pizza Hut Express,3901 W. Ina Road,,,Tucson,AZ,85741,32.3472,-111.0419
Pizza Hut,3964 N Oracle Rd,,10:30 AM - 11:30 PM,Tucson,AZ,85705,32.2691,-110.9845
Pizza Hut Express,4040 N. Oracle Road,,,Tucson,AZ,85705,32.2691,-110.9845
Pizza Hut,4710 E Speedway Blvd,,10:30 AM - 11:00 PM,Tucson,AZ,85712,32.25,-110.8869
Pizza Hut,4811 E Sunrise,Ste 151,11:00 AM - 10:00 PM,Tucson,AZ,85718,32.3112,-110.9179
Pizza Hut Express,5870 E Broadway Blvd Ste 3006,Century Park Place 20 #465,,Tucson,AZ,85711,32.2127,-110.8829
Pizza Hut,6305 E 22nd St,,10:30 AM - 11:00 PM,Tucson,AZ,85710,32.2138,-110.824
Pizza Hut,7082 E Speedway Blvd,,10:30 AM - 11:00 PM,Tucson,AZ,85710,32.2138,-110.824
Pizza Hut,7665 N Lacholla Blvd,,10:30 AM - 11:00 PM,Tucson,AZ,85741,32.3472,-111.0419
Pizza Hut,8160 S Houghton Rd,Ste 102,10:30 AM - 10:00 PM,Tucson,AZ,85747,32.0984,-110.7272
Pizza Hut,8245 N. Silverbell Rd.,,10:30 AM - 11:00 PM,Tucson,AZ,85743,32.3366,-111.1771
Pizza Hut,9564 E Golf Links Rd,,10:30 AM - 10:00 PM,Tucson,AZ,85730,32.181,-110.819
Pizza Hut Express,9615 E. Old Spanish Trail,,,Tucson,AZ,85748,32.215,-110.7758
Pizza Hut Express,450 State Route 64,Grand Canyon Imax Theatre,,Tusayan,AZ,86023,35.9421,-112.1309
Pizza Hut,528 E. Wickenburg Way,,11:00 AM - 10:00 PM,Wickenburg,AZ,85358,33.9686,-112.7296
Pizza Hut,1001 W Rex Allen Dr,,11:00 AM - 10:00 PM,Willcox,AZ,85643,32.373,-109.8631
Pizza Hut,888 N Grand Canyon Blvd,,11:00 AM - 8:30 PM,Williams,AZ,86046,35.5434,-112.1707
Pizza Hut Express,State Highway 264 & Ir 12,Txpx Inline,,Window Rock,AZ,86515,35.6676,-109.0784
Pizza Hut,600 Mike's Pike Blvd.,,10:30 AM - 11:00 PM,Winslow,AZ,86047,35.0242,-110.6974
Pizza Hut,10611 S Fortuna Rd,,10:30 AM - 10:00 PM,Yuma,AZ,85367,32.6566,-114.4042
Pizza Hut Express,1450 S. Yuma Palms Parkway,,,Yuma,AZ,85365,32.7093,-114.4905
Pizza Hut,1843 S 4th Ave,,10:30 AM - 10:00 PM,Yuma,AZ,85364,32.7015,-114.6424
Pizza Hut,580 E 32nd St,,10:30 AM - 10:00 PM,Yuma,AZ,85365,32.7093,-114.4905
Pizza Hut Express,2700 5th Street,,,Alameda,CA,94501,37.7706,-122.2648
Pizza Hut,1224 S Atlantic Blvd,,10:00 AM - 12:00 AM,Alhambra,CA,91803,34.0745,-118.1434
Pizza Hut,2710 Alpine Blvd.,,11:00 AM - 10:00 PM,Alpine,CA,91901,32.8282,-116.7543
Pizza Hut,2211 N. Lake Ave.,,10:00 AM - 12:00 AM,Altadena,CA,91001,34.1912,-118.1392
Pizza Hut Express,101 S. Euclid Street,,,Anaheim,CA,92802,33.8085,-117.9228
Pizza Hut,116 S State College Blvd,,10:00 AM - 12:00 AM,Anaheim,CA,92806,33.8356,-117.8681
Pizza Hut,1697 W. Katella Ave,,10:00 AM - 12:00 AM,Anaheim,CA,92802,33.8085,-117.9228
Pizza Hut,2099 E Ball Rd,,10:00 AM - 12:00 AM,Anaheim,CA,92806,33.8356,-117.8681
Pizza Hut,301 S Magnolia Ave,,10:00 AM - 12:00 AM,Anaheim,CA,92804,33.8186,-117.9729
Pizza Hut,500 S. Euclid St.,,10:00 AM - 12:00 AM,Anaheim,CA,92802,33.8085,-117.9228
Pizza Hut,521 W Chapman Ave,,10:00 AM - 1:00 AM,Anaheim,CA,92802,33.8085,-117.9228
Pizza Hut,618 W La Palma Ave,,10:00 AM - 12:00 AM,Anaheim,CA,92801,33.8428,-117.9546
Pizza Hut,2713 Contra Loma Blvd,,9:30 AM - 11:00 PM,Antioch,CA,94509,37.9939,-121.8089
Pizza Hut Express,5769 Lone Tree Way,,,Antioch,CA,94531,37.9658,-121.7758
Pizza Hut Express,19201 Bear Valley Road,,,Apple Valley,CA,92308,34.4698,-117.1927
Pizza Hut Express,20288 Highway 18,,,Apple Valley,CA,92307,34.5291,-117.2132
Pizza Hut,20811 Bear Valley Rd,Ste C,9:30 AM - 11:00 PM,Apple Valley,CA,92308,34.4698,-117.1927
Pizza Hut,121 E Foothill Blvd,,10:00 AM - 12:00 AM,Arcadia,CA,91006,34.1324,-118.0264
Pizza Hut,161 E Live Oak Ave,,10:00 AM - 11:00 PM,Arcadia,CA,91006,34.1324,-118.0264
Pizza Hut,18325 Pioneer Blvd,,10:00 AM - 11:00 PM,Artesia,CA,90701,33.8654,-118.0731
Pizza Hut Express,5552 S. Wheeler Ridge Road,Travel Centers Of America,10:00 AM - 10:00 PM,Arvin,CA,93203,35.1966,-118.8336
Pizza Hut Express,1000 Commerce Avenue,,,Atwater,CA,95301,37.3489,-120.6028
Pizza Hut,855 E Bellevue Rd,,9:30 AM - 11:00 PM,Atwater,CA,95301,37.3489,-120.6028
Pizza Hut,331 N. Citrus Ave.,,10:00 AM - 12:00 AM,Azusa,CA,91702,34.1248,-117.9031
Pizza Hut Express,809 N. Azusa Avenue,,,Azusa,CA,91702,34.1248,-117.9031
Pizza Hut Express,72363 Baker Blvd.,Baker Texaco,,Baker,CA,92309,35.3606,-116.0638
Pizza Hut Express,72922 Baker Blvd.,Baker Travel Plaza,,Baker,CA,92309,35.3606,-116.0638
Pizza Hut Express,11000 Stockdale Highway,,,Bakersfield,CA,93311,35.3039,-119.1056
Pizza Hut Express,1631 S. Comanche Drive,Comanche Country Side Market Shell,,Bakersfield,CA,93307,35.3275,-118.9839
Pizza Hut,2337 N Chester,,9:30 AM - 11:00 PM,Bakersfield,CA,93308,35.4244,-119.0433
Pizza Hut Express,2901 Ming Ave,,,Bakersfield,CA,93304,35.3396,-119.0218
Pizza Hut,3122A Niles St,,9:30 AM - 11:00 PM,Bakersfield,CA,93306,35.3867,-118.9391
Pizza Hut,3351 Panama Lane,Ste 300,9:30 AM - 11:00 PM,Bakersfield,CA,93313,35.2974,-119.0509
Pizza Hut,3701 Auburn Rd,,9:30 AM - 11:00 PM,Bakersfield,CA,93306,35.3867,-118.9391
Pizza Hut,4708 Planz Rd,,9:30 AM - 11:00 PM,Bakersfield,CA,93309,35.3384,-119.0627
Pizza Hut,5221B Stockdale Hwy,,9:30 AM - 11:00 PM,Bakersfield,CA,93309,35.3384,-119.0627
Pizza Hut,6300 White Ln,Ste O,9:30 AM - 11:00 PM,Bakersfield,CA,93309,35.3384,-119.0627
Pizza Hut,8110 Rosedale Hwy,Ste E,9:30 AM - 11:00 PM,Bakersfield,CA,93312,35.3935,-119.1205
Pizza Hut Express,9100 Rosedale Highway,,,Bakersfield,CA,93312,35.3935,-119.1205
Pizza Hut Express,9741 S. Enos Lane,Bakersfield Shell,,Bakersfield,CA,93311,35.3039,-119.1056
Pizza Hut,13926 Ramona Blvd,,10:00 AM - 12:00 AM,Baldwin Park,CA,91706,34.0964,-117.9682
Pizza Hut,1860 W Ramsey St,,10:00 AM - 11:00 PM,Banning,CA,92220,33.9282,-116.8899
Pizza Hut,481 Armory Rd,,9:30 AM - 11:00 PM,Barstow,CA,92311,34.8914,-117.0387
Pizza Hut,7000 Atlantic Ave,,10:00 AM - 12:00 AM,Bell,CA,90201,33.9653,-118.1515
Pizza Hut,5736 Gage Ave,,10:00 AM - 12:00 AM,Bell Gardens,CA,90201,33.9653,-118.1515
Pizza Hut,9118 Alondra Blvd,,10:00 AM - 12:00 AM,Bellflower,CA,90706,33.8867,-118.1265
Pizza Hut,375 W Main Street,,11:00 AM - 11:00 PM,Brawley,CA,92227,32.9792,-115.5296
Pizza Hut,649 W Imperial Hwy,,10:00 AM - 11:00 PM,Brea,CA,92821,33.9291,-117.8845
Pizza Hut,5236 Beach Blvd,,10:00 AM - 11:00 PM,Buena Park,CA,90621,33.8772,-117.9893
Pizza Hut,6832 Beach Blvd,,10:00 AM - 11:00 PM,Buena Park,CA,90621,33.8772,-117.9893
Pizza Hut Express,7530 Orangethorpe Avenue,,,Buena Park,CA,90621,33.8772,-117.9893
Pizza Hut Express,1800 W. Empire Avenue,,,Burbank,CA,91504,34.2001,-118.3264
Pizza Hut,3311 W Magnolia Blvd,,10:00 AM - 12:00 AM,Burbank,CA,91505,34.169,-118.3442
Pizza Hut,2534 Rockwood Ave.,Suite 103,11:00 AM - 11:00 PM,Calexico,CA,92231,32.6832,-115.5028
Pizza Hut,210 Arneill Rd,,10:30 AM - 11:00 PM,Camarillo,CA,93010,34.2313,-119.0464
Pizza Hut,22323 Sherman Way,,10:30 AM - 12:00 AM,Canoga Park,CA,91303,34.1993,-118.5983
Pizza Hut Express,6700 Topanga Canyon Blvd.,,,Canoga Park,CA,91303,34.1993,-118.5983
Pizza Hut,18520 Soledad Canyon Rd.,#15,10:00 AM - 12:00 AM,Canyon Country,CA,91351,34.4262,-118.449
Pizza Hut,20377 Avalon Blvd,,10:00 AM - 12:00 AM,Carson,CA,90746,33.8584,-118.2554
Pizza Hut Express,20700 S. Avalon Blvd.,,,Carson,CA,90746,33.8584,-118.2554
Pizza Hut Express,20700 South Avalon Blvd Suite 285,"Cinemark Carson And Xd, #1016",,Carson,CA,90746,33.8584,-118.2554
Pizza Hut,23301 Main St,,10:00 AM - 11:00 PM,Carson,CA,90745,33.823,-118.2684
Pizza Hut Express,651 West Sepulveda Blvd,,,Carson,CA,90745,33.823,-118.2684
Pizza Hut,29607 The Old Road,,10:00 AM - 11:00 PM,Castaic,CA,91384,34.4827,-118.6254
Pizza Hut,34401 Date Palm Dr,,9:30 AM - 11:00 PM,Cathedral City,CA,92234,33.8098,-116.4665
Pizza Hut,2600 Mitchell Rd,Ste P,9:30 AM - 12:00 AM,Ceres,CA,95307,37.5833,-120.9496
Pizza Hut Express,11525 E. South Street,,,Cerritos,CA,90703,33.8669,-118.0686
Pizza Hut,20901 Lassen St.,,10:00 AM - 12:00 AM,Chatsworth,CA,91311,34.2583,-118.5914
Pizza Hut Express,3944 Grand Avenue,,,Chino,CA,91710,34.0125,-117.6844
Pizza Hut,5460 E Philadelphia St,#6G,10:00 AM - 11:00 PM,Chino,CA,91710,34.0125,-117.6844
Pizza Hut,3660 Grand Ave.,Ste. E,10:00 AM - 11:00 PM,Chino Hills,CA,91709,33.9797,-117.7308
Pizza Hut,2326 Proctor Valley Rd.,Suite 101,11:00 AM - 11:00 PM,Chula Vista,CA,91914,32.6587,-116.9652
Pizza Hut,251 Palomar St.,Suite B,11:00 AM - 11:00 PM,Chula Vista,CA,91911,32.6084,-117.0565
Pizza Hut,885 East H St. D,,11:00 AM - 11:00 PM,Chula Vista,CA,91910,32.6371,-117.0676
Pizza Hut Express,5837 Sunrise Blvd.,,,Citrus Heights,CA,95610,38.6946,-121.2692
Pizza Hut,6400B Sunrise Blvd.,,9:30 AM - 11:00 PM,Citrus Heights,CA,95610,38.6946,-121.2692
Pizza Hut Express,695 W. Herndon Avenue,,,Clovis,CA,93611,36.8253,-119.6802
Pizza Hut,49954 Harrison St,,9:30 AM - 11:00 PM,Coachella,CA,92236,33.675,-116.1772
Pizza Hut Express,5001 Junipero Sierra Blvd.,,,Colma,CA,94014,37.6875,-122.4388
Pizza Hut,2021 E. Washington St. 3A,,10:00 AM - 11:00 PM,Colton,CA,92324,34.0315,-117.2874
Pizza Hut,153 E Compton Blvd,,10:00 AM - 11:00 PM,Compton,CA,90220,33.8748,-118.2402
Pizza Hut Express,1701 South Alameda Street,,,Compton,CA,90220,33.8748,-118.2402
Pizza Hut,1075 W 6th St,,10:00 AM - 12:00 AM,Corona,CA,92882,33.8419,-117.6043
Pizza Hut,11762 De Palma Road,# 1B,10:00 AM - 11:00 PM,Corona,CA,92883,33.7541,-117.474
Pizza Hut,360 W Foothill Pkwy,,10:00 AM - 11:00 PM,Corona,CA,92882,33.8419,-117.6043
Pizza Hut,7056 Archibald Ave.,Suite 108,10:00 AM - 11:00 PM,Corona,CA,92880,33.9208,-117.6096
Pizza Hut,1901 Placentia Ave,,10:00 AM - 11:00 PM,Costa Mesa,CA,92627,33.6483,-117.9155
Pizza Hut,2750 Harbor Blvd.,#1-4A,10:00 AM - 11:00 PM,Costa Mesa,CA,92626,33.6801,-117.9085
Pizza Hut Express,3030 Harbor Blvd.,,,Costa Mesa,CA,92626,33.6801,-117.9085
Pizza Hut,1665 W. San Bernardino Blvd.,,10:00 AM - 11:00 PM,Covina,CA,91722,34.0972,-117.9065
Pizza Hut,468 San Bernardino Rd,,10:00 AM - 12:00 AM,Covina,CA,91723,34.086,-117.8843
Pizza Hut,835 Northcrest,,10:00 AM - 11:00 PM,Crescent City,CA,95531,41.7817,-124.1332
Pizza Hut,10780 Jefferson Blvd.,,10:00 AM - 12:00 AM,Culver City,CA,90230,33.9949,-118.3991
Pizza Hut Express,10820 Jefferson Boulevard,Target - T0198,,Culver City,CA,90230,33.9949,-118.3991
Pizza Hut Express,6000 Sepulveda Blvd,,,Culver City,CA,90230,33.9949,-118.3991
Pizza Hut,6471 Ball Rd,,10:00 AM - 11:00 PM,Cypress,CA,90630,33.8181,-118.0357
Pizza Hut Express,4625 2nd Street,,,Davis,CA,95618,38.5449,-121.7405
Pizza Hut,633 Cecil Ave,,9:30 AM - 10:00 PM,Delano,CA,93215,35.7715,-119.2459
Pizza Hut,14577 Palm Dr,,9:30 AM - 11:00 PM,Desert Hot Springs,CA,92240,33.9531,-116.5219
Pizza Hut Express,747 Grand Ave,,10:00 AM - 6:00 PM,Diamond Bar,CA,91765,34.0066,-117.8098
Pizza Hut,7936 East Florence Ave.,,10:00 AM - 11:00 PM,Downey,CA,90240,33.9581,-118.1174
Pizza Hut Express,8840 Apollo Way,Theatre #1134,,Downey,CA,90242,33.9218,-118.1395
Pizza Hut,9111 Imperial Hwy,,10:00 AM - 12:00 AM,Downey,CA,90242,33.9218,-118.1395
Pizza Hut Express,2800 Dublin Blvd,,,Dublin,CA,94568,37.7166,-121.9226
Pizza Hut Express,5406 Whittier Blvd,,,East Los Angeles,CA,90022,34.0245,-118.1561
Pizza Hut,1255 Avocado Ave,#101,11:00 AM - 10:00 PM,El Cajon,CA,92020,32.7928,-116.9665
Pizza Hut,1762 N 2nd Street,,11:00 AM - 11:00 PM,El Cajon,CA,92021,32.8178,-116.9223
Pizza Hut Express,2911 Jamacha Road,,,El Cajon,CA,92019,32.7777,-116.9191
Pizza Hut,635 N. Imperial Ave.,,11:00 AM - 11:00 PM,El Centro,CA,92243,32.7893,-115.5665
Pizza Hut Express,4400 South Center Blvd.,,,El Dorado Hills,CA,95762,38.685,-121.068
Pizza Hut,11910 Garvey Ave,Unit A,10:00 AM - 12:00 AM,El Monte,CA,91732,34.0705,-118.0149
Pizza Hut Express,7505 Laguna Blvd.,,,Elk Grove,CA,95758,38.4243,-121.437
Pizza Hut,9015 Bruceville Rd.,Ste. 180,9:30 AM - 11:00 PM,Elk Grove,CA,95758,38.4243,-121.437
Pizza Hut Express,9349 Big Horn Blvd,Century Laguna 16 #417,,Elk Grove,CA,95758,38.4243,-121.437
Pizza Hut Express,1010 N El Camino Real,,,Encinitas,CA,92024,33.0535,-117.2689
Pizza Hut Express,1280 Auto Park Way South,,,Escondido,CA,92029,33.0895,-117.1128
Pizza Hut,1711 E Valley Pkwy.,#101,11:00 AM - 11:00 PM,Escondido,CA,92027,33.1388,-117.052
Pizza Hut Express,8860 Lawrence Welk Drive,Welk Resort,11:00 AM - 9:00 PM,Escondido,CA,92026,33.1605,-117.0978
Pizza Hut Express,2525 4th Street,,,Eureka,CA,95501,40.7938,-124.1573
Pizza Hut Express,1350 Travis Blvd.,Solano Mall,,Fairfield,CA,94533,38.2671,-122.0357
Pizza Hut,598 Parker Rd,,9:30 AM - 11:00 PM,Fairfield,CA,94533,38.2671,-122.0357
Pizza Hut,855 S Main Ave,#G,11:00 AM - 11:00 PM,Fallbrook,CA,92028,33.369,-117.229
Pizza Hut Express,430 Blue Ravine Rd,,,Folsom,CA,95630,38.6709,-121.1529
Pizza Hut,10540 Sierra Ave,Suite A,10:00 AM - 12:00 AM,Fontana,CA,92337,34.0498,-117.4706
Pizza Hut,11683 Cherry Ave,,10:00 AM - 12:00 AM,Fontana,CA,92337,34.0498,-117.4706
Pizza Hut,13518 Baseline Ave. C,,10:00 AM - 12:00 AM,Fontana,CA,92336,34.1173,-117.4378
Pizza Hut Express,15272 Summit Avenue,,9:00 AM - 8:00 PM,Fontana,CA,92336,34.1173,-117.4378
Pizza Hut,16075 Foothill Blvd.,Suite C,10:00 AM - 12:00 AM,Fontana,CA,92335,34.0794,-117.4551
Pizza Hut,16923 Sierra Lakes Pkwy.,Suite 105,10:00 AM - 12:00 AM,Fontana,CA,92336,34.1173,-117.4378
Pizza Hut Express,16964 Slover Ave,,,Fontana,CA,92337,34.0498,-117.4706
Pizza Hut,9299 Sierra Ave,,10:00 AM - 12:00 AM,Fontana,CA,92335,34.0794,-117.4551
Pizza Hut,26781 Portola Pkwy,#4A,12:00 PM - 10:00 PM,Foothill Ranch,CA,92610,33.6748,-117.6649
Pizza Hut Express,Langford Lake And B Avenue Bldg. 21,Fort Irwin,,Fort Irwin,CA,92310,35.2625,-116.6966
Pizza Hut,16027 Brookhurst St,Suites L&N,10:00 AM - 11:00 PM,Fountain Valley,CA,92708,33.7102,-117.9503
Pizza Hut Express,43917 Pacific Commons Blvd,"Century @ Pacific Commons, #1060",,Fremont,CA,94538,37.5308,-121.9712
Pizza Hut Express,43956 Pacific Commons Blvd,#3,,Fremont,CA,94538,37.5308,-121.9712
Pizza Hut,1227 Fresno,,9:30 AM - 11:00 PM,Fresno,CA,93706,36.6486,-119.9987
Pizza Hut,1839 W Clinton Ave,,9:30 AM - 11:00 PM,Fresno,CA,93705,36.7863,-119.8286
Pizza Hut Express,2233 Ventura Street,Fresno Hotel And Conference Center,,Fresno,CA,93721,36.7377,-119.7843
Pizza Hut,4188 E Dakota Ave,Ste 101,9:30 AM - 11:00 PM,Fresno,CA,93726,36.7949,-119.7604
Pizza Hut,4260 N. Blackstone Ave..,,9:30 AM - 11:00 PM,Fresno,CA,93726,36.7949,-119.7604
Pizza Hut,6015 Fig Garden Dr.,,9:30 AM - 11:00 PM,Fresno,CA,93722,36.7918,-119.8801
Pizza Hut,624 S Clovis Ave,,9:30 AM - 11:00 PM,Fresno,CA,93727,36.7528,-119.7061
Pizza Hut Express,6655 North Riverside Drive,,,Fresno,CA,93722,36.7918,-119.8801
Pizza Hut Express,7600 N. Blackstone Avenue,,,Fresno,CA,93720,36.8579,-119.7655
Pizza Hut,7716 N 1st St,,9:30 AM - 11:00 PM,Fresno,CA,93720,36.8579,-119.7655
Pizza Hut,112 N. Euclid St.,,10:00 AM - 11:00 PM,Fullerton,CA,92832,33.868,-117.9265
Pizza Hut,400 E Commonwealth Ave,,10:00 AM - 12:00 AM,Fullerton,CA,92832,33.868,-117.9265
Pizza Hut,10072 Chapman Ave.,,10:00 AM - 11:00 PM,Garden Grove,CA,92840,33.7869,-117.9273
Pizza Hut,10092 Westminster Ave,,10:00 AM - 11:00 PM,Garden Grove,CA,92843,33.7671,-117.929
Pizza Hut Express,12100 Harbor Blvd,Target T192,,Garden Grove,CA,92840,33.7869,-117.9273
Pizza Hut,12447 Valley View St,,11:00 AM - 10:00 PM,Garden Grove,CA,92845,33.7787,-118.0267
Pizza Hut Express,13831 Brookhurst Street,Target - T0193,,Garden Grove,CA,92843,33.7671,-117.929
Pizza Hut,1336 W. Rosecrans Ave.,,10:00 AM - 11:00 PM,Gardena,CA,90247,33.8925,-118.2961
Pizza Hut Express,2169 Redondo Beach Blvd.,,,Gardena,CA,90247,33.8925,-118.2961
Pizza Hut,1171 1st St,,9:30 AM - 11:00 PM,Gilroy,CA,95020,37.0139,-121.5773
Pizza Hut,1261 S. Central Ave.,,10:30 AM - 11:00 PM,Glendale,CA,91204,34.1379,-118.2599
Pizza Hut,1428 W Glenoaks Blvd,,10:30 AM - 12:00 AM,Glendale,CA,91201,34.1716,-118.2899
Pizza Hut,1433 E. Route 66 A & B,,10:30 AM - 10:00 PM,Glendora,CA,91740,34.1287,-117.8552
Pizza Hut,16923 Devonshire St,,10:00 AM - 12:00 AM,Granada Hills,CA,91344,34.2771,-118.4992
Pizza Hut Express,17055 San Fernando Mission Blvd,,,Granada Hills,CA,91344,34.2771,-118.4992
Pizza Hut,2133 S. Hacienda Blvd.,,10:00 AM - 11:00 PM,Hacienda Heights,CA,91745,33.9977,-117.9652
Pizza Hut Express,140 N. 12th Street,,,Hanford,CA,93230,36.3314,-119.6491
Pizza Hut,410 N. 11th Ave.,Suite 107,9:30 AM - 11:00 PM,Hanford,CA,93230,36.3314,-119.6491
Pizza Hut,12203 Hawthorne Blvd,,10:00 AM - 12:00 AM,Hawthorne,CA,90250,33.9143,-118.3493
Pizza Hut Express,2700 120th Street,,,Hawthorne,CA,90250,33.9143,-118.3493
Pizza Hut,3109 W Rosecrans Ave.,#3111,10:00 AM - 11:00 PM,Hawthorne,CA,90250,33.9143,-118.3493
Pizza Hut,4830 W. Rosecrans Ave.,,10:00 AM - 11:00 PM,Hawthorne,CA,90250,33.9143,-118.3493
Pizza Hut Express,1069 B Street,Century Hayward 12 #1009,,Hayward,CA,94541,37.674,-122.0894
Pizza Hut Express,19661 Hesperian Blvd.,,,Hayward,CA,94541,37.674,-122.0894
Pizza Hut,22859 Mission Blvd,,9:30 AM - 11:00 PM,Hayward,CA,94541,37.674,-122.0894
Pizza Hut,120 E Stetson Ave,,9:30 AM - 11:00 PM,Hemet,CA,92543,33.7416,-116.973
Pizza Hut,25795 Stanford St,,9:30 AM - 11:00 PM,Hemet,CA,92544,33.739,-116.9243
Pizza Hut Express,3527 W. Florida Avenue,,,Hemet,CA,92545,33.7399,-117.0151
Pizza Hut Express,12795 Main Street,,,Hesperia,CA,92345,34.4222,-117.3025
Pizza Hut,16455 Main St,,10:00 AM - 11:00 PM,Hesperia,CA,92345,34.4222,-117.3025
Pizza Hut,7253 Boulder Ave.,#A-6,11:00 AM - 11:00 PM,Highland,CA,92346,34.1283,-117.2087
Pizza Hut,6660 W Sunset Blvd.,,10:00 AM - 12:00 AM,Hollywood,CA,90028,34.1005,-118.3254
Pizza Hut,17342 Beach Blvd,,10:30 AM - 11:00 PM,Huntington Beach,CA,92647,33.721,-118.0033
Pizza Hut,20383 Beach Blvd,,10:00 AM - 11:00 PM,Huntington Beach,CA,92648,33.6773,-118.0051
Pizza Hut,6791 Warner Ave,,10:30 AM - 11:00 PM,Huntington Beach,CA,92647,33.721,-118.0033
Pizza Hut Express,7777 Edinger Ave. Ste. 170,Huntington Beach #482,,Huntington Beach,CA,92647,33.721,-118.0033
Pizza Hut Express,9882 Adams Avenue,,,Huntington Beach,CA,92646,33.6654,-117.9686
Pizza Hut,3176 Florence Blvd.,,10:00 AM - 11:00 PM,Huntington Park,CA,90255,33.9769,-118.2161
Pizza Hut,6048 Pacific Blvd,,10:00 AM - 12:00 AM,Huntington Park,CA,90255,33.9769,-118.2161
Pizza Hut,81850 Avenue 46,,10:30 AM - 12:00 AM,Indio,CA,92201,33.7207,-116.2168
Pizza Hut,1000 N. La Brea Ave,,10:00 AM - 12:00 AM,Inglewood,CA,90302,33.9745,-118.3548
Pizza Hut,11115 Crenshaw Blvd,,10:00 AM - 11:00 PM,Inglewood,CA,90303,33.9377,-118.3321
Pizza Hut,1275 S. La Brea Ave.,#107,10:00 AM - 11:00 PM,Inglewood,CA,90301,33.955,-118.3556
Pizza Hut Express,3471 W. Century Blvd.,,,Inglewood,CA,90303,33.9377,-118.3321
Pizza Hut,3800 Barranca Parkway,Suite P,10:00 AM - 10:00 PM,Irvine,CA,92606,33.6951,-117.8224
Pizza Hut,3939 Portola Parkway,#200 H,10:00 AM - 11:00 PM,Irvine,CA,92602,33.7419,-117.7467
Pizza Hut,366 N Harbor Blvd,,10:00 AM - 10:00 PM,La Habra,CA,90631,33.9331,-117.9493
Pizza Hut Express,5500 Grossmont Center Dr.,,,La Mesa,CA,91942,32.7835,-117.0189
Pizza Hut,8011 University Ave.,,11:00 AM - 11:00 PM,La Mesa,CA,91941,32.7604,-117.0115
Pizza Hut,12218 La Mirada Blvd.,,10:00 AM - 11:00 PM,La Mirada,CA,90638,33.9067,-118.0101
Pizza Hut,1251 Hacienda Blvd.,,10:00 AM - 12:00 AM,La Puente,CA,91744,34.0289,-117.9373
Pizza Hut,14316 E. Amar Rd. A,,10:00 AM - 12:00 AM,La Puente,CA,91744,34.0289,-117.9373
Pizza Hut Express,46-800 Washington Street,Century Washington Park 12 #1126,,La Quinta,CA,92253,33.6685,-116.3081
Pizza Hut Express,2462 Foothill Blvd,,,La Verne,CA,91750,34.1159,-117.7708
Pizza Hut,27642 Antonio Pkwy.,#H3,10:00 AM - 10:00 PM,Ladera Ranch,CA,92694,33.5472,-117.6238
Pizza Hut,25481 Alicia Pkwy,,10:00 AM - 11:00 PM,Laguna Hills,CA,92653,33.5916,-117.6985
Pizza Hut Express,18287 Collier Ave,,,Lake Elsinore,CA,92530,33.6598,-117.3485
Pizza Hut,30850 Riverside Dr,Ste A3,9:30 AM - 11:00 PM,Lake Elsinore,CA,92530,33.6598,-117.3485
Pizza Hut,31736 Casino Dr,,10:00 AM - 11:00 PM,Lake Elsinore,CA,92530,33.6598,-117.3485
Pizza Hut,22481 El Toro Rd,Suite A,10:00 AM - 10:00 PM,Lake Forest,CA,92630,33.6437,-117.6868
Pizza Hut,12602 Del Amo Blvd,Suite 1,10:00 AM - 11:00 PM,Lakewood,CA,90715,33.8405,-118.0767
Pizza Hut,5917 South St,,10:00 AM - 11:00 PM,Lakewood,CA,90713,33.8473,-118.1115
Pizza Hut,1876 Avenue J East,,10:00 AM - 12:00 AM,Lancaster,CA,93535,34.7131,-117.8783
Pizza Hut,2071 W. Avenue K,,10:00 AM - 11:00 PM,Lancaster,CA,93536,34.7471,-118.3687
Pizza Hut Express,2600 West Avenue I,Cinemark 22 #280,,Lancaster,CA,93536,34.7471,-118.3687
Pizza Hut,44836 10th St W,,10:00 AM - 12:00 AM,Lancaster,CA,93534,34.6909,-118.1491
Pizza Hut Express,16858 Golden Valley Parkway,,,Lathrop,CA,95330,37.8209,-121.2827
Pizza Hut,1029 N Lemoore Ave,,9:30 AM - 11:00 PM,Lemoore,CA,93245,36.2682,-119.8173
Pizza Hut Express,17225 Jersey Avenue,Tachi Palace Hotel And Casino,,Lemoore,CA,93245,36.2682,-119.8173
Pizza Hut Express,1200 Athens Avenue,Thunder Valley Casino Resort,,Lincoln,CA,95648,38.8942,-121.2908
Pizza Hut Express,2355 W. Kettleman Lane,,,Lodi,CA,95242,38.1308,-121.3345
Pizza Hut,1901 Pacific Coast Hwy.,,10:30 AM - 11:00 PM,Lomita,CA,90717,33.7938,-118.3172
Pizza Hut,625 West Central Avenue,Suite A,10:00 AM - 12:00 AM,Lompoc,CA,93436,34.6583,-120.4506
Pizza Hut,1171 E Market St,,10:00 AM - 12:00 AM,Long Beach,CA,90805,33.8635,-118.1801
Pizza Hut,1200 E 4th St,,10:00 AM - 11:00 PM,Long Beach,CA,90802,33.7706,-118.182
Pizza Hut,1700-1702 Long Beach Blvd.,,10:00 AM - 11:00 PM,Long Beach,CA,90813,33.782,-118.1835
Pizza Hut,300 W Willow St,,10:00 AM - 11:00 PM,Long Beach,CA,90806,33.8045,-118.1876
Pizza Hut Express,3125 E Broadway,,,Long Beach,CA,90803,33.7619,-118.1341
Pizza Hut,3498 E 7th St,,10:00 AM - 12:00 AM,Long Beach,CA,90804,33.7857,-118.1357
Pizza Hut,4110 N Lakewood Blvd,,10:00 AM - 11:00 PM,Long Beach,CA,90808,33.8241,-118.1103
Pizza Hut,4502 Los Coyotes Rd,,10:00 AM - 12:00 AM,Long Beach,CA,90815,33.7939,-118.1192
Pizza Hut,4558 Atlantic Ave,,10:00 AM - 11:00 PM,Long Beach,CA,90807,33.8315,-118.1811
Pizza Hut Express,4700 Airport Plaza Drive,Long Beach Airport Marriott,,Long Beach,CA,90815,33.7939,-118.1192
Pizza Hut Express,6750 Cherry Avenue,,,Long Beach,CA,90805,33.8635,-118.1801
Pizza Hut Express,99 South Pine Avenue,Cinemark At The Pike Outlets And Xd #347,,Long Beach,CA,90802,33.7706,-118.182
Pizza Hut,1001 W Century Blvd,,10:00 AM - 12:00 AM,Los Angeles,CA,90044,33.9551,-118.2901
Pizza Hut,1014 Martin Luther King Jr. Blvd.,,10:00 AM - 12:00 AM,Los Angeles,CA,90037,34.003,-118.2863
Pizza Hut,11146 Palms Blvd.,,10:00 AM - 12:00 AM,Los Angeles,CA,90034,34.029,-118.4005
Pizza Hut,11710 Wilmington Ave.,#4-E,10:00 AM - 11:00 PM,Los Angeles,CA,90059,33.9293,-118.2463
Pizza Hut,1457 Florence Ave.,#109,10:00 AM - 12:00 AM,Los Angeles,CA,90001,33.9731,-118.2479
Pizza Hut,1555 S Western Ave,,10:00 AM - 12:00 AM,Los Angeles,CA,90006,34.0493,-118.2917
Pizza Hut,1562 W Pico Blvd,,10:00 AM - 12:00 AM,Los Angeles,CA,90015,34.0434,-118.2716
Pizza Hut,1780 La Cienega Blvd.,,10:00 AM - 12:00 AM,Los Angeles,CA,90035,34.0531,-118.3806
Pizza Hut,1851 W Slauson Ave,,10:00 AM - 12:00 AM,Los Angeles,CA,90047,33.9569,-118.3073
Pizza Hut,2405 South Vermont Ave.,,10:00 AM - 12:00 AM,Los Angeles,CA,90007,34.0294,-118.2871
Pizza Hut,2542 W Temple St,,10:00 AM - 12:00 AM,Los Angeles,CA,90026,34.0766,-118.2646
Pizza Hut Express,2800 Crenshaw Blvd,,,Los Angeles,CA,90016,34.0298,-118.3528
Pizza Hut,2930 Colorado Blvd,,10:30 AM - 12:00 AM,Los Angeles,CA,90041,34.1339,-118.2082
Pizza Hut,3400 E 1st St,,10:00 AM - 12:00 AM,Los Angeles,CA,90063,34.0451,-118.1859
Pizza Hut Express,3535 S. Cienga Blvd.,,,Los Angeles,CA,90016,34.0298,-118.3528
Pizza Hut Express,4020 Marlton Ave,Baldwin Hills 15 #1084,,Los Angeles,CA,90008,34.0116,-118.3411
Pizza Hut,4207 Beverly Blvd.,,10:00 AM - 12:00 AM,Los Angeles,CA,90004,34.0762,-118.3029
Pizza Hut,4209 E Cesar E Chavez Blvd.,,10:00 AM - 12:00 AM,Los Angeles,CA,90063,34.0451,-118.1859
Pizza Hut,4329 N. Figueroa St.,,10:00 AM - 11:00 PM,Los Angeles,CA,90065,34.1073,-118.2266
Pizza Hut,4351 S Central Ave,,10:00 AM - 11:00 PM,Los Angeles,CA,90011,34.0079,-118.2582
Pizza Hut,4356 Leimert Blvd,,10:00 AM - 12:00 AM,Los Angeles,CA,90008,34.0116,-118.3411
Pizza Hut,4629 W Santa Monica Blvd.,#2,10:00 AM - 12:00 AM,Los Angeles,CA,90029,34.09,-118.2944
Pizza Hut,5101 Venice Blvd,,10:00 AM - 12:00 AM,Los Angeles,CA,90019,34.0482,-118.3343
Pizza Hut,5130 Huntington Dr. S,,10:00 AM - 12:00 AM,Los Angeles,CA,90032,34.0818,-118.1753
Pizza Hut,5213 Whittier Blvd,,10:00 AM - 11:00 PM,Los Angeles,CA,90022,34.0245,-118.1561
Pizza Hut Express,5500 W Sunset Blvd,,,Los Angeles,CA,90028,34.1005,-118.3254
Pizza Hut Express,6000 Crenshaw Blvd,,,Los Angeles,CA,90043,33.9871,-118.3321
Pizza Hut Express,6081 Center Dr # 201,Promenade 18 #1085,,Los Angeles,CA,90045,33.9631,-118.3941
Pizza Hut,611 E. Imperial Hwy.,,10:00 AM - 11:00 PM,Los Angeles,CA,90059,33.9293,-118.2463
Pizza Hut,6312 W 89th St,,10:00 AM - 12:00 AM,Los Angeles,CA,90045,33.9631,-118.3941
Pizza Hut,718 S. Los Angeles St.,Unit C,10:00 AM - 12:00 AM,Los Angeles,CA,90014,34.0443,-118.2509
Pizza Hut,7229 S. Figueroa St.,,10:00 AM - 12:00 AM,Los Angeles,CA,90003,33.9653,-118.2727
Pizza Hut Express,1405 W. Pacheco Blvd.,,,Los Banos,CA,93635,37.0627,-120.8544
Pizza Hut,419 Pacheco Hwy,,9:30 AM - 11:00 PM,Los Banos,CA,93635,37.0627,-120.8544
Pizza Hut Express,21959 State Highway 46,Lost Hills Shell Station,,Lost Hills,CA,93249,35.6163,-119.6943
Pizza Hut Express,11255 Long Beach Blvd,,,Lynwood,CA,90262,33.9241,-118.2013
Pizza Hut,3601 Martin Luther King Jr Blvd,,10:00 AM - 12:00 AM,Lynwood,CA,90262,33.9241,-118.2013
Pizza Hut,1475 Country Club Dr. A,,9:30 AM - 11:00 PM,Madera,CA,93638,37.0402,-120.0335
Pizza Hut Express,32603 Avenue 7,Madera Travel Center,,Madera,CA,93637,36.9403,-120.082
Pizza Hut Express,1200 N Sepulveda Blvd,,,Manhattan Beach,CA,90266,33.8896,-118.3996
Pizza Hut,920 N Main St,,9:30 AM - 11:00 PM,Manteca,CA,95336,37.8134,-121.2132
Pizza Hut Express,133 General Stilwell Drive,,,Marina,CA,93933,36.6849,-121.7934
Pizza Hut Express,244 Reservation Rd,,,Marina,CA,93933,36.6849,-121.7934
Pizza Hut,1130 N Beale Rd,,9:30 AM - 11:00 PM,Marysville,CA,95901,39.1663,-121.5105
Pizza Hut,26100 Newport Rd,# 14,9:30 AM - 11:00 PM,Menifee,CA,92584,33.6647,-117.1743
Pizza Hut Express,30340 Haun Road,,,Menifee,CA,92584,33.6647,-117.1743
Pizza Hut,3415 Middlefield Rd,,9:30 AM - 11:00 PM,Menlo Park,CA,94025,37.4396,-122.1864
Pizza Hut,580 W. Olive Ave,,9:30 AM - 12:00 AM,Merced,CA,95348,37.3302,-120.508
Pizza Hut Express,1010 Great Mall Drive,Century 20 Great Mall #440,,Milpitas,CA,95035,37.4352,-121.895
Pizza Hut,102 S Park Victoria Dr,,9:30 AM - 11:00 PM,Milpitas,CA,95035,37.4352,-121.895
Pizza Hut Express,12471 Limonite Avenue,,,Mira Loma,CA,91752,33.9938,-117.5236
Pizza Hut Express,25535 Los Alisos Blvd,,,Mission Viejo,CA,92691,33.6128,-117.6622
Pizza Hut,27855 Santa Margarita Pkwy.,,12:00 PM - 8:00 PM,Mission Viejo,CA,92691,33.6128,-117.6622
Pizza Hut,1047 W Orangeburg Ave,,9:30 AM - 11:00 PM,Modesto,CA,95350,37.6746,-121.0113
Pizza Hut,2401 E Orangeburg Ave,Suite 200,9:30 AM - 12:00 AM,Modesto,CA,95355,37.6717,-120.9482
Pizza Hut Express,2425 Claribel Road,,,Modesto,CA,95357,37.6693,-120.8817
Pizza Hut Express,3900 Sisk Road,,,Modesto,CA,95356,37.7005,-121.0252
Pizza Hut,1515 W Beverly Blvd,,10:00 AM - 12:00 AM,Montebello,CA,90640,34.0133,-118.113
Pizza Hut Express,1700 Del Monte Center,Monterey 13 #436,,Monterey,CA,93940,36.5802,-121.8443
Pizza Hut,11875 Pigeon Pass Rd,,10:00 AM - 11:00 PM,Moreno Valley,CA,92557,33.9553,-117.2457
Pizza Hut,12831 Moreno Beach Dr.,#102,10:00 AM - 12:00 AM,Moreno Valley,CA,92555,33.9377,-117.1851
Pizza Hut,15974 Perris Blvd. D & E,,10:00 AM - 12:00 AM,Moreno Valley,CA,92551,33.8814,-117.2261
Pizza Hut,24021 Alessandro Blvd,Ste 106,10:00 AM - 12:00 AM,Moreno Valley,CA,92553,33.9157,-117.2351
Pizza Hut Express,27100 Eucalyptus,,,Moreno Valley,CA,92551,33.8814,-117.2261
Pizza Hut Express,1061 Cochrane Rd,,,Morgan Hill,CA,95037,37.1353,-121.6501
Pizza Hut Express,1500 N. Shoreline Blvd.,Century Cinema 16 #399,,Mountain View,CA,94043,37.4056,-122.0775
Pizza Hut,25030 Hancock,#106,9:30 AM - 10:00 PM,Murrieta,CA,92562,33.5631,-117.2738
Pizza Hut Express,27818 Clinton Keith Road,,,Murrieta,CA,92562,33.5631,-117.2738
Pizza Hut Express,195 Gasser Dr,Century Napa Valley 12 #1003,,Napa,CA,94559,38.2904,-122.2841
Pizza Hut,1528 Sweetwater Rd.,Suite E&F,11:00 AM - 11:00 PM,National City,CA,91950,32.6749,-117.0897
Pizza Hut,2437 E Plaza Blvd,,11:00 AM - 11:00 PM,National City,CA,91950,32.6749,-117.0897
Pizza Hut Express,3060 Plaza Bonita Road,,,National City,CA,91950,32.6749,-117.0897
Pizza Hut,421 S. Reino Rd.,,12:00 PM - 9:00 PM,Newbury Park,CA,91320,34.1774,-118.9358
Pizza Hut,3601 Jamboree Rd,Ste 3,10:00 AM - 11:00 PM,Newport Beach,CA,92660,33.6295,-117.8684
Pizza Hut,1825 Hamner Avenue,Suite X,10:00 AM - 11:00 PM,Norco,CA,92860,33.9247,-117.5517
Pizza Hut,15650 Nordhoff St.,#101,10:00 AM - 12:00 AM,North Hills,CA,91343,34.2366,-118.4758
Pizza Hut,12447 Victory Blvd,,10:30 AM - 12:00 AM,North Hollywood,CA,91606,34.1872,-118.3865
Pizza Hut,4408 Vineland Ave.,,10:30 AM - 12:00 AM,North Hollywood,CA,91602,34.151,-118.3663
Pizza Hut,5212 Whitsett Ave,,10:00 AM - 12:00 AM,North Hollywood,CA,91607,34.1672,-118.3989
Pizza Hut,5948 Lankershim Blvd,,10:30 AM - 12:00 AM,North Hollywood,CA,91601,34.1687,-118.3713
Pizza Hut,8023 Lankershim Blvd,,10:00 AM - 12:00 AM,North Hollywood,CA,91605,34.2057,-118.4001
Pizza Hut,10231 Reseda Avenue,,10:15 AM - 12:00 AM,Northridge,CA,91324,34.2367,-118.5466
Pizza Hut Express,8999 Balboa Blvd.,,,Northridge,CA,91325,34.2353,-118.5188
Pizza Hut Express,10600 Firestone Blvd.,,8:00 AM - 9:00 PM,Norwalk,CA,90650,33.9056,-118.0818
Pizza Hut,11006 Rosecrans Ave,,10:00 AM - 11:00 PM,Norwalk,CA,90650,33.9056,-118.0818
Pizza Hut,12125 Imperial Highway,,10:00 AM - 11:00 PM,Norwalk,CA,90650,33.9056,-118.0818
Pizza Hut Express,200 Vintage Way,,,Novato,CA,94945,38.1163,-122.5714
Pizza Hut Express,1555 40th Street,,,Oakland,CA,94608,37.8365,-122.2804
Pizza Hut,1836 Oceanside Blvd.,Suite B,11:00 AM - 10:00 PM,Oceanside,CA,92054,33.2072,-117.3573
Pizza Hut,3509 Cannon Rd.,#E1,11:00 AM - 10:00 PM,Oceanside,CA,92056,33.1968,-117.2831
Pizza Hut,4170 Oceanside Blvd.,Suite 191,11:00 AM - 10:00 PM,Oceanside,CA,92056,33.1968,-117.2831
Pizza Hut,610 North Redondo Dr.,Ste. F,11:00 AM - 11:00 PM,Oceanside,CA,92057,33.2407,-117.3025
Pizza Hut,1117 N Mountain Ave,,10:00 AM - 11:00 PM,Ontario,CA,91762,34.0584,-117.6665
Pizza Hut,2598 S. Archibald Ave.,Space B,10:00 AM - 11:00 PM,Ontario,CA,91761,34.0316,-117.6187
Pizza Hut Express,4200 E 4th St,,,Ontario,CA,91764,34.0763,-117.6254
Pizza Hut Express,4265 Guasti Road,Travel Centers Of America,9:00 AM - 10:00 PM,Ontario,CA,91761,34.0316,-117.6187
Pizza Hut,715 N Euclid Ave,,10:00 AM - 11:00 PM,Ontario,CA,91762,34.0584,-117.6665
Pizza Hut Express,1701 W. Katella Ave.,Century Stadium 25 #420,,Orange,CA,92867,33.811,-117.8493
Pizza Hut,2091 N Tustin Ave,,10:00 AM - 11:00 PM,Orange,CA,92865,33.8263,-117.8511
Pizza Hut Express,2191 North Tustin Street,Target - T0230,,Orange,CA,92865,33.8263,-117.8511
Pizza Hut,3023 E Chapman Ave,,10:00 AM - 11:00 PM,Orange,CA,92869,33.7868,-117.7934
Pizza Hut,451 Oro Dam Blvd E,,9:30 AM - 11:00 PM,Oroville,CA,95965,39.6054,-121.5751
Pizza Hut,2410 Saviers Rd,,10:00 AM - 11:00 PM,Oxnard,CA,93033,34.1685,-119.1717
Pizza Hut Express,2850 N. Oxnard Blvd.,,,Oxnard,CA,93036,34.2351,-119.182
Pizza Hut,820 N Ventura Rd,,10:30 AM - 11:00 PM,Oxnard,CA,93030,34.2141,-119.175
Pizza Hut,10365 Laurel Canyon Blvd.,,10:00 AM - 12:00 AM,Pacoima,CA,91331,34.2556,-118.4208
Pizza Hut,1180 S Palm Canyon Dr,,10:30 AM - 11:00 PM,Palm Springs,CA,92264,33.8018,-116.517
Pizza Hut Express,1475 W. Avenue P.,Cinemark Antelope Valley Mall #362,,Palmdale,CA,93551,34.6017,-118.231
Pizza Hut,220 E Palmdale Blvd,,10:00 AM - 12:00 AM,Palmdale,CA,93550,34.4133,-118.0917
Pizza Hut,37244 47th St.,Suite C-3,10:30 AM - 11:00 PM,Palmdale,CA,93550,34.4133,-118.0917
Pizza Hut,37926 47th Street East,Suite B,10:30 AM - 11:00 PM,Palmdale,CA,93552,34.5715,-118.0231
Pizza Hut Express,38019 47th Street East,,,Palmdale,CA,93552,34.5715,-118.0231
Pizza Hut,5037 W. Avenue N,#5,10:30 AM - 11:00 PM,Palmdale,CA,93551,34.6017,-118.231
Pizza Hut Express,1701 E Bayshore Rd.,,,Palo Alto,CA,94303,37.4673,-122.1388
Pizza Hut,14500 Nordhoff St,,10:00 AM - 12:00 AM,Panorama City,CA,91402,34.2262,-118.447
Pizza Hut,8509 Alondra Blvd,Ste B,10:00 AM - 12:00 AM,Paramount,CA,90723,33.8969,-118.1632
Pizza Hut,1269 N. Lake Ave.,,10:30 AM - 12:00 AM,Pasadena,CA,91104,34.1678,-118.1261
Pizza Hut,1675 N Perris Blvd,Ste E,9:30 AM - 11:00 PM,Perris,CA,92571,33.811,-117.218
Pizza Hut Express,401 Kenilworth Drive,,,Petaluma,CA,94952,38.2403,-122.6777
Pizza Hut,9338 Whittier Blvd,,10:00 AM - 11:00 PM,Pico Rivera,CA,90660,33.9886,-118.0883
Pizza Hut Express,1400 Fitzgerald Drive,,,Pinole,CA,94564,37.9969,-122.2875
Pizza Hut,901 E Yorba Linda Blvd,,10:00 AM - 12:00 AM,Placentia,CA,92870,33.8744,-117.8543
Pizza Hut Express,125 Crescent Drive,Century 16 Downtown #463,,Pleasant Hill,CA,94523,37.954,-122.0737
Pizza Hut Express,560 Contra Costa Blvd.,,,Pleasant Hill,CA,94523,37.954,-122.0737
Pizza Hut,2218 S Garey Ave,,10:00 AM - 12:00 AM,Pomona,CA,91766,34.0418,-117.7569
Pizza Hut,2301 N Garey Ave,,10:00 AM - 12:00 AM,Pomona,CA,91767,34.0812,-117.7362
Pizza Hut Express,701 Rio Rancho Road,,,Pomona,CA,91766,34.0418,-117.7569
Pizza Hut,467 W Channel Islands Blvd,,10:30 AM - 11:00 PM,Port Hueneme,CA,93041,34.1626,-119.1973
Pizza Hut Express,1363 W. Henderson Avenue,,,Porterville,CA,93257,36.0686,-119.0315
Pizza Hut,276 West Henderson,,9:30 AM - 11:00 PM,Porterville,CA,93257,36.0686,-119.0315
Pizza Hut,393 W.Olive,,9:30 AM - 11:00 PM,Porterville,CA,93257,36.0686,-119.0315
Pizza Hut Express,14823 Pomerado Road,,,Poway,CA,92064,32.9756,-117.0402
Pizza Hut,7200 Archibald Ave,,10:30 AM - 11:00 PM,Rancho Cucamonga,CA,91701,34.1376,-117.5999
Pizza Hut,8001-A S Archibald Ave,,10:00 AM - 11:00 PM,Rancho Cucamonga,CA,91730,34.107,-117.5941
Pizza Hut Express,71800 Hwy 111 Suite A-137,Century At The River #479,,Rancho Mirage,CA,92270,33.7643,-116.4225
Pizza Hut Express,19483 Knighton Road,Travel Centers Of America,,Redding,CA,96002,40.5486,-122.3339
Pizza Hut,1399 W Colton Ave,Ste 1,10:00 AM - 11:00 PM,Redlands,CA,92374,34.065,-117.1672
Pizza Hut Express,27320 Lugonia Avenue,,,Redlands,CA,92374,34.065,-117.1672
Pizza Hut,450 E Cypress Ave,Ste B,11:00 AM - 10:00 PM,Redlands,CA,92373,34.0397,-117.1804
Pizza Hut Express,2485 El Camino Real,,,Redwood City,CA,94061,37.4647,-122.2304
Pizza Hut,600 W. Whipple,,9:30 AM - 11:00 PM,Redwood City,CA,94063,37.4815,-122.2091
Pizza Hut Express,825 Middlefield Rd.,Redwood Downtown 20 #485,,Redwood City,CA,94063,37.4815,-122.2091
Pizza Hut,19371-A Saticoy St.,Suite A C-12,10:00 AM - 12:00 AM,Reseda,CA,91335,34.2007,-118.5391
Pizza Hut,19417 3/4 Victory Blvd,,10:00 AM - 12:00 AM,Reseda,CA,91335,34.2007,-118.5391
Pizza Hut Express,1355 W Renaissance Pkwy,Cinemark Rialto #1147,,Rialto,CA,92376,34.1132,-117.3771
Pizza Hut,260 West Baseline Rd.,,10:00 AM - 11:00 PM,Rialto,CA,92376,34.1132,-117.3771
Pizza Hut,310 S Riverside Ave,,10:00 AM - 11:00 PM,Rialto,CA,92376,34.1132,-117.3771
Pizza Hut Express,3200 Klose Way,Century Hilltop 16 #446,,Richmond,CA,94806,37.9724,-122.3369
Pizza Hut Express,4500 Macdonald Avenue,,,Richmond,CA,94805,37.9417,-122.3238
Pizza Hut,634 S. China Lake Blvd,Unit A,9:30 AM - 11:00 PM,Ridgecrest,CA,93555,35.6225,-117.6709
Pizza Hut,1485 University Ave,,10:00 AM - 12:00 AM,Riverside,CA,92507,33.9761,-117.3389
Pizza Hut,19040 Van Buren Blvd,Ste 105,10:00 AM - 10:00 PM,Riverside,CA,92508,33.8897,-117.3043
Pizza Hut,3255 Arlington Ave,,10:00 AM - 11:00 PM,Riverside,CA,92506,33.9455,-117.3757
Pizza Hut Express,3333 Arlington Ave,,,Riverside,CA,92506,33.9455,-117.3757
Pizza Hut,3380 La Sierra Ave.,#105,10:00 AM - 11:00 PM,Riverside,CA,92503,33.9208,-117.4589
Pizza Hut,3395 University Ave,,10:00 AM - 12:00 AM,Riverside,CA,92501,33.9924,-117.3694
Pizza Hut Express,3500 Polk Street,Castle Park,,Riverside,CA,92505,33.9228,-117.4867
Pizza Hut,4620 Galena St,Suites A&B,10:00 AM - 11:00 PM,Riverside,CA,92509,34.0033,-117.445
Pizza Hut,4750 La Sierra Ave.,,10:00 AM - 12:00 AM,Riverside,CA,92505,33.9228,-117.4867
Pizza Hut,9706 Magnolia Ave,,10:30 AM - 11:00 PM,Riverside,CA,92503,33.9208,-117.4589
Pizza Hut Express,5104 Commons Drive,,,Rocklin,CA,95677,38.7877,-121.2366
Pizza Hut Express,6692 Lonetree Blvd,Century Blue Oaks #1012,,Rocklin,CA,95765,38.8136,-121.2677
Pizza Hut,2101 W. Rosamond Blvd.,,11:00 AM - 10:00 PM,Rosamond,CA,93560,34.8664,-118.3409
Pizza Hut Express,3600 Rosemead Blvd,,,Rosemead,CA,91770,34.0658,-118.0853
Pizza Hut,7779 Garvey Ave,,10:00 AM - 12:00 AM,Rosemead,CA,91770,34.0658,-118.0853
Pizza Hut Express,1925 Douglas Blvd.,,,Roseville,CA,95661,38.7346,-121.234
Pizza Hut,1758 S Nogales St,,10:00 AM - 11:00 PM,Rowland Heights,CA,91748,33.9818,-117.8969
Pizza Hut Express,1015 4th Street,Century Downtown Commons And Xd #448,,Sacramento,CA,95814,38.5804,-121.4922
Pizza Hut,1100 Fulton Ave,,9:30 AM - 11:00 PM,Sacramento,CA,95825,38.5892,-121.4057
Pizza Hut Express,1590 Ethan Way,Century Arden 14 And Xd #1137,,Sacramento,CA,95825,38.5892,-121.4057
Pizza Hut Express,3601 North Freeway Blvd.,,10:00 AM - 8:00 PM,Sacramento,CA,95834,38.6383,-121.5072
Pizza Hut,5323-A Elkhorn Blvd,,9:30 AM - 11:00 PM,Sacramento,CA,95842,38.6865,-121.3494
Pizza Hut,604 W El Camino Ave,,9:30 AM - 11:00 PM,Sacramento,CA,95833,38.6157,-121.5053
Pizza Hut Express,6233 Garfield Ave.,Century 16 Greenback Lane #476,,Sacramento,CA,95841,38.6627,-121.3406
Pizza Hut Express,6507 4th Avenue,,9:00 AM - 8:00 PM,Sacramento,CA,95817,38.5498,-121.4583
Pizza Hut,6619 Florin Rd,,9:30 AM - 11:00 PM,Sacramento,CA,95828,38.4826,-121.4006
Pizza Hut Express,1640 N. Main Street,,,Salinas,CA,93906,36.7103,-121.6438
Pizza Hut Express,350 Northridge Shopping Ctr.,Northridge 14 #449,,Salinas,CA,93906,36.7103,-121.6438
Pizza Hut Express,Salton City Travel Plaza,2084 S Marina Dr,,Salton City,CA,92275,33.3092,-115.9578
Pizza Hut,1050 Kendall Dr.,Ste. D,10:00 AM - 12:00 AM,San Bernardino,CA,92407,34.2166,-117.3908
Pizza Hut,1102 E Highland Ave,,10:00 AM - 12:00 AM,San Bernardino,CA,92404,34.1426,-117.2606
Pizza Hut,2999 Kendall Dr.,Suite C-14,10:00 AM - 12:00 AM,San Bernardino,CA,92407,34.2166,-117.3908
Pizza Hut,398 West Baseline Street,,10:00 AM - 12:00 AM,San Bernardino,CA,92410,34.1069,-117.2975
Pizza Hut,595 S Mount Vernon Ave,,10:00 AM - 12:00 AM,San Bernardino,CA,92410,34.1069,-117.2975
Pizza Hut Express,1150 El Camino Real,,,San Bruno,CA,94066,37.6247,-122.429
Pizza Hut Express,1188 El Camino Real 4th Floor,Century Tanforan #494,,San Bruno,CA,94066,37.6247,-122.429
Pizza Hut Express,990 Avenida Vista Hermosa,,,San Clemente,CA,92673,33.4615,-117.6375
Pizza Hut,11808 Rancho Bernardo Rd.,,11:00 AM - 10:00 PM,San Diego,CA,92128,33.0067,-117.069
Pizza Hut Express,1288 Camino Del Rio North,,,San Diego,CA,92108,32.7783,-117.1335
Pizza Hut Express,1599 La Media Road,La Media Chevron Travel Center,8:00 AM - 8:00 PM,San Diego,CA,92154,32.5753,-117.0707
Pizza Hut,1740 Euclid Ave,,11:00 AM - 11:00 PM,San Diego,CA,92105,32.7423,-117.0947
Pizza Hut Express,2260 Callagan Highway. Bldg 3187A,32nd Street Naval Station - San Diego Main Navy Ex,,San Diego,CA,92136,32.6834,-117.1219
Pizza Hut,2340 University Avenue,,11:00 AM - 11:00 PM,San Diego,CA,92104,32.7454,-117.1272
Pizza Hut,2695 Mission Village Drive,,11:00 AM - 11:00 PM,San Diego,CA,92123,32.7973,-117.1392
Pizza Hut,2931 Beyer Blvd.,,11:00 AM - 11:00 PM,San Diego,CA,92154,32.5753,-117.0707
Pizza Hut,2931 Market St,,11:00 AM - 11:00 PM,San Diego,CA,92102,32.7139,-117.1219
Pizza Hut Express,3245 Sports Area Blvd.,,,San Diego,CA,92110,32.7635,-117.2028
Pizza Hut,3549 Midway Dr,,11:00 AM - 11:00 PM,San Diego,CA,92110,32.7635,-117.2028
Pizza Hut,4090 El Cajon Blvd,Ste C,11:00 AM - 11:00 PM,San Diego,CA,92105,32.7423,-117.0947
Pizza Hut Express,5454 Balboa Avenue,,,San Diego,CA,92111,32.7972,-117.1708
Pizza Hut,6911 Linda Vista Rd,,11:00 AM - 10:00 PM,San Diego,CA,92111,32.7972,-117.1708
Pizza Hut,8214 Mira Mesa Blvd,# 103,11:00 AM - 11:00 PM,San Diego,CA,92126,32.9161,-117.1402
Pizza Hut Express,8251 Mira Mesa Blvd.,,,San Diego,CA,92126,32.9161,-117.1402
Pizza Hut Express,888 W Arrow Hwy,,,San Dimas,CA,91773,34.1023,-117.8169
Pizza Hut,551 N. Maclay Ave.,,10:00 AM - 12:00 AM,San Fernando,CA,91340,34.2875,-118.4352
Pizza Hut Express,865 Market St,Century San Francisco Centre 9 & Xd #467,,San Francisco,CA,94103,37.7725,-122.4147
Pizza Hut,927 E Las Tunas Dr. A,,10:00 AM - 12:00 AM,San Gabriel,CA,91776,34.089,-118.0955
Pizza Hut,490 N State St,,9:30 AM - 11:00 PM,San Jacinto,CA,92583,33.7967,-116.9324
Pizza Hut Express,1750 Story Road,,,San Jose,CA,95122,37.3293,-121.8339
Pizza Hut Express,2161 Monterey Highway,,,San Jose,CA,95125,37.296,-121.8939
Pizza Hut,226 West Alma Ave,Ste. 40,9:30 AM - 11:00 PM,San Jose,CA,95110,37.3391,-121.9016
Pizza Hut,3094A Story Rd,,9:30 AM - 11:00 PM,San Jose,CA,95127,37.3692,-121.8208
Pizza Hut Express,3155 Silver Creek Road,,,San Jose,CA,95121,37.3042,-121.8099
Pizza Hut,3161 Senter Rd,,9:30 AM - 11:00 PM,San Jose,CA,95111,37.2827,-121.8265
Pizza Hut Express,533 Coleman Ave,,,San Jose,CA,95110,37.3391,-121.9016
Pizza Hut Express,5630 Cottle Road,,,San Jose,CA,95123,37.2458,-121.8306
Pizza Hut,5689 Cottle Rd,,9:30 AM - 11:00 PM,San Jose,CA,95123,37.2458,-121.8306
Pizza Hut Express,879 Blossom Hill Road,,,San Jose,CA,95123,37.2458,-121.8306
Pizza Hut Express,925 Blossom Hill Rd. Suite 2000,Oakridge 20 #477,,San Jose,CA,95123,37.2458,-121.8306
Pizza Hut Express,95 Holger Way,,,San Jose,CA,95134,37.4087,-121.9406
Pizza Hut,32095 Camino Capistrano,,10:00 AM - 10:00 PM,San Juan Capistrano,CA,92675,33.5085,-117.6565
Pizza Hut,15099 Hesperian Blvd.,Ste C,9:30 AM - 11:00 PM,San Leandro,CA,94578,37.7024,-122.124
Pizza Hut Express,15555 East 14th Street Suite 600,Century 16 Bayfair Mall,,San Leandro,CA,94578,37.7024,-122.124
Pizza Hut Express,11990 Los Osos Valley Rd,,,San Luis Obispo,CA,93405,35.2901,-120.6817
Pizza Hut,1915 W. San Marcos Blvd,,11:00 AM - 10:00 PM,San Marcos,CA,92069,33.1444,-117.1697
Pizza Hut,705 Center Drive,#106,11:00 AM - 10:00 PM,San Marcos,CA,92069,33.1444,-117.1697
Pizza Hut Express,2220 Bridge Point Parkway,,,San Mateo,CA,94404,37.5538,-122.27
Pizza Hut Express,320 East 2nd Avenue,Century 12 #437,,San Mateo,CA,94401,37.5735,-122.3225
Pizza Hut,14501 San Pablo Ave,,9:30 AM - 11:00 PM,San Pablo,CA,94806,37.9724,-122.3369
Pizza Hut Express,1701 N Gaffey St,,,San Pedro,CA,90731,33.7339,-118.2914
Pizza Hut,650 S Gaffey St,,10:00 AM - 11:00 PM,San Pedro,CA,90731,33.7339,-118.2914
Pizza Hut Express,125 Shoreline Parkway,,,San Rafael,CA,94901,37.9691,-122.5105
Pizza Hut Express,2610 Bishop Drive,,,San Ramon,CA,94583,37.7562,-121.9522
Pizza Hut,1036 S. Main St.,#104,10:00 AM - 11:00 PM,Santa Ana,CA,92701,33.7523,-117.8541
Pizza Hut Express,1441 W. 17th Street,,,Santa Ana,CA,92706,33.7691,-117.8855
Pizza Hut,1714 E. McFadden Ave.,Suite O,10:00 AM - 11:00 PM,Santa Ana,CA,92705,33.754,-117.7919
Pizza Hut,2003 W. 1st St. B,,10:00 AM - 11:00 PM,Santa Ana,CA,92703,33.7489,-117.9072
Pizza Hut,2390 N Tustin Ave.,Suite A,10:00 AM - 11:00 PM,Santa Ana,CA,92705,33.754,-117.7919
Pizza Hut,2541 S Fairview St,,10:00 AM - 11:00 PM,Santa Ana,CA,92704,33.7249,-117.909
Pizza Hut Express,3300 South Bristol Street,,,Santa Ana,CA,92704,33.7249,-117.909
Pizza Hut,3317 S Bristol St,,10:00 AM - 11:00 PM,Santa Ana,CA,92704,33.7249,-117.909
Pizza Hut,715 N Harbor Blvd.,#103,10:00 AM - 11:00 PM,Santa Ana,CA,92703,33.7489,-117.9072
Pizza Hut,806 W 17th St,,10:00 AM - 11:00 PM,Santa Ana,CA,92706,33.7691,-117.8855
Pizza Hut Express,2004 El Camino Real,,,Santa Clara,CA,95050,37.3492,-121.953
Pizza Hut Express,19105 Golden Valley Road,,,Santa Clarita,CA,91387,34.4132,-118.426
Pizza Hut,27984 Seco Canyon Rd.,#303,10:00 AM - 11:00 PM,Santa Clarita,CA,91350,34.4336,-118.5007
Pizza Hut,743 E Main St,,10:00 AM - 12:00 AM,Santa Maria,CA,93454,34.9545,-120.4325
Pizza Hut,2029 Pico Blvd,,10:00 AM - 12:00 AM,Santa Monica,CA,90405,34.01,-118.4717
Pizza Hut Express,1980 Santa Rosa Avenue,,,Santa Rosa,CA,95404,38.4405,-122.7144
Pizza Hut Express,900 Coddington Center,,,Santa Rosa,CA,95401,38.4432,-122.7547
Pizza Hut Express,640 Pacific Coast Hwy,,,Seal Beach,CA,90740,33.7602,-118.0808
Pizza Hut,14900 Burbank Blvd,,10:00 AM - 12:00 AM,Sherman Oaks,CA,91411,34.1781,-118.4574
Pizza Hut Express,950 East 33rd Street,,,Signal Hill,CA,90807,33.8315,-118.1811
Pizza Hut,2050 D First Street,,10:30 AM - 11:00 PM,Simi Valley,CA,93065,34.2656,-118.7653
Pizza Hut,4419 Alamo St,,10:00 AM - 11:00 PM,Simi Valley,CA,93063,34.3046,-118.6844
Pizza Hut Express,51 Tierra Rejada Road,,,Simi Valley,CA,93065,34.2656,-118.7653
Pizza Hut,3255 Tweedy Blvd,,10:00 AM - 11:00 PM,South Gate,CA,90280,33.9462,-118.2013
Pizza Hut Express,5700 Firestone Blvd.,,,South Gate,CA,90280,33.9462,-118.2013
Pizza Hut,3599 Lake Tahoe Blvd.,,10:00 AM - 10:00 PM,South Lake Tahoe,CA,96150,38.917,-119.9865
Pizza Hut,553 El Camino Real,,9:30 AM - 11:00 PM,South San Francisco,CA,94080,37.6574,-122.4235
Pizza Hut,8300 Paradise Valley Rd.,#124,11:00 AM - 11:00 PM,Spring Valley,CA,91977,32.724,-116.9976
Pizza Hut,9805 Campo Rd.,Suite 150,11:00 AM - 11:00 PM,Spring Valley,CA,91977,32.724,-116.9976
Pizza Hut,12003 Beach Blvd,,10:00 AM - 11:00 PM,Stanton,CA,90680,33.7991,-117.9956
Pizza Hut Express,10850 Trinity Parkway,,,Stockton,CA,95219,38.01,-121.3698
Pizza Hut,4729 N. Pershing Ave.,#A,9:30 AM - 11:00 PM,Stockton,CA,95207,38.0024,-121.3238
Pizza Hut Express,4747 Pacific Avenue,,,Stockton,CA,95207,38.0024,-121.3238
Pizza Hut,8337 Foothill Blvd.,#1,10:30 AM - 11:00 PM,Sunland,CA,91040,34.2618,-118.3371
Pizza Hut,464 N Mathilda Ave,,9:30 AM - 11:00 PM,Sunnyvale,CA,94085,37.3886,-122.0177
Pizza Hut,12737 Glenoaks Blvd,,10:00 AM - 12:00 AM,Sylmar,CA,91342,34.3054,-118.4322
Pizza Hut,900 Kern St.,Suite C,9:30 AM - 11:00 PM,Taft,CA,93268,35.1482,-119.4557
Pizza Hut,27267 Nicolas Road,Suite E-104,9:30 AM - 11:00 PM,Temecula,CA,92591,33.5217,-117.1286
Pizza Hut,33195 Hwy 79 South,Ste D,10:00 AM - 11:00 PM,Temecula,CA,92592,33.4983,-117.0958
Pizza Hut Express,2705 Teller Road,,,Thousand Oaks,CA,91320,34.1774,-118.9358
Pizza Hut,75 S Rancho Rd,,10:00 AM - 11:00 PM,Thousand Oaks,CA,91362,34.1948,-118.8232
Pizza Hut Express,683 N. Thompson Road,Tipton Shell,,Tipton,CA,93272,36.0546,-119.3078
Pizza Hut,1173 W Carson St,,10:00 AM - 11:00 PM,Torrance,CA,90502,33.8286,-118.292
Pizza Hut,20305 Anza Ave.-Suite D,,10:00 AM - 11:00 PM,Torrance,CA,90503,33.8397,-118.3542
Pizza Hut,2208 Artesia Blvd,,10:00 AM - 11:00 PM,Torrance,CA,90504,33.8708,-118.3295
Pizza Hut,3902 Pacific Coast Hwy.,,10:30 AM - 10:00 PM,Torrance,CA,90505,33.8106,-118.3507
Pizza Hut Express,2800 Naglee Road,,,Tracy,CA,95304,37.7319,-121.4096
Pizza Hut Express,3300 N. Naglee Road,Movies 14 #217,,Tracy,CA,95376,37.7383,-121.4345
Pizza Hut,720 W 11th St,,9:30 AM - 11:00 PM,Tracy,CA,95376,37.7383,-121.4345
Pizza Hut,1304 Prosperity Ave.,,9:30 AM - 11:00 PM,Tulare,CA,93274,36.2022,-119.338
Pizza Hut Express,2195 E Prosperity Ave.,,,Tulare,CA,93274,36.2022,-119.338
Pizza Hut,920 Lander Avenue,,9:30 AM - 12:00 AM,Turlock,CA,95380,37.4888,-120.8535
Pizza Hut,13662 Newport Ave.,,10:00 AM - 10:00 PM,Tustin,CA,92780,33.7364,-117.8229
Pizza Hut,14531 Red Hill Ave,,10:00 AM - 10:00 PM,Tustin,CA,92780,33.7364,-117.8229
Pizza Hut Express,2300 Park Ave,,,Tustin,CA,92782,33.7346,-117.7869
Pizza Hut,72526 29 Palms Hwy,,9:30 AM - 1:00 AM,Twentynine Palms,CA,92277,34.1455,-116.0601
Pizza Hut Express,32100 Union Landing,Century 25 Union Landing #423,,Union City,CA,94587,37.5895,-122.0497
Pizza Hut Express,100 Universal City Plaza,Universal Studios - City Walk,,Universal City,CA,91608,34.1383,-118.3528
Pizza Hut,1261 W Foothill Blvd.,,10:00 AM - 11:00 PM,Upland,CA,91786,34.1144,-117.6583
Pizza Hut Express,1931 N. Campus Avenue,,,Upland,CA,91784,34.141,-117.6581
Pizza Hut Express,109 Plaza Dr. Gateway Plaza Center,Century Vallejo 14 # 445,,Vallejo,CA,94591,38.0985,-122.2124
Pizza Hut,905 Broadway,,9:30 AM - 11:00 PM,Vallejo,CA,94590,38.1053,-122.2474
Pizza Hut Express,14920 Raymer Street,,,Van Nuys,CA,91405,34.2001,-118.4456
Pizza Hut,17630 Vanowens Blvd,,10:00 AM - 12:00 AM,Van Nuys,CA,91406,34.2006,-118.4868
Pizza Hut Express,5711 W. Sepulveda Blvd.,,,Van Nuys,CA,91411,34.1781,-118.4574
Pizza Hut,7136 Van Nuys Blvd,,10:00 AM - 12:00 AM,Van Nuys,CA,91405,34.2001,-118.4456
Pizza Hut,1411 Lincoln Blvd,Suite 6,10:00 AM - 12:00 AM,Venice,CA,90291,33.9938,-118.4635
Pizza Hut,1455 S. Victoria Ave.,Suite A,10:30 AM - 11:00 PM,Ventura,CA,93003,34.2846,-119.2222
Pizza Hut Express,245 S. Mills Road,,9:00 AM - 10:00 PM,Ventura,CA,93003,34.2846,-119.2222
Pizza Hut,12183 Hesperia Rd,,9:30 AM - 11:00 PM,Victorville,CA,92395,34.5016,-117.2944
Pizza Hut Express,14470 Bear Valley Rd,,,Victorville,CA,92392,34.4802,-117.4082
Pizza Hut,14582 Palmdale Rd,,9:30 AM - 11:00 PM,Victorville,CA,92392,34.4802,-117.4082
Pizza Hut,250 S. Akers,,9:30 AM - 11:00 PM,Visalia,CA,93291,36.3551,-119.301
Pizza Hut Express,3308 North Dinuba Blvd.,,,Visalia,CA,93291,36.3551,-119.301
Pizza Hut,416 E Tulare Ave,,9:30 AM - 11:00 PM,Visalia,CA,93277,36.3114,-119.3065
Pizza Hut,1289 E. Vista Way,,11:00 AM - 11:00 PM,Vista,CA,92084,33.2131,-117.2243
Pizza Hut Express,1751 University Dr.,,,Vista,CA,92083,33.1978,-117.2482
Pizza Hut Express,3150 Business Park Drive,,,Vista,CA,92081,33.1644,-117.2403
Pizza Hut Express,1871 North Main,,,Walnut Creek,CA,94596,37.9053,-122.0549
Pizza Hut,2340 Highway 46,,9:30 AM - 10:00 PM,Wasco,CA,93280,35.648,-119.4487
Pizza Hut Express,2831 Eastland Center.,,,West Covina,CA,91791,34.0653,-117.8978
Pizza Hut,3646 Nogales St.,Unit C,10:00 AM - 11:00 PM,West Covina,CA,91792,34.0229,-117.8975
Pizza Hut,504 S Vincent Ave,,10:00 AM - 11:00 PM,West Covina,CA,91790,34.0673,-117.9366
Pizza Hut Express,30740 Russell Ranch Road,,9:00 AM - 8:00 PM,Westlake Village,CA,91362,34.1948,-118.8232
Pizza Hut Express,200 Westminster Mall,,,Westminster,CA,92683,33.7524,-117.9939
Pizza Hut,6902 Westminster Blvd,,10:00 AM - 11:00 PM,Westminster,CA,92683,33.7524,-117.9939
Pizza Hut,11550 Whittier Blvd,,10:00 AM - 11:00 PM,Whittier,CA,90601,34.0011,-118.0371
Pizza Hut,13525 Telegraph Rd C,,10:00 AM - 12:00 AM,Whittier,CA,90605,33.9413,-118.0356
Pizza Hut Express,15614 Whittwood Lane,,,Whittier,CA,90603,33.9432,-117.9927
Pizza Hut,909 W Pacific Coast Hwy,,10:00 AM - 11:00 PM,Wilmington,CA,90744,33.7855,-118.2645
Pizza Hut Express,18455 County Road 102,,,Woodland,CA,95776,38.6808,-121.7411
Pizza Hut Express,20801 Ventura Blvd.,Target - T0288,,Woodland Hills,CA,91364,34.1557,-118.6
Pizza Hut,19725 Yorba Linda Blvd,,10:00 AM - 10:00 PM,Yorba Linda,CA,92886,33.9058,-117.7865
Pizza Hut,34309 Yucaipa Blvd,Ste A,11:00 AM - 10:00 PM,Yucaipa,CA,92399,34.0282,-117.0489
Pizza Hut,58012 29 Palms Hwy,,9:30 AM - 11:00 PM,Yucca Valley,CA,92284,34.1559,-116.4313
Pizza Hut Express,1st Street And Stadium Drive,Adams State University,,Alamosa,CO,81102,37.476,-105.8818
Pizza Hut,814 Main St,,11:00 AM - 10:00 PM,Alamosa,CO,81101,37.4703,-105.8786
Pizza Hut,8990 Ralston Rd,,10:00 AM - 11:00 PM,Arvada,CO,80002,39.7945,-105.0984
Pizza Hut,1086 S Sable Blvd,,10:00 AM - 11:00 PM,Aurora,CO,80012,39.6987,-104.8377
Pizza Hut Express,14200 E Ellsworth Avenue,Target - T1471,,Aurora,CO,80012,39.6987,-104.8377
Pizza Hut Express,14300 East Alameda Ave.,Century Aurora #428,,Aurora,CO,80012,39.6987,-104.8377
Pizza Hut,14601 E. Colfax Ave.,Unit C,10:00 AM - 11:00 PM,Aurora,CO,80011,39.7378,-104.8152
Pizza Hut,1545 S. Havana St.,,10:00 AM - 11:00 PM,Aurora,CO,80012,39.6987,-104.8377
Pizza Hut,16800 E. Iliff Ave.,,10:00 AM - 11:00 PM,Aurora,CO,80013,39.6575,-104.7846
Pizza Hut,18187 E Hampden Ave,,10:00 AM - 11:00 PM,Aurora,CO,80013,39.6575,-104.7846
Pizza Hut,5657 S Himalaya St,#260,10:00 AM - 11:00 PM,Aurora,CO,80015,39.6255,-104.7874
Pizza Hut Express,7400 S. Gartrell Road,,,Aurora,CO,80016,39.6012,-104.7394
Pizza Hut,821 W. Mountain Ave.,,11:00 AM - 9:00 PM,Berthoud,CO,80513,40.2993,-105.1055
Pizza Hut Express,2800 Pearl St.,,,Boulder,CO,80301,40.0497,-105.2143
Pizza Hut Express,2171 Prairie Center Pkwy.,,,Brighton,CO,80601,39.943,-104.7866
Pizza Hut,2210 E Bridge St,,10:00 AM - 10:00 PM,Brighton,CO,80601,39.943,-104.7866
Pizza Hut Express,10445 Reed Street,,,Broomfield,CO,80021,39.8854,-105.1139
Pizza Hut,320 S Lincoln St,,10:30 AM - 10:00 PM,Burlington,CO,80807,39.3106,-102.2583
Pizza Hut,310 N. 16th Street,# A-C,10:30 AM - 10:00 PM,Canon City,CO,81212,38.4451,-105.2178
Pizza Hut,340 S Wilcox St,,12:00 PM - 9:00 PM,Castle Rock,CO,80104,39.3722,-104.8561
Pizza Hut,10639 E. Briarwood Ave.,Space B1,10:00 AM - 11:00 PM,Centennial,CO,80112,39.5805,-104.9011
Pizza Hut,5270 E Arapahoe Rd.,#G3,10:00 AM - 11:00 PM,Centennial,CO,80122,39.5814,-104.9557
Pizza Hut,571 32 Rd,Unit A,10:30 AM - 11:00 PM,Clifton,CO,81520,39.0805,-108.4496
Pizza Hut,1120 North Circle Drive,Suite 200,12:00 PM - 9:00 PM,Colorado Springs,CO,80909,38.852,-104.7735
Pizza Hut Express,1545 E Cheyenne Mountain Blvd,Tinseltown 20 #248,,Colorado Springs,CO,80906,38.7902,-104.8199
Pizza Hut,2840 S Academy Blvd,,10:30 AM - 11:00 PM,Colorado Springs,CO,80916,38.8076,-104.7403
Pizza Hut Express,3305 Cinema Point,Cinemark Carefree Circle #301,,Colorado Springs,CO,80922,38.905,-104.6982
Pizza Hut,3345 N. Academy Blvd.,,10:30 AM - 11:00 PM,Colorado Springs,CO,80917,38.886,-104.7399
Pizza Hut,3671 Star Ranch Rd,,12:00 PM - 9:00 PM,Colorado Springs,CO,80906,38.7902,-104.8199
Pizza Hut Express,3810 Bloomington St,,,Colorado Springs,CO,80922,38.905,-104.6982
Pizza Hut,4331 Centennial Blvd,,5:00 PM - 10:00 PM,Colorado Springs,CO,80907,38.876,-104.817
Pizza Hut,5815 Palmer Park Blvd,,10:30 AM - 9:00 PM,Colorado Springs,CO,80915,38.8558,-104.7134
Pizza Hut,6130 Barnes Rd,Suite 100,11:00 AM - 10:00 PM,Colorado Springs,CO,80922,38.905,-104.6982
Pizza Hut Express,7770 Milton E. Proby Parkway,Colorado Springs Airport,,Colorado Springs,CO,80916,38.8076,-104.7403
Pizza Hut,840 E Fillmore St,,10:30 AM - 11:00 PM,Colorado Springs,CO,80907,38.876,-104.817
Pizza Hut,8832 N Union Blvd,Ste N,10:30 AM - 11:00 PM,Colorado Springs,CO,80920,38.9497,-104.767
Pizza Hut Express,9670 Prominent Point,,,Colorado Springs,CO,80920,38.9497,-104.767
Pizza Hut,NE Corner Ellis Street & Ware Street,Fort Carson,10:00 AM - 11:00 PM,Colorado Springs,CO,80913,38.73,-104.7536
Pizza Hut,15550 E. 103rd Place,#100,10:00 AM - 11:00 PM,Commerce City,CO,80022,39.8259,-104.9113
Pizza Hut Express,5101 Quebec Street,Travel Centers Of America,,Commerce City,CO,80022,39.8259,-104.9113
Pizza Hut,6125 E Parkway Dr,,10:00 AM - 11:00 PM,Commerce City,CO,80022,39.8259,-104.9113
Pizza Hut,1119 E Main St,,11:00 AM - 10:00 PM,Cortez,CO,81321,37.3549,-108.5837
Pizza Hut,1070 W Victory Way,,10:00 AM - 10:00 PM,Craig,CO,81625,40.5224,-107.5615
Pizza Hut,1252 S Main St,,11:00 AM - 10:00 PM,Delta,CO,81416,38.7349,-108.0604
Pizza Hut,1355 Santa Fe Dr,Ste B,10:00 AM - 11:00 PM,Denver,CO,80204,39.734,-105.0259
Pizza Hut,15470 Andrews Dr,Ste 20,10:00 AM - 10:00 PM,Denver,CO,80239,39.7878,-104.8288
Pizza Hut,2300 S Federal Blvd,,10:00 AM - 11:00 PM,Denver,CO,80219,39.6956,-105.0341
Pizza Hut,3200 Colorado Blvd,,10:00 AM - 11:00 PM,Denver,CO,80207,39.7584,-104.9177
Pizza Hut,4085 E Mississippi Ave A&B,,10:00 AM - 11:00 PM,Denver,CO,80246,39.7086,-104.9312
Pizza Hut,4565 E Colfax Ave,,11:00 AM - 9:00 PM,Denver,CO,80220,39.7312,-104.9129
Pizza Hut,4676 Washington Street,,10:00 AM - 11:00 PM,Denver,CO,80216,39.7835,-104.9669
Pizza Hut,4906 N Tower Rd,Suite 130,10:00 AM - 11:00 PM,Denver,CO,80249,39.7783,-104.7557
Pizza Hut,7171 Pecos St,,10:00 AM - 11:00 PM,Denver,CO,80221,39.838,-104.9988
Pizza Hut,7352 Washington St,,11:00 AM - 11:00 PM,Denver,CO,80229,39.8671,-104.9227
Pizza Hut Express,7777 E. Hampden Avenue,,,Denver,CO,80231,39.6793,-104.8843
Pizza Hut Express,7930 E. 49th Avenue,,,Denver,CO,80216,39.7835,-104.9669
Pizza Hut Express,8500 Pena Blvd.,Denver International Airport,,Denver,CO,80249,39.7783,-104.7557
Pizza Hut Express,8500 Pena Blvd.,Denver International Airport,,Denver,CO,80249,39.7783,-104.7557
Pizza Hut,9500 E Hampden Ave,,10:00 AM - 11:00 PM,Denver,CO,80231,39.6793,-104.8843
Pizza Hut,975 S Federal Blvd,,10:00 AM - 11:00 PM,Denver,CO,80219,39.6956,-105.0341
Pizza Hut,1316 Main Ave,,11:00 AM - 10:00 PM,Durango,CO,81301,37.2874,-107.8617
Pizza Hut Express,1985 Sheridan Blvd,,,Edgewater,CO,80214,39.7436,-105.0643
Pizza Hut,4100 S Broadway,,10:00 AM - 11:00 PM,Englewood,CO,80113,39.6405,-104.9614
Pizza Hut Express,6767 South Clinton,,,Englewood,CO,80112,39.5805,-104.9011
Pizza Hut Express,8220 S. Quebec,,,Englewood,CO,80112,39.5805,-104.9011
Pizza Hut,7657 McLaughlin Rd,,10:30 AM - 10:00 PM,Falcon,CO,80831,38.9541,-104.5472
Pizza Hut,4415 City Centre Rd,Suite 100,11:00 AM - 10:00 PM,Firestone,CO,80504,40.1306,-104.9504
Pizza Hut,1075 Pennock Pl,,11:00 AM - 10:00 PM,Fort Collins,CO,80524,40.5986,-105.0581
Pizza Hut Express,2936 Council Tree Avenue,,,Fort Collins,CO,80525,40.5384,-105.0547
Pizza Hut,4643 S Mason St,,11:00 AM - 10:00 PM,Fort Collins,CO,80525,40.5384,-105.0547
Pizza Hut,450 Denver Ave,,11:00 AM - 9:00 PM,Fort Lupton,CO,80621,40.108,-104.8013
Pizza Hut,1200 W Platte Ave,,10:00 AM - 10:00 PM,Fort Morgan,CO,80701,40.2541,-103.8031
Pizza Hut,6859 Mesa Ridge Pkwy,,11:00 AM - 11:00 PM,Fountain,CO,80817,38.6996,-104.7005
Pizza Hut,1041 Highway 6 & 50,,10:30 AM - 10:00 PM,Fruita,CO,81521,39.1637,-108.7218
Pizza Hut Express,110 W. Meadows Drive,,,Glenwood Springs,CO,81601,39.5296,-107.3252
Pizza Hut,3130 S Glen Ave,,10:30 AM - 10:00 PM,Glenwood Springs,CO,81601,39.5296,-107.3252
Pizza Hut,17211 S Golden Rd,# A120,10:30 AM - 10:00 PM,Golden,CO,80401,39.7305,-105.1915
Pizza Hut,1440 North Ave.,,10:30 AM - 10:30 PM,Grand Junction,CO,81501,39.0783,-108.5457
Pizza Hut,417 Monument Road,,10:30 AM - 10:00 PM,Grand Junction,CO,81507,39.0157,-108.6129
Pizza Hut,2439 W. 10th St,,11:00 AM - 10:00 PM,Greeley,CO,80634,40.4109,-104.7541
Pizza Hut Express,4400 Centerplace Drive,,,Greeley,CO,80634,40.4109,-104.7541
Pizza Hut,4637 W. 29th Street.,,11:00 AM - 10:00 PM,Greeley,CO,80634,40.4109,-104.7541
Pizza Hut,402 E 1st St,,10:30 AM - 11:00 PM,La Junta,CO,81050,37.9546,-103.6644
Pizza Hut,105 D Wadsworth Blvd.,,10:00 AM - 11:00 PM,Lakewood,CO,80226,39.7123,-105.0918
Pizza Hut,12073 W Alameda Pkwy,,10:00 AM - 11:00 PM,Lakewood,CO,80228,39.6888,-105.156
Pizza Hut,3355 S. Wadsworth Blvd. G107,,10:00 AM - 11:00 PM,Lakewood,CO,80227,39.6667,-105.0854
Pizza Hut Express,440 S. Teller St.,,,Lakewood,CO,80226,39.7123,-105.0918
Pizza Hut,6781 W Colfax Ave,,10:00 AM - 11:00 PM,Lakewood,CO,80214,39.7436,-105.0643
Pizza Hut,610 N Main St,,10:30 AM - 10:00 PM,Lamar,CO,81052,38.0841,-102.6192
Pizza Hut,2017 N Poplar St,,10:30 AM - 10:00 PM,Leadville,CO,80461,39.2497,-106.3015
Pizza Hut,220 E Main St,,10:30 AM - 10:00 PM,Limon,CO,80828,39.2713,-103.6856
Pizza Hut,10171B W Bowles Ave,,10:00 AM - 11:00 PM,Littleton,CO,80127,39.592,-105.1328
Pizza Hut,5856 S Lowell Blvd,Ste 30,10:00 AM - 11:00 PM,Littleton,CO,80123,39.6206,-105.0901
Pizza Hut,9012 W Ken Caryl Road,,10:00 AM - 11:00 PM,Littleton,CO,80128,39.5918,-105.0832
Pizza Hut,9385 S. Colorado Blvd.,#106,10:00 AM - 11:00 PM,Littleton,CO,80126,39.5437,-104.9691
Pizza Hut Express,9390 W. Cross Drive,,,Littleton,CO,80123,39.6206,-105.0901
Pizza Hut Express,10001 Commons Street,,,Lonetree,CO,80124,39.5517,-104.8863
Pizza Hut Express,551 S Hover Rd,,,Longmont,CO,80501,40.1779,-105.1009
Pizza Hut,2188 W Eisenhower Blvd,,11:00 AM - 10:00 PM,Loveland,CO,80537,40.3849,-105.0916
Pizza Hut,237 E 29th St,,11:00 AM - 10:00 PM,Loveland,CO,80538,40.4262,-105.09
Pizza Hut,2015 Grande Ave,,10:30 AM - 10:00 PM,Monte Vista,CO,81144,37.5731,-106.1408
Pizza Hut,2331 S Townsend Ave,,10:30 AM - 10:00 PM,Montrose,CO,81401,38.4678,-107.8752
Pizza Hut,11920 N Washington St,,10:00 AM - 11:00 PM,Northglenn,CO,80233,39.9015,-104.9407
Pizza Hut,10535 Parker Road,,10:30 AM - 10:00 PM,Parker,CO,80134,39.4895,-104.8447
Pizza Hut Express,11150 S Twenty Mile Rd.,,,Parker,CO,80134,39.4895,-104.8447
Pizza Hut,1106 Bonforte Blvd.,,10:30 AM - 11:00 PM,Pueblo,CO,81001,38.2879,-104.5848
Pizza Hut,1130 W Northern Ave,,10:30 AM - 11:00 PM,Pueblo,CO,81004,38.2441,-104.6278
Pizza Hut,1710 Highway 50,,10:30 AM - 11:00 PM,Pueblo,CO,81008,38.3133,-104.6284
Pizza Hut Express,3650 Riverpoint Parkway,,Open 24 Hours,Sheridan,CO,80110,39.6463,-105.0092
Pizza Hut,175 Stephens Way,,10:30 AM - 9:00 PM,Silverthorne,CO,80498,39.7647,-106.2211
Pizza Hut,224 W Main St.,,10:30 AM - 10:00 PM,Sterling,CO,80751,40.6306,-103.2212
Pizza Hut,11985 Holly St,,10:00 AM - 11:00 PM,Thornton,CO,80233,39.9015,-104.9407
Pizza Hut,13762 Colorado Blvd.,#100,10:00 AM - 11:00 PM,Thornton,CO,80602,39.9636,-104.9072
Pizza Hut,3880 E 104th Ave,,10:00 AM - 11:00 PM,Thornton,CO,80233,39.9015,-104.9407
Pizza Hut,2008 Freedom Rd.,,10:30 AM - 10:00 PM,Trinidad,CO,81082,37.2691,-104.5038
Pizza Hut,10138 N Wadsworth Pkwy,,10:00 AM - 11:00 PM,Westminster,CO,80021,39.8854,-105.1139
Pizza Hut,10343 Federal Blvd,Unit C,10:00 AM - 11:00 PM,Westminster,CO,80260,39.8672,-105.0041
Pizza Hut,12049 North Pecos St,,10:00 AM - 11:00 PM,Westminster,CO,80234,39.9108,-105.0109
Pizza Hut Express,14451 Orchard Pkwy,,,Westminster,CO,80023,39.9619,-105.0148
Pizza Hut,7820 Sheridan Blvd,,,Westminster,CO,80003,39.8286,-105.0655
Pizza Hut Express,5071 Kipling Street,,,Wheat Ridge,CO,80033,39.774,-105.0962
Pizza Hut,100 12th St,,11:00 AM - 10:00 PM,Windsor,CO,80550,40.4837,-104.8994
Pizza Hut,831 S Detroit St,,11:00 AM - 9:00 PM,Yuma,CO,80759,40.1301,-102.7072
Pizza Hut Express,20 West Main St,,,Ansonia,CT,6401,,
Pizza Hut Express,18 Wilbur Cross Hwy,,,Berlin,CT,6037,,
Pizza Hut Express,2177 Killingly Commons Drive,,,Dayville,CT,6241,,
Pizza Hut Express,195 River Road,,,Lisbon,CT,6351,,
Pizza Hut Express,1524 Pleasant Valley Rd.,Buckland Plaza,,Manchester,CT,6042,,
Pizza Hut Express,99 Redstone Rd.,Buckland Hills 18 #1086,,Manchester,CT,6042,,
Pizza Hut Express,1191 Boston Post Rd.,,,Milford,CT,6460,,
Pizza Hut Express,1201 Boston Post Rd Ste. 3000,Connecticut Post 14 #1088,,Milford,CT,6460,,
Pizza Hut Express,543 Bridgeport Ave,,,Milford,CT,6460,,
Pizza Hut Express,200 Universal Drive N.,,,North Haven,CT,6473,,
Pizza Hut Express,550 Universal Drive,"Cinemark 14, #1129",,North Haven,CT,6473,,
Pizza Hut Express,25 Boston Post Road,,,Orange,CT,6477,,
Pizza Hut Express,600 Executive Blvd.,,,Southington,CT,6489,,
Pizza Hut Express,5065 Main Street,,,Trumbull,CT,6611,,
Pizza Hut Express,300 Chase Ave,,,Waterbury,CT,6704,,
Pizza Hut Express,850 Hartford Tpke,Crystal Mall,,Waterford,CT,6385,,
Pizza Hut Express,1075 Kennedy Rd,,,Windsor,CT,6095,,
Pizza Hut,1501 A&B Maryland Ave NE,,11:00 AM - 2:00 AM,Washington,DC,20002,38.9024,-76.9901
Pizza Hut Express,3100 14th Street N.W.,Suite #201,,Washington,DC,20010,38.9327,-77.0322
Pizza Hut,4205 Georgia Ave NW,,11:00 AM - 2:00 AM,Washington,DC,20011,38.9518,-77.0203
Pizza Hut,1837 Pulaski Hwy 40,,10:00 AM - 10:00 PM,Bear,DE,19701,39.6102,-75.6747
Pizza Hut,1155 E Lebanon Rd,,10:00 AM - 12:00 AM,Dover,DE,19901,39.1564,-75.4955
Pizza Hut Express,1200 Christiana Mall,Cinemark Christiana Mall 12 #1076,,Newark,DE,19702,39.6349,-75.6993
Pizza Hut Express,800 Christiana Mall,,8:00 AM - 9:00 PM,Newark,DE,19702,39.6349,-75.6993
Pizza Hut,820 Norman Eskridge Hwy,,10:00 AM - 11:00 PM,Seaford,DE,19973,38.6404,-75.6041
Pizza Hut,119 N. Dupont Hwy.,Suite E,10:00 AM - 10:00 PM,Smyrna,DE,19977,39.2934,-75.6008
Pizza Hut Express,3240 Kirkwood Hwy,Target - T2875,,Wilmington,DE,19808,39.7359,-75.6647
Pizza Hut,15947 NW US Highway 441,,11:00 AM - 10:00 PM,Alachua,FL,32615,29.8135,-82.472
Pizza Hut,600 E Altamonte Dr,,10:30 AM - 11:00 PM,Altamonte Springs,FL,32701,28.6666,-81.365
Pizza Hut,767 S. State Road 434,#1000,10:30 AM - 11:00 PM,Altamonte Springs,FL,32714,28.6625,-81.4117
Pizza Hut,1148 N. Rock Springs Rd.,,10:30 AM - 11:00 PM,Apopka,FL,32712,28.712,-81.5136
Pizza Hut,883 Semoran Blvd,,10:30 AM - 11:00 PM,Apopka,FL,32703,28.6354,-81.4888
Pizza Hut,2527 SE Hwy 70,,10:00 AM - 10:00 PM,Arcadia,FL,34266,27.1861,-81.8667
Pizza Hut,815 Atlantic Blvd,,10:00 AM - 12:00 AM,Atlantic Beach,FL,32233,30.3483,-81.4159
Pizza Hut,203 Magnolia Ave,,10:00 AM - 11:30 PM,Auburndale,FL,33823,28.0724,-81.8122
Pizza Hut,310 N Hwy 27,,10:00 AM - 10:00 PM,Avon Park,FL,33825,27.6001,-81.5015
Pizza Hut,410 Van Fleet Dr.,,10:00 AM - 11:00 PM,Bartow,FL,33830,27.8957,-81.8127
Pizza Hut,10738 SE US Hwy. 441,,11:00 AM - 10:00 PM,Belleview,FL,34420,29.0531,-82.0375
Pizza Hut,19926 W. Central,,10:30 AM - 10:00 PM,Blountstown,FL,32424,30.4394,-85.062
Pizza Hut,21342 St. Andrews Blvd.,#250,10:30 AM - 12:00 AM,Boca Raton,FL,33433,26.3464,-80.1564
Pizza Hut Express,21637 State Road 7,,,Boca Raton,FL,33428,26.3446,-80.2109
Pizza Hut Express,3200 Airport Road,Cinemark Palace 20 #1048,,Boca Raton,FL,33431,26.3799,-80.0975
Pizza Hut Express,777 Glades Rd.,Florida Atlantic University,,Boca Raton,FL,33431,26.3799,-80.0975
Pizza Hut,2117 S Waukesha St,,10:30 AM - 10:30 PM,Bonifay,FL,32425,30.8464,-85.69
Pizza Hut,27241 Bay Landing Dr.,Ste. 9,10:00 AM - 10:00 PM,Bonita Springs,FL,34135,26.3771,-81.7334
Pizza Hut Express,10201 Hagen Ranch Rd,,,Boynton Beach,FL,33437,26.5312,-80.1418
Pizza Hut Express,650 N Congress Ave,,,Boynton Beach,FL,33426,26.5175,-80.0834
Pizza Hut,9851 D Military Trail South,,10:30 AM - 11:00 PM,Boynton Beach,FL,33436,26.5354,-80.1124
Pizza Hut Express,14315 State Road 70 E,Nick & Moe's-Lakewood Ranch,,Bradenton,FL,34211,27.45,-82.3773
Pizza Hut,3132 53rd Ave E,,10:00 AM - 12:00 AM,Bradenton,FL,34203,27.4547,-82.5359
Pizza Hut,3611 First Street East,#210,10:00 AM - 12:00 AM,Bradenton,FL,34208,27.4678,-82.512
Pizza Hut,4802 14th St,,12:00 PM - 9:00 PM,Bradenton,FL,34207,27.4394,-82.5778
Pizza Hut Express,575 E 66th St Ct,Nick & Moe's-Bradenton,,Bradenton,FL,34208,27.4678,-82.512
Pizza Hut,6383 Manatee Ave W,#301,10:00 AM - 12:00 AM,Bradenton,FL,34209,27.4759,-82.6167
Pizza Hut,729 W Lumsden Rd,#14,10:00 AM - 12:00 AM,Brandon,FL,33511,27.9056,-82.2881
Pizza Hut,7191 Broad Street,,11:00 AM - 10:00 PM,Brooksville,FL,34601,28.5658,-82.3737
Pizza Hut,421 N. West Street,,11:00 AM - 11:00 PM,Bushnell,FL,33513,28.6611,-82.1553
Pizza Hut,542168 US Hwy 1,,10:00 AM - 12:00 AM,Callahan,FL,32011,30.552,-81.8145
Pizza Hut,744 Hwy. 29 North,,10:00 AM - 10:00 PM,Cantonment,FL,32533,30.6143,-87.3251
Pizza Hut,1751 NE Pine Island Rd,Suite F1,10:00 AM - 11:00 PM,Cape Coral,FL,33909,26.6939,-81.9452
Pizza Hut Express,1850 Pine Island Rd. NE,,,Cape Coral,FL,33909,26.6939,-81.9452
Pizza Hut,2311 Santa Barbara Blvd,Suite 110,10:00 AM - 12:00 AM,Cape Coral,FL,33991,26.6281,-82.0182
Pizza Hut,821 Cape Coral Pkwy W,Ste 1,10:00 AM - 11:00 PM,Cape Coral,FL,33914,26.5557,-82.0206
Pizza Hut,130 N Winter Park Dr,,10:30 AM - 11:00 PM,Casselberry,FL,32707,28.6617,-81.3122
Pizza Hut Express,4410 S. U.S. Highway 17/92,,,Casselberry,FL,32707,28.6617,-81.3122
Pizza Hut,1105 N. Young,,11:00 AM - 10:00 PM,Chiefland,FL,32626,29.4832,-82.8809
Pizza Hut,2519 McMullen Booth Rd.,#501,10:00 AM - 11:00 PM,Clearwater,FL,33761,28.031,-82.7239
Pizza Hut,407 S. Belcher Rd.,#4,10:00 AM - 10:00 PM,Clearwater,FL,33765,27.9902,-82.7433
Pizza Hut,5020 E Bay Dr,Ste 400,10:00 AM - 12:00 AM,Clearwater,FL,33764,27.916,-82.7343
Pizza Hut Express,1201 Gulf Blvd.,Clearwater Beach Marriott Suites Hotel On Sand Key,,Clearwater Beach,FL,33767,27.9598,-82.8286
Pizza Hut,13900 County Road 455,#104,10:30 AM - 11:00 PM,Clermont,FL,34711,28.5525,-81.7574
Pizza Hut Express,1525 US-27,Clermont Circle K,,Clermont,FL,34711,28.5525,-81.7574
Pizza Hut Express,2660 East Highway 50,,,Clermont,FL,34711,28.5525,-81.7574
Pizza Hut,750 E Highway 50,,10:30 AM - 11:00 PM,Clermont,FL,34711,28.5525,-81.7574
Pizza Hut,710 West Ave,,11:00 AM - 11:00 PM,Cocoa,FL,32927,28.4566,-80.7978
Pizza Hut,179 E Cocoa Beach Causeway,,11:00 AM - 11:00 PM,Cocoa Beach,FL,32931,28.3325,-80.6121
Pizza Hut Express,4400 N. State Road 7,,,Coral Springs,FL,33065,26.2729,-80.2603
Pizza Hut,7808 Wiles Rd,,11:00 AM - 12:00 AM,Coral Springs,FL,33067,26.3033,-80.2415
Pizza Hut Express,9600 Westview Dr.,,,Coral Springs,FL,33076,26.3168,-80.2753
Pizza Hut,2650 Crawfordville Hwy,,10:00 AM - 10:00 PM,Crawfordville,FL,32327,30.2108,-84.3205
Pizza Hut,2221 South Ferdon Blvd.,#2227,11:00 AM - 10:30 PM,Crestview,FL,32536,30.7644,-86.5917
Pizza Hut,12540 US Hwy 301,,10:00 AM - 11:00 PM,Dade City,FL,33525,28.3318,-82.2446
Pizza Hut,314 E Dania Beach Blvd,,11:00 AM - 12:00 AM,Dania,FL,33004,26.0476,-80.1447
Pizza Hut Express,5000 Grandview Parkway,,,Davenport,FL,33837,28.1963,-81.6079
Pizza Hut,11316 State Rd,#84,11:00 AM - 12:00 AM,Davie,FL,33325,26.1097,-80.3215
Pizza Hut,2901 S University Dr,,11:00 AM - 12:00 AM,Davie,FL,33328,26.0671,-80.2723
Pizza Hut Express,5800 S. University Drive,,8:00 AM - 8:00 PM,Davie,FL,33328,26.0671,-80.2723
Pizza Hut,1500 Beville Rd,Ste 102,11:00 AM - 12:00 AM,Daytona Beach,FL,32114,29.2012,-81.0371
Pizza Hut,500 S Atlantic Ave,,11:00 AM - 10:00 PM,Daytona Beach,FL,32118,29.2219,-81.0095
Pizza Hut,832 N. Nova Rd,,11:00 AM - 12:00 AM,Daytona Beach,FL,32117,29.2353,-81.0658
Pizza Hut,1636 W Hillsboro Blvd,,11:00 AM - 12:00 AM,Deerfield Beach,FL,33442,26.3124,-80.1412
Pizza Hut,891 Hwy 331 S.,,10:30 AM - 10:30 PM,Defuniak Springs,FL,32435,30.721,-86.1152
Pizza Hut,115 E New York Ave,,11:00 AM - 12:00 AM,Deland,FL,32724,29.0422,-81.2863
Pizza Hut,1403 N Woodland Blvd,,11:00 AM - 10:00 PM,Deland,FL,32720,29.0266,-81.3349
Pizza Hut,1894 Providence Blvd,,11:00 AM - 12:00 AM,Deltona,FL,32725,28.8989,-81.2473
Pizza Hut,605 Courtland Blvd,Ste 103A,11:00 AM - 12:00 AM,Deltona,FL,32738,28.9093,-81.1922
Pizza Hut,1027 Hwy 98 East,,2:00 PM - 10:30 PM,Destin,FL,32541,30.3949,-86.4692
Pizza Hut Express,4000 Sandestin Blvd.S.,Hilton Sandestin Beach Golf Resort & Spa,,Destin,FL,32550,30.385,-86.3473
Pizza Hut,11192 N Williams St,Rainbow Square Spg Ctr,11:00 AM - 10:00 PM,Dunnellon,FL,34432,29.1015,-82.3413
Pizza Hut,5628 Hansel Ave,,10:30 AM - 11:00 PM,Edgewood,FL,32809,28.4637,-81.3948
Pizza Hut,8963 US Highway 301 N,,10:00 AM - 12:00 AM,Ellenton,FL,34219,27.5572,-82.396
Pizza Hut Express,8040 Mediterranean Drive,,,Estero,FL,33928,26.4351,-81.8102
Pizza Hut,16106 US Highway 441,,11:00 AM - 11:00 PM,Eustis,FL,32726,28.855,-81.6789
Pizza Hut,1239 S Federal Hwy,,11:00 AM - 12:00 AM,Fort Lauderdale,FL,33316,26.1042,-80.126
Pizza Hut,1509 E Commercial Blvd,,11:00 AM - 12:00 AM,Fort Lauderdale,FL,33334,26.1845,-80.1344
Pizza Hut Express,3200 North Federal Highway,,,Fort Lauderdale,FL,33306,26.1656,-80.1118
Pizza Hut,3924-26 Davie Blvd,,11:00 AM - 12:00 AM,Fort Lauderdale,FL,33312,26.0968,-80.181
Pizza Hut Express,10000 Gulf Center Drive,,,Fort Myers,FL,33913,26.5228,-81.7065
Pizza Hut,10580 Colonial Blvd.,Ste. 110,10:00 AM - 12:00 AM,Fort Myers,FL,33913,26.5228,-81.7065
Pizza Hut,11591 Gladiolus Dr,,10:00 AM - 12:00 AM,Fort Myers,FL,33908,26.5025,-81.9276
Pizza Hut,11841 Palm Beach Blvd.,Suite 116,10:00 AM - 11:00 PM,Fort Myers,FL,33905,26.6693,-81.7605
Pizza Hut Express,13711 S. Tamiami Trail,,,Fort Myers,FL,33912,26.4972,-81.8246
Pizza Hut Express,15880 San Carlos Blvd.,,,Fort Myers,FL,33908,26.5025,-81.9276
Pizza Hut,16970 Alico Mission Way,Suite 302,10:00 AM - 11:00 PM,Fort Myers,FL,33908,26.5025,-81.9276
Pizza Hut Express,8099 College Pkwy.,Florida Southwestern State College,,Fort Myers,FL,33919,26.5567,-81.9034
Pizza Hut Express,9350 Dynasty Drive,,,Fort Myers,FL,33905,26.6693,-81.7605
Pizza Hut,1439 S. US Highway 1,,10:30 AM - 12:00 AM,Fort Pierce,FL,34950,27.4486,-80.3385
Pizza Hut,141 Miracle Strip Pkwy SW,,11:00 AM - 10:30 PM,Fort Walton Beach,FL,32548,30.4206,-86.6286
Pizza Hut,430A Racetrack Road,,11:00 AM - 10:30 PM,Fort Walton Beach,FL,32547,30.4487,-86.6255
Pizza Hut,1204 N. Main St.,Gainesville Shopping Center,11:00 AM - 12:00 AM,Gainesville,FL,32601,29.6489,-82.325
Pizza Hut,3515 SW Archer Rd,,11:00 AM - 11:00 PM,Gainesville,FL,32608,29.6132,-82.3873
Pizza Hut,5004 NW 34th St,,11:00 AM - 10:00 PM,Gainesville,FL,32605,29.6785,-82.3679
Pizza Hut,7331 NW 4th Blvd,,11:00 AM - 12:00 AM,Gainesville,FL,32607,29.6456,-82.4033
Pizza Hut,1367 N. Orange Ave.,,10:00 AM - 12:00 AM,Green Cove Springs,FL,32043,29.9983,-81.7647
Pizza Hut,6728 Forest Hill Blvd.,,10:00 AM - 12:00 AM,Greenacres,FL,33413,26.6555,-80.1596
Pizza Hut,14405 Montevista Rd,,10:30 AM - 11:00 PM,Groveland,FL,34736,28.5644,-81.8745
Pizza Hut,1169 Gulf Breeze Parkway,,11:00 AM - 10:30 PM,Gulf Breeze,FL,32561,30.3571,-87.1639
Pizza Hut,127 W Hinson Ave,,10:00 AM - 11:00 PM,Haines City,FL,33844,28.1145,-81.6201
Pizza Hut,718 N Federal Hwy,,11:00 AM - 12:00 AM,Hallandale,FL,33009,25.985,-80.1407
Pizza Hut,710 US Hwy. 27 South,Ste. A,10:30 AM - 10:30 PM,Havana,FL,32333,30.6092,-84.4143
Pizza Hut,1213 West 44th Place,Suite 15,11:00 AM - 12:00 AM,Hialeah,FL,33012,25.8654,-80.3059
Pizza Hut,1665 West 68th St,Suite 104,11:00 AM - 12:00 AM,Hialeah,FL,33014,25.8963,-80.3063
Pizza Hut Express,1750 W 37th St.,,,Hialeah,FL,33012,25.8654,-80.3059
Pizza Hut,1801 E 4thg Ave,,11:00 AM - 12:00 AM,Hialeah,FL,33010,25.8325,-80.2808
Pizza Hut,18510 NW 67th Ave.,,11:00 AM - 12:00 AM,Hialeah,FL,33015,25.9388,-80.3165
Pizza Hut,2750 W 68th St,Ste 104,11:00 AM - 12:00 AM,Hialeah,FL,33016,25.8803,-80.3368
Pizza Hut,3901 E 4th Ave,,11:00 AM - 12:00 AM,Hialeah,FL,33013,25.8594,-80.2725
Pizza Hut,4506 Hollywood Blvd,,11:00 AM - 12:00 AM,Hollywood,FL,33021,26.0218,-80.1891
Pizza Hut,25 N Homestead Blvd,,11:00 AM - 12:00 AM,Homestead,FL,33030,25.4766,-80.4839
Pizza Hut,3324 NE 7th Street,,11:00 AM - 12:00 AM,Homestead,FL,33033,25.4906,-80.438
Pizza Hut,501 W Palm Dr,Ste 103,11:00 AM - 12:00 AM,Homestead,FL,33034,25.2846,-80.6246
Pizza Hut,4845 Suncoast Blvd,,11:00 AM - 10:00 PM,Homosassa Springs,FL,34447,28.8049,-82.5743
Pizza Hut,8944 Sr 52,#109,10:00 AM - 12:00 AM,Hudson,FL,34667,28.3648,-82.6757
Pizza Hut,940 W Main St,,11:00 AM - 10:00 PM,Inverness,FL,34450,28.834,-82.2822
Pizza Hut,1020 N. Edgewood Ave. N,Suite 17,10:00 AM - 12:00 AM,Jacksonville,FL,32254,30.3415,-81.7358
Pizza Hut,11018 Old Saint Augustine Rd,#141,10:00 AM - 12:00 AM,Jacksonville,FL,32257,30.1927,-81.605
Pizza Hut,11233 Beach Blvd.,#20,10:00 AM - 12:00 AM,Jacksonville,FL,32246,30.2933,-81.5092
Pizza Hut Express,11567 Atlantic Blvd.,#1164 Atlantic North Center,,Jacksonville,FL,32225,30.351,-81.5061
Pizza Hut,12515 Philips Hwy.,Suite 112,10:00 AM - 12:00 AM,Jacksonville,FL,32256,30.2214,-81.5571
Pizza Hut,12961 N. Main Street,#301,10:00 AM - 12:00 AM,Jacksonville,FL,32218,30.4507,-81.6626
Pizza Hut Express,13740 Beach Blvd,,,Jacksonville,FL,32224,30.3031,-81.4404
Pizza Hut,13799 Beach Blvd.,Unit 008C,10:00 AM - 12:00 AM,Jacksonville,FL,32224,30.3031,-81.4404
Pizza Hut,1630 San Marco Blvd,#32,10:00 AM - 12:00 AM,Jacksonville,FL,32207,30.2908,-81.6321
Pizza Hut,2771 Monument Rd,Suite 13,10:00 AM - 12:00 AM,Jacksonville,FL,32225,30.351,-81.5061
Pizza Hut,3035 Dunn Ave,#1,10:00 AM - 12:00 AM,Jacksonville,FL,32218,30.4507,-81.6626
Pizza Hut Express,4535 Southside Blvd,Tinseltown Usa #260,,Jacksonville,FL,32246,30.2933,-81.5092
Pizza Hut Express,4567 River City Drive,,,Jacksonville,FL,32246,30.2933,-81.5092
Pizza Hut,5615 San Jose Blvd.,#2,10:00 AM - 12:00 AM,Jacksonville,FL,32207,30.2908,-81.6321
Pizza Hut,5751 Main St North,#106,10:00 AM - 12:00 AM,Jacksonville,FL,32208,30.3937,-81.6889
Pizza Hut,5844 Atlantic Blvd,,10:00 AM - 12:00 AM,Jacksonville,FL,32207,30.2908,-81.6321
Pizza Hut,6140 Merrill Rd,,10:00 AM - 12:00 AM,Jacksonville,FL,32277,30.3704,-81.5864
Pizza Hut,6733 103rd Street,Suite 20,10:00 AM - 12:00 AM,Jacksonville,FL,32210,30.2687,-81.7473
Pizza Hut,7939 Normandy Blvd,,10:00 AM - 12:00 AM,Jacksonville,FL,32221,30.2837,-81.8202
Pizza Hut,8102 Blanding Blvd,Ste 25,10:00 AM - 12:00 AM,Jacksonville,FL,32244,30.2231,-81.7556
Pizza Hut,8221 Southside Blvd.,Deerwood Station Plz,10:00 AM - 12:00 AM,Jacksonville,FL,32256,30.2214,-81.5571
Pizza Hut,940 Cassat Ave,,10:00 AM - 12:00 AM,Jacksonville,FL,32205,30.3172,-81.722
Pizza Hut,9501 Crosshill Blvd.,#102,10:00 AM - 12:00 AM,Jacksonville,FL,32222,30.2292,-81.8131
Pizza Hut Express,9525 Crosshill Blvd,,,Jacksonville,FL,32222,30.2292,-81.8131
Pizza Hut,1230 3rd St South,,10:00 AM - 12:00 AM,Jacksonville Beach,FL,32250,30.2801,-81.4165
Pizza Hut,901 Indiantown Rd,,10:30 AM - 11:00 PM,Jupiter,FL,33458,26.9339,-80.1201
Pizza Hut,3026 N Roosevelt Blvd,,11:00 AM - 12:00 AM,Key West,FL,33040,24.5552,-81.7816
Pizza Hut,1022 Buena Ventura Blvd,,10:30 AM - 11:00 PM,Kissimmee,FL,34743,28.3306,-81.3544
Pizza Hut,1313 E Vine St,,10:30 AM - 11:00 PM,Kissimmee,FL,34744,28.3078,-81.3681
Pizza Hut Express,1800 Denn John Ln.,Valencia College Osceola Campus Bldg 4,,Kissimmee,FL,34744,28.3078,-81.3681
Pizza Hut Express,3011 Maingate Lane,Park Inn,,Kissimmee,FL,34747,28.3037,-81.5898
Pizza Hut Express,3200 Rolling Oaks Blvd.,,,Kissimmee,FL,34747,28.3037,-81.5898
Pizza Hut,3311 S. Orange Blossom Trail,,10:30 AM - 12:00 AM,Kissimmee,FL,34746,28.268,-81.4675
Pizza Hut Express,4795 W. Irlo Bronson Memorial Highway,,,Kissimmee,FL,34746,28.268,-81.4675
Pizza Hut,4975 W Irlo Bronson Memorial Hwy.,,10:30 AM - 12:00 AM,Kissimmee,FL,34746,28.268,-81.4675
Pizza Hut,5740 W Irlo Bronson Memorial Hwy.,,10:30 AM - 11:00 PM,Kissimmee,FL,34746,28.268,-81.4675
Pizza Hut,7557 Osceola Polk Line Rd.,,10:30 AM - 11:00 PM,Kissimmee,FL,34747,28.3037,-81.5898
Pizza Hut,8557 W Irlo Bronson Hwy,,10:30 AM - 12:00 AM,Kissimmee,FL,34747,28.3037,-81.5898
Pizza Hut,898 Cypress Pkwy,,10:30 AM - 11:00 PM,Kissimmee,FL,34759,28.0946,-81.499
Pizza Hut,505 W. Hickpoochee Ave.,Ste. 600,10:00 AM - 11:00 PM,Labelle,FL,33935,26.7321,-81.434
Pizza Hut Express,716 N. U.S. Highway 441,,,Lady Lake,FL,32159,28.9299,-81.9256
Pizza Hut,507 S. Marion St.,Chevron,11:00 AM - 10:00 PM,Lake City,FL,32025,30.1601,-82.6396
Pizza Hut,3005 W Lake Mary Blvd.,#107,11:00 AM - 11:00 PM,Lake Mary,FL,32746,28.7577,-81.3508
Pizza Hut,120 Plaza Ave,,10:00 AM - 11:00 PM,Lake Placid,FL,33852,27.2945,-81.3649
Pizza Hut,190 State Road 60 E,,10:00 AM - 10:00 PM,Lake Wales,FL,33853,27.9002,-81.5847
Pizza Hut,2800 S Congress Ave,,10:00 AM - 12:00 AM,Lake Worth,FL,33461,26.6232,-80.0946
Pizza Hut,3897 Jog Rd Bay 66,,10:00 AM - 12:00 AM,Lake Worth,FL,33467,26.6104,-80.1683
Pizza Hut Express,5900 State Rd 7,,,Lake Worth,FL,33467,26.6104,-80.1683
Pizza Hut,1362 Ariana St,,10:00 AM - 12:00 AM,Lakeland,FL,33803,28.014,-81.9523
Pizza Hut,2116 E Hwy 540-A,,10:00 AM - 11:00 PM,Lakeland,FL,33813,27.9611,-81.9398
Pizza Hut,3111 US-98,#116,10:00 AM - 12:00 AM,Lakeland,FL,33803,28.014,-81.9523
Pizza Hut Express,3800 US Hwy 98 N Suite 910,Cinemark Lakeland Square Mall 12 #1078,,Lakeland,FL,33809,28.1762,-81.9591
Pizza Hut Express,4005 Highway 98 North,,,Lakeland,FL,33809,28.1762,-81.9591
Pizza Hut Express,4410 Kathleen Rd,Nick & Moe's-Lakeland,,Lakeland,FL,33810,28.1479,-82.0372
Pizza Hut,6858 S Florida Ave,,10:00 AM - 11:00 PM,Lakeland,FL,33813,27.9611,-81.9398
Pizza Hut,7395 US-98,,10:00 AM - 11:00 PM,Lakeland,FL,33809,28.1762,-81.9591
Pizza Hut,6170 Congress Ave,,10:00 AM - 12:00 AM,Lantana,FL,33462,26.5747,-80.0794
Pizza Hut,13789 Walsingham Rd,,11:00 AM - 9:00 PM,Largo,FL,33774,27.8839,-82.8265
Pizza Hut,1602 N. Missouri Ave.,,10:00 AM - 11:00 PM,Largo,FL,33770,27.917,-82.8027
Pizza Hut,2432 N State Road 7,,11:00 AM - 12:00 AM,Lauderdale Lakes,FL,33311,26.1421,-80.1728
Pizza Hut,1007 N 14th St,,11:00 AM - 10:00 PM,Leesburg,FL,34748,28.808,-81.8858
Pizza Hut,8425 US Hwy 441,#102,11:00 AM - 11:00 PM,Leesburg,FL,34788,28.8887,-81.7827
Pizza Hut,27 Homestead Rd N,Ste 27,10:00 AM - 12:00 AM,Lehigh Acres,FL,33936,26.5936,-81.6619
Pizza Hut,16224 Bayberry Glen Dr,,10:00 AM - 10:00 PM,Lithia,FL,33547,27.8293,-82.1357
Pizza Hut,625 S. Ohio Ave.,,10:30 AM - 10:30 PM,Live Oak,FL,32060,30.1759,-83.0304
Pizza Hut,241 N Hunt Club Blvd,Ste 141,10:30 AM - 11:00 PM,Longwood,FL,32779,28.7168,-81.4126
Pizza Hut Express,1040 Dale Mabry Hwy,,,Lutz,FL,33548,28.1385,-82.4821
Pizza Hut,17420 N. Highway 41,,11:00 AM - 11:00 PM,Lutz,FL,33549,28.1367,-82.461
Pizza Hut,23118 State Road 54,,10:00 AM - 11:00 PM,Lutz,FL,33549,28.1367,-82.461
Pizza Hut,1812 S. Hwy. 77,Suite 103,10:30 AM - 11:00 PM,Lynn Haven,FL,32444,30.2362,-85.6467
Pizza Hut,1202 S 6th St,,11:00 AM - 10:00 PM,MacClenny,FL,32063,30.2737,-82.1325
Pizza Hut,3111 N State Road 7,,11:00 AM - 12:00 AM,Margate,FL,33063,26.2674,-80.2092
Pizza Hut Express,2112 Highway 71 South,Travel Centers Of America,,Marianna,FL,32448,30.6749,-85.2122
Pizza Hut,2185 Post Oak Ln,,10:30 AM - 10:30 PM,Marianna,FL,32448,30.6749,-85.2122
Pizza Hut Express,250 E Miracle Strip Pkwy,,,Mary Esther,FL,32569,30.4085,-86.7352
Pizza Hut,231 W. Hibiscus Blvd.,,11:00 AM - 11:00 PM,Melbourne,FL,32901,28.0691,-80.62
Pizza Hut,3214 Lake Washington Rd,,11:00 AM - 11:00 PM,Melbourne,FL,32934,28.1331,-80.7112
Pizza Hut,7840 N. Wickham Rd.,,11:00 AM - 11:00 PM,Melbourne,FL,32940,28.2061,-80.685
Pizza Hut Express,8455 N. Wickham Road,,,Melbourne,FL,32940,28.2061,-80.685
Pizza Hut,125 E Merritt Island Cswy,Ste 111,11:00 AM - 11:00 PM,Merritt Island,FL,32952,28.2764,-80.6568
Pizza Hut Express,250 Crockett Blvd.,,,Merritt Island,FL,32953,28.3888,-80.7301
Pizza Hut Express,10101 W. Flager Street,,,Miami,FL,33174,25.7628,-80.3611
Pizza Hut,10379 NW 41st St,,11:00 AM - 11:00 PM,Miami,FL,33178,25.8141,-80.3549
Pizza Hut,10691 SW 40th St,,11:00 AM - 12:00 AM,Miami,FL,33165,25.7343,-80.3588
Pizza Hut,11327 W Flagler St,,11:00 AM - 12:00 AM,Miami,FL,33174,25.7628,-80.3611
Pizza Hut,12733 SW 42nd St,,11:00 AM - 12:00 AM,Miami,FL,33175,25.7341,-80.4068
Pizza Hut Express,1350 NW 87th Ave,,,Miami,FL,33122,25.8001,-80.281
Pizza Hut,13715 17 NW 7 Ave,,11:00 AM - 12:00 AM,Miami,FL,33168,25.8902,-80.2101
Pizza Hut,13870 SW 8th St,,11:00 AM - 12:00 AM,Miami,FL,33184,25.7574,-80.403
Pizza Hut,14607 SW 104th Street,,11:00 AM - 12:00 AM,Miami,FL,33186,25.6694,-80.4085
Pizza Hut Express,15005 SW 88th St.,,,Miami,FL,33196,25.6615,-80.441
Pizza Hut,15065 S Dixie Hwy,,11:00 AM - 12:00 AM,Miami,FL,33176,25.6574,-80.3627
Pizza Hut,1529 SW 8th St,,11:00 AM - 12:00 AM,Miami,FL,33135,25.7664,-80.2317
Pizza Hut,17624 SW 137th Ave,,11:00 AM - 12:00 AM,Miami,FL,33177,25.5968,-80.4046
Pizza Hut,18857 SW 117th Ave,,11:00 AM - 12:00 AM,Miami,FL,33177,25.5968,-80.4046
Pizza Hut,19151 S Dixie Hwy,#106 & 107,11:00 AM - 12:00 AM,Miami,FL,33157,25.6062,-80.3426
Pizza Hut,19960 NW 2nd Ave,,11:00 AM - 10:00 PM,Miami,FL,33169,25.9441,-80.2144
Pizza Hut Express,2100 N.W. 42nd Avenue,Miami International Airport,,Miami,FL,33142,25.813,-80.232
Pizza Hut Express,2100 NW 42nd Ave.,Terminal E,,Miami,FL,33142,25.813,-80.232
Pizza Hut,2101 NW 17th Ave,,11:00 AM - 12:00 AM,Miami,FL,33142,25.813,-80.232
Pizza Hut,28640 S Dixie Hwy,,11:00 AM - 12:00 AM,Miami,FL,33033,25.4906,-80.438
Pizza Hut,3214 NE 2nd Ave,,11:00 AM - 11:00 PM,Miami,FL,33137,25.8156,-80.1897
Pizza Hut,3396 Coral Way,,11:00 AM - 12:00 AM,Miami,FL,33145,25.7539,-80.2253
Pizza Hut,3830 SW 8th St,,11:00 AM - 12:00 AM,Miami,FL,33134,25.768,-80.2714
Pizza Hut,5731 NW 36th St,,11:00 AM - 10:00 PM,Miami,FL,33166,25.8301,-80.2926
Pizza Hut,6500 SW 8th St,,11:00 AM - 12:00 AM,Miami,FL,33144,25.7626,-80.3096
Pizza Hut,6625 S Dixie Hwy,,11:00 AM - 11:00 PM,Miami,FL,33143,25.7022,-80.2978
Pizza Hut,7333 SW 152nd Ave,,11:00 AM - 12:00 AM,Miami,FL,33193,25.6964,-80.4401
Pizza Hut Express,7795 SW 40th St,,,Miami,FL,33155,25.7392,-80.3103
Pizza Hut Express,7800 SW 104th Street,,,Miami,FL,33156,25.6682,-80.2973
Pizza Hut Express,8350 S. Dixie Highway,,,Miami,FL,33143,25.7022,-80.2978
Pizza Hut Express,8363 W Flagler Street,Ktpx,,Miami,FL,33144,25.7626,-80.3096
Pizza Hut,9578 SW 137th Ave,,11:00 AM - 12:00 AM,Miami,FL,33186,25.6694,-80.4085
Pizza Hut,9600 SW 8th St,#23A,11:00 AM - 12:00 AM,Miami,FL,33174,25.7628,-80.3611
Pizza Hut,9672 Sunset Dr,,11:00 AM - 12:00 AM,Miami,FL,33173,25.6992,-80.3618
Pizza Hut,6602 Collins Ave,,11:00 AM - 9:00 PM,Miami Beach,FL,33141,25.8486,-80.1446
Pizza Hut,3477 NW 183rd St,,11:00 AM - 12:00 AM,Miami Gardens,FL,33056,25.942,-80.2456
Pizza Hut Express,5601 N.W. 183rd Street,,,Miami Gardens,FL,33055,25.9476,-80.2778
Pizza Hut Express,5705 NW 163rd Street,,,Miami Lakes,FL,33014,25.8963,-80.3063
Pizza Hut,8900 Biscayne Blvd,,11:00 AM - 10:00 PM,Miami Shores,FL,33138,25.8521,-80.1821
Pizza Hut,2475 Blanding Blvd,Ste 5,10:00 AM - 12:00 AM,Middleburg,FL,32068,30.084,-81.8645
Pizza Hut,5149 Dogwood,,11:00 AM - 10:30 PM,Milton,FL,32570,30.6604,-87.0473
Pizza Hut,6845 Miramar Parkway,,11:00 AM - 12:00 AM,Miramar,FL,33023,25.9894,-80.2153
Pizza Hut,50 Holiday N Road,,2:00 PM - 10:30 PM,Miramar Beach,FL,32550,30.385,-86.3473
Pizza Hut,1244 South Jefferson St.,,10:30 AM - 10:00 PM,Monticello,FL,32344,30.5197,-83.8925
Pizza Hut,18930 US Highway 441,,11:00 AM - 11:00 PM,Mount Dora,FL,32757,28.774,-81.6439
Pizza Hut,12695 Tamiami Trail East,,10:00 AM - 12:00 AM,Naples,FL,34113,26.0426,-81.7182
Pizza Hut Express,2415 Tarpon Bay Blvd.,,,Naples,FL,34119,26.2665,-81.7146
Pizza Hut,4971 Golden Gate Pkwy,,10:00 AM - 12:00 AM,Naples,FL,34116,26.1873,-81.711
Pizza Hut,26013 S Dixie Hwy,,11:00 AM - 12:00 AM,Naranja,FL,33032,25.5303,-80.3918
Pizza Hut,8692 Navarre Pkwy,,11:00 AM - 10:30 PM,Navarre,FL,32566,30.4212,-86.8926
Pizza Hut,7213 County Road 54,,10:00 AM - 12:00 AM,New Port Richey,FL,34653,28.2444,-82.6986
Pizza Hut,1616 S Dixie Fwy,,11:00 AM - 11:00 PM,New Smyrna Beach,FL,32168,29.0247,-80.9584
Pizza Hut,1017 John Sims Parkway E,,11:00 AM - 10:30 PM,Niceville,FL,32578,30.5169,-86.4822
Pizza Hut,1401 S State Rd 7,#106,11:00 AM - 12:00 AM,North Lauderdale,FL,33068,26.216,-80.2205
Pizza Hut,12699 NE 6th Ave,,11:00 AM - 12:00 AM,North Miami,FL,33161,25.8934,-80.1758
Pizza Hut Express,14075 Biscayne Blvd.,,,North Miami Beach,FL,33181,25.8965,-80.157
Pizza Hut,1930 NE 163rd St,,11:00 AM - 12:00 AM,North Miami Beach,FL,33162,25.9286,-80.183
Pizza Hut,1181 W. Price Blvd.,,10:00 AM - 11:00 PM,North Port,FL,34288,27.0498,-82.1288
Pizza Hut,14942 Tamiami Trail,Ste M,10:00 AM - 12:00 AM,North Port,FL,34287,27.0478,-82.2416
Pizza Hut,1316 E Silver Springs Blvd,,11:00 AM - 11:00 PM,Ocala,FL,34470,29.1989,-82.0874
Pizza Hut,166 Marion Oaks Blvd.,,11:00 AM - 11:00 PM,Ocala,FL,34473,29.0058,-82.1828
Pizza Hut Express,2000 SW College Road.,,,Ocala,FL,34474,29.1565,-82.2095
Pizza Hut,2377 SW College Rd.,,11:00 AM - 11:00 PM,Ocala,FL,34471,29.1605,-82.1288
Pizza Hut,2785 NW 49th Avenue,#16,11:00 AM - 11:00 PM,Ocala,FL,34475,29.2573,-82.161
Pizza Hut,8449 SW State Road 200,#133,11:00 AM - 11:00 PM,Ocala,FL,34481,29.1281,-82.2975
Pizza Hut,9264 SE Maricamp Rd,,11:00 AM - 11:00 PM,Ocala,FL,34472,29.1253,-82.0086
Pizza Hut,10880 W. Colonial Drive,,10:30 AM - 12:00 AM,Ocoee,FL,34761,28.5837,-81.5326
Pizza Hut,323 West Road,,10:30 AM - 11:00 PM,Ocoee,FL,34761,28.5837,-81.5326
Pizza Hut,16210 State Road 54,# E200,10:00 AM - 12:00 AM,Odessa,FL,33556,28.1421,-82.5905
Pizza Hut,2795 Highway 441 S,,10:30 AM - 11:00 PM,Okeechobee,FL,34974,27.2002,-80.841
Pizza Hut,4837 NW 183rd St,,11:00 AM - 10:00 PM,Opa Locka,FL,33055,25.9476,-80.2778
Pizza Hut,917 Saxon Blvd,,11:00 AM - 12:00 AM,Orange City,FL,32763,28.9453,-81.2995
Pizza Hut,2285 Kingsley Ave,Ste F,10:00 AM - 12:00 AM,Orange Park,FL,32073,30.1637,-81.7291
Pizza Hut,5000 US Hwy 17 South,#10,10:00 AM - 12:00 AM,Orange Park,FL,32003,30.0933,-81.719
Pizza Hut,868 Blanding Blvd.,#135,10:00 AM - 12:00 AM,Orange Park,FL,32065,30.1382,-81.7742
Pizza Hut,10002 University Blvd,,10:30 AM - 11:00 PM,Orlando,FL,32817,28.5891,-81.2277
Pizza Hut,1001 N Semoran Blvd,,10:30 AM - 11:00 PM,Orlando,FL,32807,28.5515,-81.3051
Pizza Hut,10395 Narcoossee Rd.,#200,10:30 AM - 11:00 PM,Orlando,FL,32827,28.4317,-81.343
Pizza Hut Express,120 W. Grant Street,,,Orlando,FL,32806,28.514,-81.357
Pizza Hut,12195 S Apopka Vineland Rd,,10:30 AM - 11:00 PM,Orlando,FL,32836,28.4115,-81.525
Pizza Hut,16873 E. Colonial Dr.,,10:30 AM - 11:00 PM,Orlando,FL,32820,28.5725,-81.1219
Pizza Hut Express,1800 South Kirkman Road,Valencia College West Campus Bldg 2,,Orlando,FL,32811,28.5163,-81.4516
Pizza Hut,2153 Americana Blvd,,10:30 AM - 11:00 PM,Orlando,FL,32839,28.4871,-81.4082
Pizza Hut,2426 S Kirkman Rd,,10:30 AM - 11:00 PM,Orlando,FL,32811,28.5163,-81.4516
Pizza Hut,2702 N Pine Hills Rd,,10:30 AM - 12:00 AM,Orlando,FL,32808,28.5803,-81.4396
Pizza Hut Express,325 North Alafaya Trail,,,Orlando,FL,32828,28.5523,-81.1795
Pizza Hut,3662 Avalon Park East Blvd,#102,10:30 AM - 11:00 PM,Orlando,FL,32828,28.5523,-81.1795
Pizza Hut,3908 Town Center Blvd,,10:30 AM - 11:00 PM,Orlando,FL,32837,28.3949,-81.4179
Pizza Hut,4343 Edgewater Drive,#900,10:30 AM - 11:00 PM,Orlando,FL,32804,28.5754,-81.3955
Pizza Hut,4432 Curry Ford Rd,,10:30 AM - 11:00 PM,Orlando,FL,32812,28.4998,-81.3288
Pizza Hut Express,4750 Millenia Plaza Way,,,Orlando,FL,32839,28.4871,-81.4082
Pizza Hut Express,5150 International Drive,Cinemark Artegon Marketplace And Xd #284,,Orlando,FL,32819,28.4522,-81.4678
Pizza Hut,563 Chickasaw Trail,,10:30 AM - 12:00 AM,Orlando,FL,32825,28.5469,-81.2571
Pizza Hut,655 W Church St,Orlando City Stadium,,Orlando,FL,32805,28.5302,-81.4045
Pizza Hut,6607 W Colonial Dr,,10:30 AM - 11:00 PM,Orlando,FL,32818,28.5801,-81.4846
Pizza Hut Express,701 N Econlockhatchee Trl,Valencia College East Campus Bldg 5,,Orlando,FL,32825,28.5469,-81.2571
Pizza Hut,7060 International Dr,,10:30 AM - 12:00 AM,Orlando,FL,32819,28.4522,-81.4678
Pizza Hut,7536 Dr Phillips Blvd.,#340,10:30 AM - 11:00 PM,Orlando,FL,32819,28.4522,-81.4678
Pizza Hut Express,8112 Poinciana Blvd.,Lake Buena Vista Resort & Spa,,Orlando,FL,32837,28.3949,-81.4179
Pizza Hut,8255 Lee Vista Blvd.,Ste B,10:30 AM - 11:00 PM,Orlando,FL,32822,28.4944,-81.2902
Pizza Hut,879 N Alafaya Trl,,10:30 AM - 12:00 AM,Orlando,FL,32828,28.5523,-81.1795
Pizza Hut Express,880 Sand Lake Road,Target - T0650,,Orlando,FL,32809,28.4637,-81.3948
Pizza Hut,9100 International Dr,,10:30 AM - 12:00 AM,Orlando,FL,32819,28.4522,-81.4678
Pizza Hut,432 S Atlantic Ave.,,11:00 AM - 11:00 PM,Ormond Beach,FL,32176,29.3222,-81.0584
Pizza Hut,1875 West County Rd 419,#100,10:30 AM - 11:00 PM,Oviedo,FL,32765,28.6513,-81.2066
Pizza Hut Express,820 Oviedo Marketplace Blvd.,,,Oviedo,FL,32765,28.6513,-81.2066
Pizza Hut,4241 Hwy. 90,,10:30 AM - 11:00 PM,Pace,FL,32571,30.6698,-87.1794
Pizza Hut Express,4727 Highway 90,,,Pace,FL,32571,30.6698,-87.1794
Pizza Hut,805 S State Road 19,,11:00 AM - 10:00 PM,Palatka,FL,32177,29.6577,-81.6595
Pizza Hut,1840 Eldron Blvd. S.E. B7,,11:00 AM - 11:00 PM,Palm Bay,FL,32909,27.9694,-80.6473
Pizza Hut,4850 Babcock St NE,,11:00 AM - 11:00 PM,Palm Bay,FL,32905,28.0313,-80.5995
Pizza Hut,868 Jupiter Blvd NW.,#3&4,11:00 AM - 11:00 PM,Palm Bay,FL,32907,28.0168,-80.6739
Pizza Hut Express,3160 Northlake Blvd.,,,Palm Beach Gardens,FL,33403,26.8035,-80.0756
Pizza Hut,4260 Northlake Blvd,,10:00 AM - 11:00 PM,Palm Beach Gardens,FL,33410,26.8234,-80.1387
Pizza Hut,1475 Palm Coast Pky NW,Suite 110,10:00 AM - 11:00 PM,Palm Coast,FL,32137,29.5565,-81.219
Pizza Hut Express,5100 East Highway 100,,,Palm Coast,FL,32164,29.4861,-81.2045
Pizza Hut,5290 E Hwy 100,Unit #103,10:00 AM - 12:00 AM,Palm Coast,FL,32164,29.4861,-81.2045
Pizza Hut,1190 W 8th Ave.,,10:00 AM - 11:00 PM,Palmetto,FL,34221,27.5429,-82.563
Pizza Hut,221 W 23rd St,,10:30 AM - 11:30 PM,Panama City,FL,32405,30.1949,-85.6727
Pizza Hut,4129 Cherry St,,10:30 AM - 11:00 PM,Panama City,FL,32404,30.1653,-85.5763
Pizza Hut Express,15555 Starfish Dr,,,Panama City Beach,FL,32413,30.3105,-85.9106
Pizza Hut,17292 Front Beach Rd,,10:30 AM - 10:30 PM,Panama City Beach,FL,32413,30.3105,-85.9106
Pizza Hut,8776 Thomas Dr.,Ste 1,,Panama City Beach,FL,32408,30.1655,-85.7116
Pizza Hut Express,11253 Pines Blvd.,,,Pembroke Pines,FL,33026,26.0229,-80.2974
Pizza Hut,12113 Pembroke Rd,,11:00 AM - 12:00 AM,Pembroke Pines,FL,33025,25.9921,-80.2712
Pizza Hut,1641 North Hiatus Road,,11:00 AM - 12:00 AM,Pembroke Pines,FL,33026,26.0229,-80.2974
Pizza Hut,18469 Pines Blvd,,11:00 AM - 12:00 AM,Pembroke Pines,FL,33029,25.9924,-80.4089
Pizza Hut,2040 N University Dr,,11:00 AM - 12:00 AM,Pembroke Pines,FL,33024,26.0296,-80.2489
Pizza Hut,120 Entrance Rd.,Ste. 2,10:00 AM - 10:00 PM,Pensacola,FL,32507,30.3737,-87.3126
Pizza Hut,13609 Innerarity Point Rd.,,10:00 AM - 10:00 PM,Pensacola,FL,32507,30.3737,-87.3126
Pizza Hut Express,2950 South Blue Angel Parkway,,,Pensacola,FL,32507,30.3737,-87.3126
Pizza Hut,312 E Nine Mile Rd,Ste 8,10:00 AM - 11:00 PM,Pensacola,FL,32534,30.5301,-87.2793
Pizza Hut,3888 N 9th Ave,,10:00 AM - 11:00 PM,Pensacola,FL,32503,30.4564,-87.2104
Pizza Hut,3900 Creighton Rd.,Unit C,10:30 AM - 11:00 PM,Pensacola,FL,32504,30.4873,-87.1872
Pizza Hut,4522 Saufley Field Rd,,10:00 AM - 11:00 PM,Pensacola,FL,32526,30.4756,-87.3179
Pizza Hut,5960 Pensacola Blvd,,10:00 AM - 10:00 PM,Pensacola,FL,32505,30.4481,-87.2589
Pizza Hut,8708 Beulah Rd,,10:00 AM - 11:00 PM,Pensacola,FL,32526,30.4756,-87.3179
Pizza Hut,2199 S Byron Butler Pkwy,,10:30 AM - 10:00 PM,Perry,FL,32347,30.1668,-83.616
Pizza Hut,8070 49th St Units 2&3,,10:00 AM - 11:00 PM,Pinellas Park,FL,33781,27.8387,-82.7151
Pizza Hut,2316 James Redman Pkwy,,10:00 AM - 11:00 PM,Plant City,FL,33563,28.013,-82.1339
Pizza Hut,1622 E Sample Rd,,11:00 AM - 12:00 AM,Pompano Beach,FL,33064,26.2785,-80.1157
Pizza Hut Express,357 W. Atlantic Blvd,,,Pompano Beach,FL,33060,26.2315,-80.1235
Pizza Hut Express,Mile Post 65,Pompano Beach Service Plaza,,Pompano Beach,FL,33068,26.216,-80.2205
Pizza Hut,3068 Tamiami Trl,,10:00 AM - 11:00 PM,Port Charlotte,FL,33952,26.9905,-82.0964
Pizza Hut,925 Kings Hwy.,Unit #3,10:00 AM - 12:00 AM,Port Charlotte,FL,33980,26.9298,-82.0454
Pizza Hut Express,1771 Dunlawton Avenue,Target - T1795,,Port Orange,FL,32127,29.1383,-80.9956
Pizza Hut,1781 Dunlawton Ave,Ste 3,11:00 AM - 12:00 AM,Port Orange,FL,32128,29.1383,-80.9956
Pizza Hut,6666 Ridge Rd,,10:00 AM - 12:00 AM,Port Richey,FL,34668,28.3011,-82.6927
Pizza Hut,1014 SE Port St. Lucie Blvd.,#7,10:30 AM - 11:00 PM,Port Saint Lucie,FL,34952,27.2889,-80.298
Pizza Hut,10401 S. US Highway 1,,10:30 AM - 11:00 PM,Port Saint Lucie,FL,34952,27.2889,-80.298
Pizza Hut Express,10720 SW Village Parkway,,,Port Saint Lucie,FL,34987,27.2606,-80.4771
Pizza Hut Express,701 Monument Ave,#232/ Express Lane,,Port St Joe,FL,32456,29.8119,-85.303
Pizza Hut,23244 SW 112th Avenue,,11:00 AM - 12:00 AM,Princeton,FL,33032,25.5303,-80.3918
Pizza Hut,1602 W Jefferson St,,10:30 AM - 10:30 PM,Quincy,FL,32351,30.5867,-84.6094
Pizza Hut Express,10150 Bloomingdale Avenue,,,Riverview,FL,33578,27.8633,-82.3499
Pizza Hut,10171 Big Bend Rd,,10:00 AM - 11:00 PM,Riverview,FL,33578,27.8633,-82.3499
Pizza Hut,10619 Gibsonton Dr,,10:00 AM - 11:00 PM,Riverview,FL,33569,27.845,-82.3125
Pizza Hut,3829 US Hwy. 301 S,,10:00 AM - 11:00 PM,Riverview,FL,33569,27.845,-82.3125
Pizza Hut,1842 Rockledge Blvd,,11:00 AM - 11:00 PM,Rockledge,FL,32955,28.3134,-80.7319
Pizza Hut,11851 Southern Blvd. B,,10:30 AM - 12:00 AM,Royal Palm Beach,FL,33411,26.6644,-80.1741
Pizza Hut,1050 N Ponce De Leon Blvd,,10:00 AM - 12:00 AM,Saint Augustine,FL,32084,29.9175,-81.3668
Pizza Hut,156-316 State Road 312,,10:00 AM - 12:00 AM,Saint Augustine,FL,32086,29.8285,-81.3237
Pizza Hut,52 Tuscan Way,Suite 208,10:00 AM - 12:00 AM,Saint Augustine,FL,32092,29.9475,-81.5264
Pizza Hut,1939 S. Narcoossee Rd.,,10:30 AM - 11:00 PM,Saint Cloud,FL,34771,28.273,-81.2003
Pizza Hut,2818 13th St,,10:30 AM - 11:00 PM,Saint Cloud,FL,34769,28.248,-81.2876
Pizza Hut,119 Bartram Oaks Walk,Suite 107,10:00 AM - 10:00 PM,Saint Johns,FL,32259,30.0815,-81.5477
Pizza Hut,1421 34th Street North,,10:00 AM - 12:00 AM,Saint Petersburg,FL,33713,27.789,-82.6779
Pizza Hut,2421 4th St N,,10:00 AM - 12:00 AM,Saint Petersburg,FL,33704,27.7954,-82.6373
Pizza Hut,4350 66th St N,,10:00 AM - 12:00 AM,Saint Petersburg,FL,33709,27.8201,-82.7308
Pizza Hut Express,4450 Park St N,,,Saint Petersburg,FL,33709,27.8201,-82.7308
Pizza Hut,4598 34th St S,,10:00 AM - 12:00 AM,Saint Petersburg,FL,33711,27.7465,-82.6897
Pizza Hut,9099 4th St N,,10:00 AM - 12:00 AM,Saint Petersburg,FL,33702,27.8427,-82.6448
Pizza Hut Express,1201 Wp Ball Blvd.,,,Sanford,FL,32771,28.8013,-81.285
Pizza Hut,2002 S French Ave,,11:00 AM - 11:00 PM,Sanford,FL,32771,28.8013,-81.285
Pizza Hut,5252 W. State Rd. 46,,11:00 AM - 10:00 PM,Sanford,FL,32771,28.8013,-81.285
Pizza Hut,616 Lake Minnie Dr,,10:30 AM - 11:00 PM,Sanford,FL,32773,28.7644,-81.282
Pizza Hut Express,101 N. Cattleman Road,,,Sarasota,FL,34243,27.4072,-82.5303
Pizza Hut,3251 17th St.,#10,10:00 AM - 11:00 PM,Sarasota,FL,34235,27.3672,-82.4848
Pizza Hut,4005 Cattlemen Road,,10:00 AM - 11:00 PM,Sarasota,FL,34233,27.2866,-82.477
Pizza Hut,8197 S Tamiami Trl,,10:00 AM - 11:00 PM,Sarasota,FL,34231,27.2666,-82.5163
Pizza Hut,1024 Hwy A1a,,11:00 AM - 11:00 PM,Satellite Beach,FL,32937,28.178,-80.602
Pizza Hut,2109 US Highway 27 S,,10:00 AM - 10:00 PM,Sebring,FL,33870,27.4924,-81.4357
Pizza Hut,11748 Martin Luther King Jr. Blvd.,,10:00 AM - 12:00 AM,Seffner,FL,33584,27.9922,-82.2863
Pizza Hut,8380 Seminole Blvd,,10:00 AM - 11:00 PM,Seminole,FL,33772,27.8466,-82.7954
Pizza Hut,8168 Hwy. 90,,10:00 AM - 10:00 PM,Sneads,FL,32460,30.7276,-84.9337
Pizza Hut,1155 Pasadena Ave S Suite J,Pasadena Square - Sp J,10:00 AM - 12:00 AM,South Pasadena,FL,33707,27.7549,-82.7208
Pizza Hut Express,13435 Highway 77,Express Lane,,Southport,FL,32409,30.3117,-85.6923
Pizza Hut,2903 Commercial Way,,11:00 AM - 10:00 PM,Spring Hill,FL,34606,28.4655,-82.5981
Pizza Hut,4116 Mariner Blvd.,,11:00 AM - 10:00 PM,Spring Hill,FL,34606,28.4655,-82.5981
Pizza Hut Express,435 Durbin Pavilion Dr.,Cinemark Durbin Park And Xd #1162,,St Johns,FL,32259,30.0815,-81.5477
Pizza Hut,915 N Temple Ave,,11:00 AM - 10:00 PM,Starke,FL,32091,29.9583,-82.1185
Pizza Hut,2024 S Federal Hwy,,10:30 AM - 11:00 PM,Stuart,FL,34994,27.1968,-80.2538
Pizza Hut Express,2650 NW Federal Hwy,,,Stuart,FL,34994,27.1968,-80.2538
Pizza Hut,17860 SE 109th Ave.,#616,11:00 AM - 11:00 PM,Summerfield,FL,34491,29.0112,-82.0325
Pizza Hut,712 Cypress Village Blvd,,10:00 AM - 11:00 PM,Sun City Center,FL,33573,27.7147,-82.3538
Pizza Hut,1328 SW 160th Ave,,11:00 AM - 12:00 AM,Sunrise,FL,33326,26.1158,-80.3681
Pizza Hut,8280 NW Sunset Strip,,11:00 AM - 12:00 AM,Sunrise,FL,33322,26.1502,-80.2745
Pizza Hut,1710 W. Tennessee,,10:30 AM - 1:30 AM,Tallahassee,FL,32304,30.4478,-84.3211
Pizza Hut Express,2120 Apalachee Parkway,,,Tallahassee,FL,32301,30.4286,-84.2593
Pizza Hut,2910 Kerry Forest Pkwy,Ste A3,10:30 AM - 10:00 PM,Tallahassee,FL,32308,30.4771,-84.2246
Pizza Hut,3220 Apalachee Parkway,Unit 1,10:00 AM - 11:00 PM,Tallahassee,FL,32311,30.4156,-84.187
Pizza Hut,3521 N Monroe St,,10:30 AM - 11:00 PM,Tallahassee,FL,32303,30.4874,-84.3189
Pizza Hut,5032 Capital Circle SW,Ste. 9,10:30 AM - 12:30 AM,Tallahassee,FL,32310,30.3991,-84.3298
Pizza Hut,7221 Pine Island Rd,,11:00 AM - 12:00 AM,Tamarac,FL,33321,26.212,-80.2696
Pizza Hut Express,11627 West Hillsborough Ave.,,,Tampa,FL,33635,28.0301,-82.6048
Pizza Hut,12036 Anderson Rd,,10:00 AM - 12:00 AM,Tampa,FL,33625,28.0726,-82.559
Pizza Hut,13883 W. Hillsborough Avenue,,10:00 AM - 11:00 PM,Tampa,FL,33635,28.0301,-82.6048
Pizza Hut Express,1500 N. Dale Mabry Highway,,,Tampa,FL,33607,27.9625,-82.4895
Pizza Hut,1727 W Fletcher Ave,,10:00 AM - 12:00 AM,Tampa,FL,33612,28.0502,-82.45
Pizza Hut,19010 Bruce B Downs Blvd,,11:00 AM - 12:00 AM,Tampa,FL,33647,28.1147,-82.3678
Pizza Hut,2550 E. Fowler Ave.,,4:00 PM - 10:00 PM,Tampa,FL,33612,28.0502,-82.45
Pizza Hut,3904-A W. Hillsborough Ave.,Stadium,10:00 AM - 12:00 AM,Tampa,FL,33614,28.0091,-82.5034
Pizza Hut Express,4001 W. Tampa Bay Blvd.,Hillsborough Community College,,Tampa,FL,33614,28.0091,-82.5034
Pizza Hut,4019 W Kennedy Blvd,Ste 3,10:00 AM - 12:00 AM,Tampa,FL,33609,27.9425,-82.5057
Pizza Hut,4049 S. Dale Mabry Hwy.,,11:00 AM - 10:00 PM,Tampa,FL,33611,27.8914,-82.5067
Pizza Hut,5263 Ehrlich Rd,,10:00 AM - 12:00 AM,Tampa,FL,33624,28.079,-82.5268
Pizza Hut,614 W Platt St,,11:00 AM - 12:00 AM,Tampa,FL,33606,27.9475,-82.4584
Pizza Hut Express,6295 W Waters Ave,,,Tampa,FL,33634,28.0068,-82.556
Pizza Hut,7023 W Hillsborough Ave,,11:00 AM - 12:00 AM,Tampa,FL,33634,28.0068,-82.556
Pizza Hut,902 W Busch Blvd,Ste 110,10:00 AM - 11:00 PM,Tampa,FL,33612,28.0502,-82.45
Pizza Hut,1955 Alt 19 N,,10:00 AM - 12:00 AM,Tarpon Springs,FL,34689,28.1385,-82.743
Pizza Hut,10694 N 56th St.,#7,10:00 AM - 12:00 AM,Temple Terrace,FL,33617,28.0384,-82.3949
Pizza Hut,2690 S Hopkins Ave,,11:00 AM - 11:00 PM,Titusville,FL,32780,28.5697,-80.8191
Pizza Hut Express,3055 Columbia Blvd,,,Titusville,FL,32780,28.5697,-80.8191
Pizza Hut,939 N Central Ave,,11:00 AM - 10:00 PM,Umatilla,FL,32784,28.9254,-81.6801
Pizza Hut,1944 Hwy 60,#304,10:00 AM - 11:00 PM,Valrico,FL,33594,27.9408,-82.242
Pizza Hut,3220 Lithia Pinecrest Rd.,#101,10:00 AM - 11:00 PM,Valrico,FL,33594,27.9408,-82.242
Pizza Hut Express,5800 20th St,,,Vero Beach,FL,32966,27.6372,-80.4794
Pizza Hut,840 US 1 S,#C 11,10:30 AM - 12:00 AM,Vero Beach,FL,32962,27.5885,-80.3923
Pizza Hut,1498 US Highway 17 N,,11:00 AM - 10:00 PM,Wauchula,FL,33873,27.5517,-81.8074
Pizza Hut Express,1201 County Road 581,,,Wesley Chapel,FL,33543,28.2397,-82.3279
Pizza Hut,28670 Fl-54,,10:00 AM - 11:00 PM,Wesley Chapel,FL,33543,28.2397,-82.3279
Pizza Hut Express,4305 Norfolk Parkway,,,West Melbourne,FL,32904,28.0673,-80.678
Pizza Hut Express,10155 Okeechobee Blvd.,,,West Palm Beach,FL,33411,26.6644,-80.1741
Pizza Hut Express,1760 Palm Beach Lakes Blvd.,,,West Palm Beach,FL,33401,26.7165,-80.0679
Pizza Hut,2509 Okeechobee Blvd,,10:30 AM - 11:00 PM,West Palm Beach,FL,33409,26.7162,-80.0965
Pizza Hut,2885 N Military Trl,Ste A,10:30 AM - 12:00 AM,West Palm Beach,FL,33409,26.7162,-80.0965
Pizza Hut Express,Mile Post 94,West Palm Beach Service Plaza,,West Palm Beach,FL,33414,26.6587,-80.2414
Pizza Hut,842 S Main Street,,11:00 AM - 11:00 PM,Wildwood,FL,34785,28.8454,-82.0347
Pizza Hut,23 E. Noble Ave.,,11:00 AM - 10:00 PM,Williston,FL,32696,29.3977,-82.4856
Pizza Hut,7970 Winter Garden Vineland Rd.,,10:30 AM - 12:00 AM,Windermere,FL,34786,28.5006,-81.5354
Pizza Hut,15504 Stoneybrook West Pkwy.,Suite 100,10:30 AM - 11:00 PM,Winter Garden,FL,34787,28.5423,-81.5911
Pizza Hut,500 Overlook Dr,,10:00 AM - 11:00 PM,Winter Haven,FL,33884,27.981,-81.6736
Pizza Hut,721 3rd St SW,,10:00 AM - 11:00 PM,Winter Haven,FL,33880,27.9873,-81.7625
Pizza Hut,2335 Temple Trl,Ste 4,10:30 AM - 11:00 PM,Winter Park,FL,32789,28.5978,-81.3534
Pizza Hut Express,7414 University Blvd.,,,Winter Park,FL,32792,28.5974,-81.3036
Pizza Hut,1295 Tuskawilla Road,,10:30 AM - 10:00 PM,Winter Springs,FL,32708,28.6831,-81.2814
Pizza Hut Express,462487 Fl-200,Bp Yulee,,Yulee,FL,32097,30.6222,-81.5906
Pizza Hut,463688 Sr 200,#13,11:00 AM - 10:00 PM,Yulee,FL,32097,30.6222,-81.5906
Pizza Hut Express,463737 State Rd. 200.,,,Yulee,FL,32097,30.6222,-81.5906
Pizza Hut,5897 Gall Blvd,,10:00 AM - 11:00 PM,Zephyrhills,FL,33542,28.2303,-82.1779
Pizza Hut Express,3352 Cobb Pkwy NW,,,Acworth,GA,30101,34.0756,-84.6477
Pizza Hut,4514 N Cobb Pkwy,,11:00 AM - 10:30 PM,Acworth,GA,30101,34.0756,-84.6477
Pizza Hut,5070 Cherokee St,,11:00 AM - 10:00 PM,Acworth,GA,30101,34.0756,-84.6477
Pizza Hut,11 Legacy Road,,11:00 AM - 8:00 PM,Adairsville,GA,30103,34.3595,-84.9176
Pizza Hut,702A West 4th Street,,10:00 AM - 12:00 AM,Adel,GA,31620,31.1251,-83.4213
Pizza Hut Express,504 College Drive,Albany State University,,Albany,GA,31705,31.5464,-84.0783
Pizza Hut,711 N Westover Blvd,Suite B,10:00 AM - 11:00 PM,Albany,GA,31707,31.5789,-84.2118
Pizza Hut,803 S Pierce Street,,10:00 AM - 11:00 PM,Alma,GA,31510,31.5465,-82.4633
Pizza Hut,10945 State Bridge Rd.,#502,11:00 AM - 11:00 PM,Alpharetta,GA,30022,34.0268,-84.2422
Pizza Hut Express,13055 Highway 9 North,,,Alpharetta,GA,30004,34.1124,-84.302
Pizza Hut,6415 Highway 9,Ste C,10:00 AM - 10:00 PM,Alpharetta,GA,30004,34.1124,-84.302
Pizza Hut,1206 Crawford Street,Suite J,10:45 AM - 10:00 PM,Americus,GA,31709,32.0404,-84.2153
Pizza Hut,1995 Barnett Shoals Rd.,,11:00 AM - 11:00 PM,Athens,GA,30605,33.9321,-83.3525
Pizza Hut,680 US 29 Hwy N,Suite 215,11:00 AM - 11:00 PM,Athens,GA,30601,33.9761,-83.3632
Pizza Hut Express,100 Perimeter Center Place,,,Atlanta,GA,30346,33.9267,-84.3334
Pizza Hut Express,1275 Caroline Street N.E.,,,Atlanta,GA,30307,33.7691,-84.336
Pizza Hut,2020 Bolton Road,,10:30 AM - 11:00 PM,Atlanta,GA,30318,33.7865,-84.4454
Pizza Hut,2244 Henderson Mill Rd.,Unit B,10:00 AM - 10:00 PM,Atlanta,GA,30345,33.8513,-84.287
Pizza Hut,2461 Metropolitan Parkway,,11:00 AM - 10:00 PM,Atlanta,GA,30315,33.7051,-84.3808
Pizza Hut,25 Piedmont Ave NE,,11:00 AM - 11:00 PM,Atlanta,GA,30303,33.7525,-84.3888
Pizza Hut Express,2539 Piedmont Road N.E.,,,Atlanta,GA,30324,33.8206,-84.3549
Pizza Hut,2980 Cobb Pkwy,Ste 140,1:00 PM - 10:00 PM,Atlanta,GA,30339,33.8713,-84.4629
Pizza Hut,3176 Peachtree Road NE,,11:00 AM - 10:00 PM,Atlanta,GA,30305,33.832,-84.3851
Pizza Hut,3255 Buford Highway,,10:00 AM - 11:00 PM,Atlanta,GA,30329,33.8236,-84.3214
Pizza Hut,3695-C Cascade Rd. SW,,11:00 AM - 11:00 PM,Atlanta,GA,30331,33.7224,-84.5205
Pizza Hut Express,375 18th Street,,,Atlanta,GA,30363,33.791,-84.3992
Pizza Hut,460 North Ave NE,,11:00 AM - 11:00 PM,Atlanta,GA,30308,33.7718,-84.3757
Pizza Hut,4920 Roswell Rd.,#22,10:00 AM - 11:00 PM,Atlanta,GA,30342,33.8842,-84.3761
Pizza Hut,4957 Winters Chapel Rd,,10:00 AM - 11:00 PM,Atlanta,GA,30360,33.9378,-84.2716
Pizza Hut,543 10th St. NW,,11:00 AM - 11:00 PM,Atlanta,GA,30318,33.7865,-84.4454
Pizza Hut,8290 Roswell Rd.,#800,10:00 AM - 11:00 PM,Atlanta,GA,30350,33.9795,-84.3411
Pizza Hut,1654 Atlanta Hwy,Ste 110,11:00 AM - 10:00 PM,Auburn,GA,30011,34.0191,-83.8261
Pizza Hut,2215 Tobacco Road,#C&D,10:00 AM - 11:00 PM,Augusta,GA,30906,33.3589,-82.0099
Pizza Hut Express,235 Robert C. Daniel Jr. Parkway,,,Augusta,GA,30909,33.4717,-82.0834
Pizza Hut Express,2500 Walton Way,Augusta University - Jaguar Student Activities Cen,,Augusta,GA,30904,33.4737,-82.0131
Pizza Hut,2625 Georgetown Dr,,11:00 AM - 11:00 PM,Augusta,GA,30906,33.3589,-82.0099
Pizza Hut,2804 Wrightsboro Rd,,11:00 AM - 11:00 PM,Augusta,GA,30909,33.4717,-82.0834
Pizza Hut,615 15th St,,10:30 AM - 11:00 PM,Augusta,GA,30901,33.4601,-81.973
Pizza Hut,2860 E West Connector,Ste 105,11:00 AM - 11:00 PM,Austell,GA,30106,33.8369,-84.6307
Pizza Hut,1300 Shotwell St.,,10:30 AM - 10:30 PM,Bainbridge,GA,39819,30.9039,-84.569
Pizza Hut,503 W Parker St,Unit C,10:00 AM - 11:00 PM,Baxley,GA,31513,31.7837,-82.3486
Pizza Hut Express,916 Loganville Highway,,,Bethlehem,GA,30620,33.9261,-83.7282
Pizza Hut,3504 US Hwy 84,Suite A,10:00 AM - 11:00 PM,Blackshear,GA,31516,31.2931,-82.2617
Pizza Hut,11621 Columbia Rd,,10:30 AM - 10:00 PM,Blakely,GA,39823,31.3791,-84.9353
Pizza Hut,4231 East 1st Street,,11:00 AM - 10:00 PM,Blue Ridge,GA,30513,34.8555,-84.3281
Pizza Hut,941 Alabama Ave,,11:00 AM - 10:00 PM,Bremen,GA,30110,33.7309,-85.1286
Pizza Hut,1248 Chapel Crossing,,10:00 AM - 12:00 AM,Brunswick,GA,31525,31.2804,-81.5305
Pizza Hut Express,200 Glynn Isle Pkwy,,,Brunswick,GA,31525,31.2804,-81.5305
Pizza Hut,271 Waren Mason Blvd,,10:00 AM - 11:00 PM,Brunswick,GA,31520,31.1807,-81.4949
Pizza Hut,399 US Highway 84 East,,10:30 AM - 10:30 PM,Cairo,GA,39828,30.8768,-84.2091
Pizza Hut,267 Hwy 53 East,,11:00 AM - 11:00 PM,Calhoun,GA,30701,34.4965,-84.9345
Pizza Hut,61 US 19 North,,10:30 AM - 10:30 PM,Camilla,GA,31730,31.2199,-84.2297
Pizza Hut Express,2022 Cumming Highway,,,Canton,GA,30115,34.1993,-84.4199
Pizza Hut,2260 Holly Springs Parkway.,,11:00 AM - 11:00 PM,Canton,GA,30115,34.1993,-84.4199
Pizza Hut,652 Riverstone Pkwy,Suite 120,11:00 AM - 11:00 PM,Canton,GA,30114,34.2505,-84.4909
Pizza Hut,8020 Cumming Hwy.,,11:00 AM - 10:00 PM,Canton,GA,30115,34.1993,-84.4199
Pizza Hut,614 Bankhead Hwy,,11:00 AM - 11:00 PM,Carrollton,GA,30117,33.5798,-85.0812
Pizza Hut,928 S. Park Street,Suite P,11:00 AM - 10:00 PM,Carrollton,GA,30117,33.5798,-85.0812
Pizza Hut,122 Merchants Square. Drive,,11:00 AM - 11:00 PM,Cartersville,GA,30120,34.187,-84.8204
Pizza Hut Express,981 Cassville White Road,Travel Centers Of America,,Cartersville,GA,30121,34.2079,-84.7673
Pizza Hut,5485 Peachtree Industrial Blvd,,10:00 AM - 11:00 PM,Chamblee,GA,30341,33.8879,-84.2905
Pizza Hut,430 US Hwy,#411 S,10:30 AM - 10:00 PM,Chatsworth,GA,30705,34.7589,-84.7943
Pizza Hut,55 Hwy 813,,10:30 AM - 11:00 PM,Chickamauga,GA,30707,34.858,-85.3221
Pizza Hut,212 N Duval St,Suite B,10:00 AM - 9:00 PM,Claxton,GA,30417,32.165,-81.908
Pizza Hut,248 Highway 441 No.,,11:00 AM - 10:00 PM,Clayton,GA,30525,34.8826,-83.4065
Pizza Hut,114 S.W. Dykes Street,,11:00 AM - 10:00 PM,Cochran,GA,31014,32.3981,-83.3229
Pizza Hut,6055 Old National Hwy.,#B,11:00 AM - 10:00 PM,College Park,GA,30349,33.6053,-84.4813
Pizza Hut,1056 A-6A Manchester Expy,,11:00 AM - 11:00 PM,Columbus,GA,31904,32.5161,-84.9785
Pizza Hut,5751 Milgen Rd,Ste 117,11:00 AM - 11:00 PM,Columbus,GA,31907,32.4779,-84.898
Pizza Hut,30518 US Hwy 441 South,,11:00 AM - 10:00 PM,Commerce,GA,30529,34.2134,-83.448
Pizza Hut Express,2195 Georgia Highway 20 S.E.,,,Conyers,GA,30094,33.6111,-84.0683
Pizza Hut,3504 Highway 20 SE,,11:00 AM - 11:00 PM,Conyers,GA,30013,33.6436,-83.9684
Pizza Hut,425 Sigman Rd NW,#125,11:00 AM - 11:00 PM,Conyers,GA,30012,33.7192,-84.0021
Pizza Hut,1510 16th Ave. E,,10:30 AM - 10:30 PM,Cordele,GA,31015,31.9566,-83.7835
Pizza Hut,1604 441 Bypass,,11:00 AM - 10:00 PM,Cornelia,GA,30531,34.5209,-83.5453
Pizza Hut,4169 Hwy 278 NE,,11:00 AM - 11:00 PM,Covington,GA,30014,33.5293,-83.8496
Pizza Hut,2330 Canton Hwy,Suite 1E,11:00 AM - 10:30 PM,Cumming,GA,30040,34.2321,-84.158
Pizza Hut,2603 Freedom Pkwy,,11:00 AM - 10:00 PM,Cumming,GA,30041,34.2037,-84.1031
Pizza Hut,2760 Braselton Hwy,,11:00 AM - 11:00 PM,Dacula,GA,30019,33.9883,-83.8795
Pizza Hut,1352 South Chestatee,,11:00 AM - 10:00 PM,Dahlonega,GA,30533,34.5299,-83.9798
Pizza Hut,4075 Marietta Hwy,,11:00 AM - 10:30 PM,Dallas,GA,30157,33.9045,-84.8621
Pizza Hut,500 Nathan Dean Blvd,Ste 101,11:00 AM - 11:00 PM,Dallas,GA,30157,33.9045,-84.8621
Pizza Hut,8876 Dallas-Acworth Hwy.,#106,11:00 AM - 10:30 PM,Dallas,GA,30132,33.9163,-84.8278
Pizza Hut,1525 Cleveland Hwy,Ste 3,10:30 AM - 11:00 PM,Dalton,GA,30721,34.7792,-84.9339
Pizza Hut,1225B North Way,,10:00 AM - 11:00 PM,Darien,GA,31305,31.3826,-81.4312
Pizza Hut,461 Roundtree Dr SW,,11:00 AM - 10:00 PM,Dawson,GA,39842,31.7703,-84.5238
Pizza Hut,1524 Church St,Ste C,11:00 AM - 11:00 PM,Decatur,GA,30030,33.7699,-84.295
Pizza Hut,4906 Covington Hwy,,11:00 AM - 11:00 PM,Decatur,GA,30035,33.7278,-84.2143
Pizza Hut,4985 Flat Shoals Pkwy,,11:00 AM - 11:00 PM,Decatur,GA,30034,33.6954,-84.2489
Pizza Hut,403 W 3rd St,,10:30 AM - 10:30 PM,Donalsonville,GA,39845,31.0505,-84.8801
Pizza Hut,1716 S. Peterson Ave.,,10:30 AM - 10:30 PM,Douglas,GA,31533,31.4973,-82.8465
Pizza Hut Express,2950 Chapel Hill Rd,,,Douglasville,GA,30135,33.6989,-84.7454
Pizza Hut,3697 Highway 5,#4,11:00 AM - 11:00 PM,Douglasville,GA,30135,33.6989,-84.7454
Pizza Hut,4811 Ridge Rd,Suite #100,11:00 AM - 11:00 PM,Douglasville,GA,30134,33.7606,-84.7477
Pizza Hut,5636 Fairburn Rd,,11:00 AM - 11:00 PM,Douglasville,GA,30134,33.7606,-84.7477
Pizza Hut,2205 Veterans Blvd,,11:00 AM - 10:00 PM,Dublin,GA,31021,32.4593,-82.9381
Pizza Hut,3175 Buford Hwy,Ste 101,10:00 AM - 11:00 PM,Duluth,GA,30096,33.9845,-84.1529
Pizza Hut,4601 Satellite Blvd,Ste 3,10:00 AM - 11:00 PM,Duluth,GA,30096,33.9845,-84.1529
Pizza Hut Express,5950 State Bridge Rd,,,Duluth,GA,30097,34.026,-84.147
Pizza Hut,3126 Washington Rd,,11:00 AM - 11:00 PM,East Point,GA,30344,33.6919,-84.448
Pizza Hut,815 S. Oak St.,,11:00 AM - 11:00 PM,Eatonton,GA,31024,33.3127,-83.3628
Pizza Hut,585 Heard St,,11:00 AM - 10:00 PM,Elberton,GA,30635,34.1082,-82.8448
Pizza Hut,2820 E Atlanta Rd,Unit 9,11:00 AM - 11:00 PM,Ellenwood,GA,30294,33.6166,-84.2939
Pizza Hut Express,4223 Washington Road,,,Evans,GA,30809,33.5412,-82.1398
Pizza Hut,4431 Washington Road,Ste. 8,11:00 AM - 10:00 PM,Evans,GA,30809,33.5412,-82.1398
Pizza Hut,8390 Senoia Rd,Suite E,11:00 AM - 11:00 PM,Fairburn,GA,30213,33.5648,-84.5809
Pizza Hut Express,107 Pavilion Pkwy,,,Fayetteville,GA,30214,33.4679,-84.4806
Pizza Hut,12160 County Line Road,,11:00 AM - 11:00 PM,Fayetteville,GA,30215,33.3943,-84.4738
Pizza Hut,7330 Spout Springs Rd.,Suite A-4,11:00 AM - 10:00 PM,Flowery Branch,GA,30542,34.1819,-83.9024
Pizza Hut,3634 South 2nd St.,,10:00 AM - 12:00 AM,Folkston,GA,31537,30.8508,-82.0116
Pizza Hut,53 N. Lee St.,,11:00 AM - 10:00 PM,Forsyth,GA,31029,33.0508,-83.9362
Pizza Hut,1919 Battlefield Pkwy,# A-2,10:30 AM - 11:00 PM,Fort Oglethorpe,GA,30742,34.9506,-85.2432
Pizza Hut,313 Vineville St,,11:00 AM - 10:00 PM,Fort Valley,GA,31030,32.5496,-83.8887
Pizza Hut,1501 Browns Bridge Rd,,11:00 AM - 11:00 PM,Gainesville,GA,30501,34.3073,-83.8256
Pizza Hut,5212 Augusta Road,,10:00 AM - 11:00 PM,Garden City,GA,31408,32.1082,-81.1746
Pizza Hut,736 N Main St,Unit #6,4:00 PM - 9:00 PM,Glennville,GA,30427,31.9467,-81.9483
Pizza Hut,609 W Clinton Road,,11:00 AM - 10:00 PM,Gray,GA,31032,33.0172,-83.54
Pizza Hut,2270 S Main St,,11:00 AM - 11:00 PM,Greensboro,GA,30642,33.5637,-83.1702
Pizza Hut,1575 W. Mcintosh Rd.,,11:00 AM - 11:00 PM,Griffin,GA,30223,33.2549,-84.2728
Pizza Hut,1742 Zebulon Rd,,11:00 AM - 11:00 PM,Griffin,GA,30224,33.2404,-84.2734
Pizza Hut,104 Harlem-Grovetown Rd,,11:00 AM - 11:00 PM,Grovetown,GA,30813,33.4504,-82.1982
Pizza Hut,11181 Tara Blvd.,#130,11:00 AM - 11:00 PM,Hampton,GA,30228,33.4124,-84.2947
Pizza Hut,569-A Milledgeville Rd.,,11:00 AM - 10:00 PM,Harlem,GA,30814,33.417,-82.3097
Pizza Hut,272 E Franklin St,,11:00 AM - 10:30 PM,Hartwell,GA,30643,34.3571,-82.9296
Pizza Hut,112 South Tallahassee St.,,10:00 AM - 11:00 PM,Hazlehurst,GA,31539,31.8606,-82.5909
Pizza Hut,2519 Tobacco Rd,,10:00 AM - 11:00 PM,Hephzibah,GA,30815,33.3433,-82.0887
Pizza Hut,1067 W Oglethorpe,Suite 102,10:00 AM - 12:00 AM,Hinesville,GA,31313,31.8513,-81.6072
Pizza Hut,443 W General Screven Way,,10:00 AM - 12:00 AM,Hinesville,GA,31313,31.8513,-81.6072
Pizza Hut,548 N Church St.,,10:00 AM - 11:00 PM,Homerville,GA,31634,31.0509,-82.7613
Pizza Hut,6055 Georgia Hwy. 124,Suite 103,11:00 AM - 10:00 PM,Hoschton,GA,30548,34.0866,-83.7803
Pizza Hut,811 E 3rd Street,,11:00 AM - 11:00 PM,Jackson,GA,30233,33.282,-83.9784
Pizza Hut,1529 West Church Street,,11:00 AM - 10:00 PM,Jasper,GA,30143,34.462,-84.4759
Pizza Hut,1345 Washington St,Bell's Shopping Complex,11:00 AM - 10:00 PM,Jefferson,GA,30549,34.1062,-83.5708
Pizza Hut,961 S 1st Street,,10:00 AM - 11:00 PM,Jesup,GA,31545,31.6043,-81.8871
Pizza Hut,7157 Mount Zion Blvd,,11:00 AM - 11:00 PM,Jonesboro,GA,30236,33.5242,-84.359
Pizza Hut,670 Lake Joy Road,,10:45 AM - 9:00 PM,Kathleen,GA,31047,32.4672,-83.6128
Pizza Hut,3600 Cherokee St,#101,11:00 AM - 11:00 PM,Kennesaw,GA,30144,34.0287,-84.6047
Pizza Hut,4221 Bells Ferry Dr.,#103,11:00 AM - 11:00 PM,Kennesaw,GA,30144,34.0287,-84.6047
Pizza Hut Express,740 Ernest W Barrett Pkwy NW,,,Kennesaw,GA,30144,34.0287,-84.6047
Pizza Hut,405 N Main St,,10:30 AM - 11:00 PM,La Fayette,GA,30728,34.692,-85.2602
Pizza Hut,208 Commerce Ave,,12:00 PM - 9:00 PM,La Grange,GA,30240,33.0243,-85.0739
Pizza Hut,5656 Jonesboro Rd,,11:00 AM - 11:00 PM,Lake City,GA,30260,33.5849,-84.3247
Pizza Hut,7171 Lake Blvd.,,10:30 AM - 10:00 PM,Lake Park,GA,31636,30.6906,-83.1753
Pizza Hut,14249 Jones St,,11:00 AM - 10:30 PM,Lavonia,GA,30553,34.4528,-83.113
Pizza Hut,1164 Lawrenceville Highway,,10:00 AM - 11:00 PM,Lawrenceville,GA,30046,33.9496,-83.9942
Pizza Hut,1475 Highway 20,Ste 201,10:00 AM - 11:00 PM,Lawrenceville,GA,30043,34.0031,-84.0126
Pizza Hut Express,2929 Fiveforks Trickum Rd,,,Lawrenceville,GA,30044,33.9418,-84.0706
Pizza Hut,930 New Hope Rd.,#103,11:00 AM - 11:00 PM,Lawrenceville,GA,30045,33.9367,-83.9573
Pizza Hut,950 Herrington Rd.,#9,10:00 AM - 11:00 PM,Lawrenceville,GA,30044,33.9418,-84.0706
Pizza Hut,1206 US Highway 19 S,Suite A,10:30 AM - 11:00 PM,Leesburg,GA,31763,31.6812,-84.1593
Pizza Hut,4230 Lawrenceville Hwy,,10:00 AM - 11:00 PM,Lilburn,GA,30047,33.8656,-84.0725
Pizza Hut,4814 Hwy 78,#4B,10:00 AM - 11:00 PM,Lilburn,GA,30047,33.8656,-84.0725
Pizza Hut,5 North Fourth St.,Suite C,11:00 AM - 8:00 PM,Lindale,GA,30147,34.1707,-85.1825
Pizza Hut,6951 Sweetwater Road,,11:00 AM - 10:30 PM,Lithia Springs,GA,30122,33.7655,-84.6469
Pizza Hut,2717 Evans Mill Rd,,11:00 AM - 10:00 PM,Lithonia,GA,30058,33.7356,-84.1009
Pizza Hut,452 S Deshon Rd,,11:00 AM - 10:00 PM,Lithonia,GA,30058,33.7356,-84.1009
Pizza Hut,4906-4910 Bill Gardner Pkwy,,11:00 AM - 11:00 PM,Locust Grove,GA,30248,33.3449,-84.0982
Pizza Hut,4685 Atlanta Hwy,# 500,10:00 AM - 11:00 PM,Loganville,GA,30052,33.8769,-83.8968
Pizza Hut,112 US Hwy. 1,,11:00 AM - 10:00 PM,Louisville,GA,30434,33.0163,-82.3836
Pizza Hut,5005 Floyd Rd,Suite 910,11:00 AM - 11:00 PM,Mableton,GA,30126,33.8332,-84.6031
Pizza Hut,3755 Bloomfield Rd. Store 8,,11:00 AM - 10:00 PM,Macon,GA,31206,32.7914,-83.679
Pizza Hut,6230 Zebulon Rd,,10:45 AM - 10:00 PM,Macon,GA,31210,32.8926,-83.7455
Pizza Hut,1075 Whitlock Ave SW,,11:00 AM - 10:30 PM,Marietta,GA,30064,33.9343,-84.6076
Pizza Hut,1386 Roswell Rd,,11:00 AM - 11:00 PM,Marietta,GA,30062,34.0025,-84.4633
Pizza Hut Express,1401 Johnson Ferry Rd,,,Marietta,GA,30062,34.0025,-84.4633
Pizza Hut,250 Windy Hill Rd,Ste 200,11:00 AM - 11:00 PM,Marietta,GA,30060,33.9382,-84.5403
Pizza Hut,2520 E. Piedmont Rd.,#124,11:00 AM - 10:00 PM,Marietta,GA,30062,34.0025,-84.4633
Pizza Hut,4127 Columbia Rd.,#10,11:00 AM - 11:00 PM,Martinez,GA,30907,33.5229,-82.0852
Pizza Hut,118 W Oak St,,10:00 AM - 11:00 PM,Mc Rae,GA,31055,32.068,-82.9007
Pizza Hut,1660 Hwy 81 East,,11:00 AM - 11:00 PM,McDonough,GA,30252,33.4768,-84.055
Pizza Hut,309A Jonesboro Rd,,11:00 AM - 11:00 PM,McDonough,GA,30253,33.451,-84.1544
Pizza Hut Express,5941 East Lake Pkwy,,,McDonough,GA,30253,33.451,-84.1544
Pizza Hut,5944 E. Lake Pkwy,,11:00 AM - 11:00 PM,McDonough,GA,30253,33.451,-84.1544
Pizza Hut,743 S Lewis St,,10:00 AM - 10:00 PM,Metter,GA,30439,32.401,-82.0607
Pizza Hut,1117 W. Spring St.,Suite A,11:00 AM - 11:00 PM,Monroe,GA,30655,33.7883,-83.7013
Pizza Hut,25 Doc Darbyshire Rd,,10:30 AM - 11:00 PM,Moultrie,GA,31788,31.0855,-83.6821
Pizza Hut,608 S. Davis,,11:00 AM - 10:30 PM,Nashville,GA,31639,31.2074,-83.2319
Pizza Hut,124 Jefferson St,,11:00 AM - 10:30 PM,Newnan,GA,30263,33.3696,-84.8194
Pizza Hut,3150 E Hwy 34,Ste 210,11:00 AM - 11:00 PM,Newnan,GA,30265,33.3958,-84.7121
Pizza Hut,5450 Peachtree Pkwy,Ste 7B,10:00 AM - 12:00 AM,Norcross,GA,30092,33.9701,-84.2216
Pizza Hut,6050 Singleton Rd.,#109,10:00 AM - 11:00 PM,Norcross,GA,30093,33.906,-84.184
Pizza Hut,3715 Mundy Mill Rd,Ste A,10:30 AM - 11:00 PM,Oakwood,GA,30566,34.2372,-83.894
Pizza Hut Express,1209 N Peachtree Pkwy,,,Peachtree City,GA,30269,33.3915,-84.5635
Pizza Hut,423-A US Hwy 80 W,,10:00 AM - 10:00 PM,Pooler,GA,31322,32.1149,-81.252
Pizza Hut,3217 New Macland Rd.,Ste 150,11:00 AM - 11:00 PM,Powder Springs,GA,30127,33.9135,-84.6859
Pizza Hut,246 South Main Street,Unit D,10:00 AM - 10:00 PM,Reidsville,GA,30453,32.0548,-82.1478
Pizza Hut,60 Exchange St,Suite B-4,10:00 AM - 11:00 PM,Richmond Hill,GA,31324,31.8962,-81.294
Pizza Hut,5667 Hwy 21 South,#105,12:00 PM - 8:00 PM,Rincon,GA,31326,32.296,-81.2354
Pizza Hut,5454 Alabama Hwy,,10:30 AM - 11:00 PM,Ringgold,GA,30736,34.9205,-85.1549
Pizza Hut,7131 State Highway 85,,11:00 AM - 11:00 PM,Riverdale,GA,30274,33.5531,-84.4003
Pizza Hut,8411 Highway 85,,11:00 AM - 11:00 PM,Riverdale,GA,30274,33.5531,-84.4003
Pizza Hut,1000 Nathan Dean Byp,,11:00 AM - 11:00 PM,Rockmart,GA,30153,33.9979,-85.0594
Pizza Hut,1015 Martha Berry Boulevard,,11:00 AM - 8:00 PM,Rome,GA,30165,34.2837,-85.2231
Pizza Hut,1911 Shorter Avenue,,12:00 PM - 8:00 PM,Rome,GA,30165,34.2837,-85.2231
Pizza Hut Express,1135 Woodstock Rd.,,,Roswell,GA,30075,34.0408,-84.3859
Pizza Hut,2300 Holcomb Bridge Rd.,Suite 408,11:00 AM - 11:00 PM,Roswell,GA,30076,34.0213,-84.3104
Pizza Hut,661 Holcomb Bridge Rd,,10:00 AM - 12:00 AM,Roswell,GA,30076,34.0213,-84.3104
Pizza Hut,200 Franklin Springs Cir,,11:00 AM - 10:30 PM,Royston,GA,30662,34.2778,-83.1406
Pizza Hut,2511 Osborne Rd.,,11:00 AM - 10:00 PM,Saint Marys,GA,31558,30.7305,-81.5465
Pizza Hut,610 S Harris St,Suite C,10:00 AM - 11:00 PM,Sandersville,GA,31082,32.975,-82.8406
Pizza Hut Express,5570 Roswell Road,,,Sandy Springs,GA,30342,33.8842,-84.3761
Pizza Hut,1 Diamond Causeway,#15,10:00 AM - 11:00 PM,Savannah,GA,31406,31.989,-81.0979
Pizza Hut,11510 Abercorn St.,,10:00 AM - 9:00 PM,Savannah,GA,31419,31.9959,-81.2358
Pizza Hut Express,14065 Abercorn Street,,,Savannah,GA,31419,31.9959,-81.2358
Pizza Hut,205 Johnny Mercer Blvd,Unit H,10:00 AM - 11:00 PM,Savannah,GA,31410,32.0175,-80.997
Pizza Hut,2405 Skidaway Rd,,10:00 AM - 10:00 PM,Savannah,GA,31404,32.0543,-81.0492
Pizza Hut,318 Mall Blvd.,,10:00 AM - 11:00 PM,Savannah,GA,31406,31.989,-81.0979
Pizza Hut,5730 Ogeechee Road,Suite 155,10:00 AM - 11:00 PM,Savannah,GA,31405,32.0391,-81.1242
Pizza Hut,8080 Wells Street,Ste 2B,11:00 AM - 10:30 PM,Senoia,GA,30276,33.2845,-84.5918
Pizza Hut,4480 S Cobb Dr S,Ste Q,11:00 AM - 11:00 PM,Smyrna,GA,30080,33.8796,-84.5023
Pizza Hut Express,1905 Scenic Highway North,,,Snellville,GA,30078,33.8635,-84.0081
Pizza Hut,2189 NE Scenic Hwy,Suite A,10:00 AM - 11:00 PM,Snellville,GA,30078,33.8635,-84.0081
Pizza Hut,4116 Lenora Church Rd,,10:00 AM - 11:00 PM,Snellville,GA,30039,33.8178,-84.0229
Pizza Hut,1035 N Second Street,,10:00 AM - 10:00 PM,Soperton,GA,30457,32.3869,-82.5871
Pizza Hut,1451 Highway 21 South,Suite E,10:00 AM - 11:00 PM,Springfield,GA,31329,32.3697,-81.3618
Pizza Hut,234 Retreat Village,,10:00 AM - 10:30 PM,St Simons Is,GA,31522,31.23,-81.3502
Pizza Hut,129 S Main St,,10:00 AM - 11:00 PM,Statesboro,GA,30458,32.4408,-81.774
Pizza Hut,860 Buckhead Dr,,10:00 AM - 12:00 AM,Statesboro,GA,30458,32.4408,-81.774
Pizza Hut,2085 Atlanta Hwy. SE,Suite 300,11:00 AM - 10:00 PM,Statham,GA,30666,33.9602,-83.5893
Pizza Hut,1152 Jodeco Rd,,11:00 AM - 11:00 PM,Stockbridge,GA,30281,33.5633,-84.2165
Pizza Hut,4491 N. Henry Blvd.,,11:00 AM - 11:00 PM,Stockbridge,GA,30281,33.5633,-84.2165
Pizza Hut,1130 S Hairston Rd,,11:00 AM - 10:00 PM,Stone Mountain,GA,30088,33.758,-84.1802
Pizza Hut,5885 Cumming Hwy,Ste 301,10:30 AM - 11:00 PM,Sugar Hill,GA,30518,34.1124,-83.9965
Pizza Hut Express,2625 Peachtree Parkway,,,Suwanee,GA,30024,34.0425,-84.0262
Pizza Hut,2850 Lawrenceville-Suwanee Rd.,# 11,11:00 AM - 11:00 PM,Suwanee,GA,30024,34.0425,-84.0262
Pizza Hut,3245 Peachtree Pkwy.,Suite F,11:00 AM - 10:00 PM,Suwanee,GA,30024,34.0425,-84.0262
Pizza Hut,525 Peachtree Industrial Blvd,Suite C,11:00 AM - 10:30 PM,Suwanee,GA,30024,34.0425,-84.0262
Pizza Hut,514 W Ogeechee St,,10:00 AM - 10:00 PM,Sylvania,GA,30467,32.7439,-81.6287
Pizza Hut,301 N. Center St.,Suite 1,10:45 AM - 10:00 PM,Thomaston,GA,30286,32.9015,-84.3324
Pizza Hut,2344 E Pinetree Blvd,,10:30 AM - 11:00 PM,Thomasville,GA,31792,30.8385,-83.9696
Pizza Hut,1909 US Hwy. 82 W,Suite 7,10:30 AM - 11:30 PM,Tifton,GA,31794,31.4639,-83.4999
Pizza Hut,1350 Big A Road,,11:00 AM - 10:00 PM,Toccoa,GA,30577,34.5665,-83.3114
Pizza Hut,12020 S Main St,,11:00 AM - 11:00 PM,Trenton,GA,30752,34.9017,-85.5171
Pizza Hut,4286 Chamblee Tucker Rd,Pittsburg Shpg Ctr,10:00 AM - 12:00 AM,Tucker,GA,30084,33.857,-84.216
Pizza Hut,4715 Jonesboro Rd,,11:00 AM - 11:00 PM,Union City,GA,30291,33.5832,-84.5499
Pizza Hut,1823 West Hill Dr.,,10:00 AM - 12:00 AM,Valdosta,GA,31601,30.7539,-83.3321
Pizza Hut,404 Northside Dr,Ste B,10:30 AM - 12:30 AM,Valdosta,GA,31602,30.8931,-83.3278
Pizza Hut,1601 E First St,,10:00 AM - 11:00 PM,Vidalia,GA,30474,32.1934,-82.4067
Pizza Hut,664 W Bankhead Hwy,Ste 3F,11:00 AM - 11:00 PM,Villa Rica,GA,30180,33.7173,-84.9297
Pizza Hut,1010 Russell Pkwy,,11:00 AM - 11:00 PM,Warner Robins,GA,31088,32.5934,-83.6416
Pizza Hut,1406 Watson Blvd,,10:45 AM - 10:00 PM,Warner Robins,GA,31093,32.6368,-83.6395
Pizza Hut,1110 Plant Ave,,10:00 AM - 9:00 PM,Waycross,GA,31501,31.2243,-82.3596
Pizza Hut,1100 N Liberty St,,11:00 AM - 10:00 PM,Waynesboro,GA,30830,33.1013,-81.9908
Pizza Hut,108 E May St,Ste 600,11:00 AM - 11:00 PM,Winder,GA,30680,33.9985,-83.7115
Pizza Hut,12050 Highway 92,,10:00 AM - 11:00 PM,Woodstock,GA,30188,34.106,-84.5117
Pizza Hut,4451 Town Lake Pkwy.,#310,11:00 AM - 10:30 PM,Woodstock,GA,30189,34.1281,-84.5717
Pizza Hut,98-820 Moanalua Road,Bay #4,10:00 AM - 10:00 PM,Aiea,HI,96701,21.3908,-157.9332
Pizza Hut,91-763 Papipi Rd,,10:00 AM - 10:00 PM,Ewa Beach,HI,96706,21.3274,-158.0103
Pizza Hut,2200 Kinoole St,,10:00 AM - 10:00 PM,Hilo,HI,96720,19.7025,-155.0939
Pizza Hut Express,391 E Makaala,,,Hilo,HI,96720,19.7025,-155.0939
Pizza Hut,605 Laukapu St. Ste.103,,10:00 AM - 10:00 PM,Hilo,HI,96720,19.7025,-155.0939
Pizza Hut,1108 Keeaumoku St,# 104,10:00 AM - 10:00 PM,Honolulu,HI,96814,21.2998,-157.8439
Pizza Hut,1239 Wilder Ave,,10:00 AM - 10:00 PM,Honolulu,HI,96822,21.3117,-157.8298
Pizza Hut,1620 N. School Street,,10:00 AM - 10:00 PM,Honolulu,HI,96817,21.3295,-157.8615
Pizza Hut,4211 Waialae Ave,Kahala Mall,10:00 AM - 7:00 PM,Honolulu,HI,96816,21.2887,-157.8006
Pizza Hut Express,4380 Lawehana,,,Honolulu,HI,96818,21.3532,-157.9269
Pizza Hut,4510 Salt Lake Blvd,Ste B7,10:00 AM - 8:00 PM,Honolulu,HI,96818,21.3532,-157.9269
Pizza Hut,516 N. Kuakini St.,,10:00 AM - 10:00 PM,Honolulu,HI,96817,21.3295,-157.8615
Pizza Hut,768 Kapahulu Ave,,10:00 AM - 10:00 PM,Honolulu,HI,96816,21.2887,-157.8006
Pizza Hut,848 Ala Lilikoi St,Salt Lake Shopping Center,10:00 AM - 10:00 PM,Honolulu,HI,96818,21.3532,-157.9269
Pizza Hut Express,100 Hookele Street,,,Kahului,HI,96732,20.8814,-156.4783
Pizza Hut,70 E. Kaahumanu Avenue,Space No. A-4,10:00 AM - 10:00 PM,Kahului,HI,96732,20.8814,-156.4783
Pizza Hut Express,345 Hahani Street,,,Kailua,HI,96734,21.4063,-157.7448
Pizza Hut,518 B. Wailepo Street,,10:00 AM - 10:00 PM,Kailua,HI,96734,21.4063,-157.7448
Pizza Hut Express,74-5455 Makala Blvd.,,,Kailua Kona,HI,96740,19.6531,-155.9798
Pizza Hut,45-1130B Kamehameha Hwy,,10:00 AM - 10:00 PM,Kaneohe,HI,96744,21.4228,-157.8115
Pizza Hut Express,4450 Kapolei Pkwy,,,Kapolei,HI,96707,21.3453,-158.087
Pizza Hut,91-590 Farrington Hwy,,10:00 AM - 10:00 PM,Kapolei,HI,96707,21.3453,-158.087
Pizza Hut,16-586 Old Volcano Road,Suite 1,10:00 AM - 10:00 PM,Keaau,HI,96749,19.5893,-154.9926
Pizza Hut,2395 S Kihei Road,,10:00 AM - 10:00 PM,Kihei,HI,96753,20.7441,-156.4475
Pizza Hut,127 Hinau St,,10:00 AM - 10:00 PM,Lahaina,HI,96761,20.9174,-156.6772
Pizza Hut,3-3171 Kuhio Hwy,,10:30 AM - 8:00 PM,Lihue,HI,96766,21.9816,-159.3683
Pizza Hut Express,4303 Nawililwili Road,Target - T3400,,Lihue,HI,96766,21.9816,-159.3683
Pizza Hut,95-1249 Meheula Pkwy,Ste B-20,10:00 AM - 8:00 PM,Mililani,HI,96789,21.4531,-158.0174
Pizza Hut,15-2714 Pahoa Village Road,Bldg D Unit 4 (D4),10:00 AM - 10:00 PM,Pahoa,HI,96778,19.5089,-154.9231
Pizza Hut,850 Kamehameha Hwy,Pearl City Shopping Center,10:00 AM - 10:00 PM,Pearl City,HI,96782,21.4084,-157.9652
Pizza Hut,915 North Road,Building 1314,10:00 AM - 9:00 PM,Pearl Harbor,HI,96860,21.316,-157.92255
Pizza Hut,55 Pukalani St. B-5,,10:30 AM - 10:00 PM,Pukalani,HI,96768,20.8469,-156.3327
Pizza Hut,823 California Avenue,,10:00 AM - 10:00 PM,Wahiawa,HI,96786,21.5006,-158.0435
Pizza Hut,86-120 Farrington Hwy,,10:00 AM - 10:00 PM,Waianae,HI,96792,21.4352,-158.1781
Pizza Hut,89-102 Farrington Hwy.,Ste 4A,10:00 AM - 10:00 PM,Waianae,HI,96792,21.4352,-158.1781
Pizza Hut,790 Eha Street,Unit# 117,10:30 AM - 10:00 PM,Wailuku,HI,96793,20.8966,-156.5036
Pizza Hut,94-226 Leoku St,Ste 12,10:00 AM - 10:00 PM,Waipahu,HI,96797,21.3982,-158.0124
Pizza Hut,3160 8th Street SW B,,11:00 AM - 10:00 PM,Altoona,IA,50009,41.6475,-93.4724
Pizza Hut Express,3414 8th St SW,,,Altoona,IA,50009,41.6475,-93.4724
Pizza Hut Express,320 South Duff Avenue,Target - T1170,,Ames,IA,50010,42.0379,-93.6003
Pizza Hut,620 Lincoln Way,,11:00 AM - 11:00 PM,Ames,IA,50010,42.0379,-93.6003
Pizza Hut Express,2135 SE Delaware Ave.,,,Ankeny,IA,50021,41.7212,-93.5682
Pizza Hut,701 N. Ankeny Blvd,,11:00 AM - 11:00 PM,Ankeny,IA,50021,41.7212,-93.5682
Pizza Hut,2334 Spruce Hills Dr,,11:00 AM - 11:00 PM,Bettendorf,IA,52722,41.5509,-90.4942
Pizza Hut,103 Smith St,,10:30 AM - 9:00 PM,Bloomfield,IA,52537,40.7324,-92.3987
Pizza Hut,1410 N. Roosevelt Ave.,,10:30 AM - 10:00 PM,Burlington,IA,52601,40.8087,-91.117
Pizza Hut,801 Plaza Dr.,,10:30 AM - 10:00 PM,Carroll,IA,51401,42.072,-94.8667
Pizza Hut Express,214 Viking Plaza Drive,,,Cedar Falls,IA,50613,42.5241,-92.4497
Pizza Hut,6719 University Ave,Suite 3,10:00 AM - 12:00 AM,Cedar Falls,IA,50613,42.5241,-92.4497
Pizza Hut Express,1030 Blairs Ferry Rd NE,,,Cedar Rapids,IA,52402,42.0188,-91.6612
Pizza Hut,3301 J Street,,11:00 AM - 11:00 PM,Cedar Rapids,IA,52404,41.9521,-91.6853
Pizza Hut,3307 Mount Vernon Rd SE,,11:00 AM - 10:00 PM,Cedar Rapids,IA,52403,41.9843,-91.6259
Pizza Hut Express,3400 Edgewood Road SW,,,Cedar Rapids,IA,52411,42.0493,-91.7263
Pizza Hut,423 Edgewood Rd NW,,11:00 AM - 11:00 PM,Cedar Rapids,IA,52405,41.9804,-91.7098
Pizza Hut,5462 Blairs Forest Way,,11:00 AM - 11:00 PM,Cedar Rapids,IA,52402,42.0188,-91.6612
Pizza Hut,1012 N 18th St,,10:30 AM - 10:00 PM,Centerville,IA,52544,40.7326,-92.8728
Pizza Hut,1003 Blunt Parkway,,11:00 AM - 9:00 PM,Charles City,IA,50616,43.0683,-92.6761
Pizza Hut,1014 N 2nd St,,10:30 AM - 10:00 PM,Cherokee,IA,51012,42.7482,-95.5568
Pizza Hut,1320 S 16th,,11:00 AM - 8:00 PM,Clarinda,IA,51632,40.7491,-95.038
Pizza Hut,1616 N 2nd St,,10:30 AM - 10:00 PM,Clinton,IA,52732,41.8517,-90.2078
Pizza Hut,2712 S 25th St,Ste A,10:30 AM - 10:00 PM,Clinton,IA,52732,41.8517,-90.2078
Pizza Hut Express,1441 Coral Ridge Avenue,Target - T1113,,Coralville,IA,52241,41.6937,-91.5906
Pizza Hut,2439 2nd Street,#7,11:00 AM - 12:00 AM,Coralville,IA,52241,41.6937,-91.5906
Pizza Hut,1235 E Pierce St,,10:30 AM - 10:00 PM,Council Bluffs,IA,51503,41.2616,-95.8251
Pizza Hut,2200 West Broadway,Suite 200,10:30 AM - 10:00 PM,Council Bluffs,IA,51501,41.2324,-95.8751
Pizza Hut Express,3804 Metro Drive,,10:00 AM - 9:00 PM,Council Bluffs,IA,51501,41.2324,-95.8751
Pizza Hut,2100 W Kimberly Rd,,11:00 AM - 10:00 PM,Davenport,IA,52806,41.5733,-90.6038
Pizza Hut,422 E. Locust,,11:00 AM - 10:00 PM,Davenport,IA,52803,41.5385,-90.5613
Pizza Hut Express,5225 Elmore Avenue,Target - T0533,,Davenport,IA,52807,41.5618,-90.5403
Pizza Hut,1320 11th St,,10:30 AM - 9:00 PM,De Witt,IA,52742,41.8267,-90.5237
Pizza Hut,1002 Short St,,11:00 AM - 10:00 PM,Decorah,IA,52101,43.3227,-91.7939
Pizza Hut,533 Hwy 39 North,,11:00 AM - 10:00 PM,Denison,IA,51442,42.0196,-95.3636
Pizza Hut,1600 Euclid Ave,,11:00 AM - 11:00 PM,Des Moines,IA,50313,41.6381,-93.6203
Pizza Hut,2564 Hubbell Ave,,11:00 AM - 10:00 PM,Des Moines,IA,50317,41.6122,-93.5296
Pizza Hut,4212 Douglas Avenue,,11:00 AM - 10:00 PM,Des Moines,IA,50310,41.6255,-93.6736
Pizza Hut,5122 SE 14th St,,11:00 AM - 11:00 PM,Des Moines,IA,50320,41.5487,-93.5827
Pizza Hut,6120 Grand Ave,,12:00 PM - 8:00 PM,Des Moines,IA,50312,41.5855,-93.6719
Pizza Hut,1098 University,,11:00 AM - 10:00 PM,Dubuque,IA,52001,42.515,-90.6819
Pizza Hut,3683 450th Ave,,10:30 AM - 10:00 PM,Emmetsburg,IA,50536,43.1082,-94.6825
Pizza Hut,2009 Murray Rd,,2:00 PM - 9:30 PM,Estherville,IA,51334,43.4017,-94.818
Pizza Hut,2311 West Burlington Ave.,,10:30 AM - 11:00 PM,Fairfield,IA,52556,41.0039,-91.9576
Pizza Hut,2516 5th Ave S,,11:00 AM - 9:00 PM,Fort Dodge,IA,50501,42.5088,-94.1807
Pizza Hut,1123 24th St,,10:30 AM - 10:00 PM,Fort Madison,IA,52627,40.633,-91.3398
Pizza Hut,710 S Locust St,,11:00 AM - 10:00 PM,Glenwood,IA,51534,41.047,-95.7389
Pizza Hut,250 SE Destination Dr.,Suite 200,3:00 PM - 10:00 PM,Grimes,IA,50111,41.7018,-93.7821
Pizza Hut,2214 Lincoln Ave,,11:00 AM - 10:00 PM,Harlan,IA,51537,41.6437,-95.3111
Pizza Hut,805 South 1st Avenue,#2,11:00 AM - 12:00 AM,Iowa City,IA,52245,41.6649,-91.5151
Pizza Hut,3338 Main St,,10:45 AM - 11:00 PM,Keokuk,IA,52632,40.4094,-91.3982
Pizza Hut,Hwy 14 N,,10:30 AM - 10:00 PM,Knoxville,IA,50138,41.3164,-93.0954
Pizza Hut,602 E Main St,,11:00 AM - 10:00 PM,Lamoni,IA,50140,40.6229,-93.9349
Pizza Hut,1211 Silent Prairie Rd.,,11:00 AM - 10:00 PM,Le Mars,IA,51031,42.7962,-96.1704
Pizza Hut,1300 7th Ave,,11:00 AM - 11:00 PM,Marion,IA,52302,42.0411,-91.5941
Pizza Hut,707 W Madison,,11:00 AM - 11:00 PM,Marshalltown,IA,50158,42.0405,-92.9127
Pizza Hut,2117 4th St SW,,11:00 AM - 11:00 PM,Mason City,IA,50401,43.1499,-93.1954
Pizza Hut,900 N. Grand Avenue,,10:30 AM - 10:00 PM,Mount Pleasant,IA,52641,40.9646,-91.5614
Pizza Hut,2512 Park Ave.,,10:45 AM - 11:00 PM,Muscatine,IA,52761,41.4304,-91.0509
Pizza Hut,675 Pacha Pkwy.,Suite D,11:00 AM - 11:00 PM,North Liberty,IA,52317,41.7443,-91.6061
Pizza Hut,2351 Sunset Dr.,Suite 109,11:00 AM - 10:00 PM,Norwalk,IA,50211,41.4861,-93.6573
Pizza Hut,314 Iowa Ave,,11:00 AM - 10:00 PM,Onawa,IA,51040,42.037,-96.1072
Pizza Hut,1002 Jeffreys Drive,,10:30 AM - 10:00 PM,Osceola,IA,50213,41.0295,-93.7712
Pizza Hut,1247 Theater Drive,,10:30 AM - 10:00 PM,Ottumwa,IA,52501,41.0309,-92.4098
Pizza Hut,2812 Willis Ave,,10:30 AM - 9:30 PM,Perry,IA,50220,41.8397,-94.1022
Pizza Hut,1000 Senate Ave,,11:00 AM - 10:00 PM,Red Oak,IA,51566,41.0079,-95.2269
Pizza Hut,106 S Fremont St,,10:30 AM - 9:00 PM,Shenandoah,IA,51601,40.7581,-95.3648
Pizza Hut,525 2nd Ave,,11:00 AM - 9:00 PM,Sibley,IA,51249,43.4069,-95.7424
Pizza Hut,1989 S Main,,10:30 AM - 10:00 PM,Sioux Center,IA,51250,43.0814,-96.18
Pizza Hut,1701 Hamilton Blvd,,10:30 AM - 11:00 PM,Sioux City,IA,51103,42.5068,-96.4295
Pizza Hut,3113 E. Gordon Drive,,10:30 AM - 11:00 PM,Sioux City,IA,51105,42.5032,-96.3829
Pizza Hut,1019 S Grand Ave,,10:30 AM - 10:00 PM,Spencer,IA,51301,43.1451,-95.1457
Pizza Hut,115 E Milwaukee Ave,,10:30 AM - 10:00 PM,Storm Lake,IA,50588,42.6474,-95.1961
Pizza Hut,209 W. Hwy. 30,,11:00 AM - 9:00 PM,Toledo,IA,52342,42.0077,-92.5662
Pizza Hut Express,755 W. Iowa 80 Road,Ta Iowa 80,8:00 AM - 10:00 PM,Walcott,IA,52773,41.6453,-90.7256
Pizza Hut,1018 W Madison St,,10:30 AM - 10:00 PM,Washington,IA,52353,41.3015,-91.6987
Pizza Hut,1130 Ansborough Ave,,11:00 AM - 11:00 PM,Waterloo,IA,50701,42.4778,-92.3661
Pizza Hut,714 Laporte Rd,,11:00 AM - 11:00 PM,Waterloo,IA,50702,42.4731,-92.3365
Pizza Hut,276 West Hickman Rd.,,11:00 AM - 10:00 PM,Waukee,IA,50263,41.593,-93.8592
Pizza Hut,2403 Superior Street,,10:30 AM - 9:30 PM,Webster City,IA,50595,42.4657,-93.8262
Pizza Hut Express,5405 Mills Civic Parkway,,,West Des Moines,IA,50266,41.5695,-93.7994
Pizza Hut,5901 Ashworth,,10:00 AM - 11:00 PM,West Des Moines,IA,50266,41.5695,-93.7994
Pizza Hut,110 E Madison St,,3:00 PM - 9:00 PM,Winterset,IA,50273,41.3391,-94.0088
Pizza Hut,10244 W. Overland,,10:30 AM - 11:00 PM,Boise,ID,83709,43.5741,-116.2941
Pizza Hut,2802 W State St,,10:30 AM - 12:00 AM,Boise,ID,83702,43.6322,-116.2052
Pizza Hut,3367 S Federal Way,,10:30 AM - 12:00 AM,Boise,ID,83705,43.5851,-116.2191
Pizza Hut,4506 W Overland Rd,,10:30 AM - 12:00 AM,Boise,ID,83705,43.5851,-116.2191
Pizza Hut,9050 Ustick Rd,,10:30 AM - 12:00 AM,Boise,ID,83704,43.633,-116.2951
Pizza Hut,2570 Overland Ave,,10:30 AM - 11:00 PM,Burley,ID,83318,42.5244,-113.7931
Pizza Hut,710 N 10th Ave,,10:30 AM - 12:00 AM,Caldwell,ID,83605,43.6627,-116.7
Pizza Hut,4013 Yellowstone Ave,Ste B,11:00 AM - 11:00 PM,Chubbuck,ID,83202,42.9357,-112.4679
Pizza Hut,212 W Appleway Ave,,10:30 AM - 11:00 PM,Coeur D Alene,ID,83814,47.6928,-116.785
Pizza Hut,154 Hwy 30,,11:00 AM - 10:00 PM,Filer,ID,83328,42.5653,-114.614
Pizza Hut,1972 W Broadway St,,11:00 AM - 11:00 PM,Idaho Falls,ID,83402,43.4934,-112.0578
Pizza Hut,2250 E 17th Street,,10:30 AM - 12:00 AM,Idaho Falls,ID,83404,43.475,-112.0124
Pizza Hut,399 N. Woodruff,,10:30 AM - 12:00 AM,Idaho Falls,ID,83401,43.5518,-111.8919
Pizza Hut,423 S Lincoln Rd,Ste 1,10:30 AM - 11:00 PM,Jerome,ID,83338,42.7178,-114.5012
Pizza Hut,251 Avenue D,,10:30 AM - 11:00 PM,Kuna,ID,83634,43.487,-116.3819
Pizza Hut,1307 21st St,,10:30 AM - 11:00 PM,Lewiston,ID,83501,46.3646,-116.8609
Pizza Hut,2053 E Fairview Ave,#103,10:30 AM - 11:00 PM,Meridian,ID,83642,43.615,-116.3975
Pizza Hut Express,2140 E. Cinema Dr.,Cinemark Majestic Cinemas #1019,,Meridian,ID,83642,43.615,-116.3975
Pizza Hut,3325 N Ten Mile Rd,# 150,11:00 AM - 10:00 PM,Meridian,ID,83646,43.6498,-116.4306
Pizza Hut,1104 S Main St,,10:30 AM - 11:00 PM,Moscow,ID,83843,46.7309,-116.9897
Pizza Hut,605 Airbase Rd,,11:00 AM - 12:00 AM,Mountain Home,ID,83647,43.1392,-115.6963
Pizza Hut,30 Hope Drive Building 6200,Mountain Home Air Force Base,10:00 AM - 10:30 PM,Mountain Home Afb,ID,83648,43.7914,-116.4012
Pizza Hut,1203 N. Jacob Allcott Way,,10:30 AM - 12:00 AM,Nampa,ID,83687,43.5937,-116.536
Pizza Hut,1236 Caldwell Blvd.,,11:00 AM - 11:00 PM,Nampa,ID,83651,43.5834,-116.5848
Pizza Hut Express,16300 North Marketplace Blvd,,,Nampa,ID,83687,43.5937,-116.536
Pizza Hut,2330 12th Ave Rd,,10:30 AM - 12:00 AM,Nampa,ID,83686,43.5441,-116.566
Pizza Hut,1000 S. 16th,,11:00 AM - 11:00 PM,Payette,ID,83661,44.0782,-116.9203
Pizza Hut,945 S 5th Ave,,10:30 AM - 12:00 AM,Pocatello,ID,83201,42.8876,-112.4381
Pizza Hut,200 Bonner Mall Way,Bonner Mall,10:30 AM - 10:00 PM,Ponderay,ID,83852,48.3055,-116.5338
Pizza Hut,920 E Polston,,10:30 AM - 11:00 PM,Post Falls,ID,83854,47.7205,-116.9353
Pizza Hut,655 S. 4th E,,11:00 AM - 9:00 PM,Preston,ID,83263,42.1109,-111.8565
Pizza Hut,6613 W Commercial Park Ave,,10:30 AM - 10:00 PM,Rathdrum,ID,83858,47.8241,-116.8873
Pizza Hut,163 W Main St,Ste 101,10:30 AM - 11:00 PM,Rexburg,ID,83440,43.81,-111.789
Pizza Hut,205 Stockham Blvd.,Ste. A-1,11:00 AM - 10:00 PM,Rigby,ID,83442,43.6715,-111.9005
Pizza Hut,302 Oneida Steeet,,11:00 AM - 11:00 PM,Rupert,ID,83350,42.6888,-113.6481
Pizza Hut,10706 W State St,Ste A,11:00 AM - 10:00 PM,Star,ID,83669,43.7013,-116.4967
Pizza Hut,1553 Washington St,#300,10:30 AM - 11:00 PM,Twin Falls,ID,83301,42.5565,-114.4693
Pizza Hut,1733 Addison Ave E,,10:30 AM - 11:00 PM,Twin Falls,ID,83301,42.5565,-114.4693
Pizza Hut,32 W Lake St,,3:00 PM - 9:00 PM,Addison,IL,60101,41.9335,-88.0054
Pizza Hut Express,750 South Randall Road,Target - T1801,,Algonquin,IL,60102,42.1641,-88.3064
Pizza Hut Express,1206 S. Main,Jack Flash #601,,Altamont,IL,62411,39.0634,-88.7481
Pizza Hut,3096 Homer Adams Pkwy,,11:00 AM - 10:00 PM,Alton,IL,62002,38.9087,-90.1568
Pizza Hut,1835 E Vienna St,#51,10:45 AM - 10:00 PM,Anna,IL,62906,37.4668,-89.2207
Pizza Hut Express,322 W State Route 173,,,Antioch,IL,60002,42.4648,-88.1178
Pizza Hut,15 W Dundee Rd,,1:00 PM - 9:00 PM,Arlington Heights,IL,60004,42.112,-87.9792
Pizza Hut Express,809 E. Columbia,Arthur C-Store,,Arthur,IL,61911,39.7077,-88.4555
Pizza Hut Express,102 Empire St,Atlanta IL Visitors Center,,Atlanta,IL,61723,40.2586,-89.23
Pizza Hut,1330 N. Orchard Rd,,11:00 AM - 10:00 PM,Aurora,IL,60506,41.7664,-88.3446
Pizza Hut,4305 E New York St,,3:00 PM - 9:00 PM,Aurora,IL,60504,41.7523,-88.2453
Pizza Hut,701 N Lake St,,11:00 AM - 10:00 PM,Aurora,IL,60506,41.7664,-88.3446
Pizza Hut,1401 W Garfield Avenue,Unit H,10:00 AM - 11:00 PM,Bartonville,IL,61607,40.6321,-89.6903
Pizza Hut Express,134 South Randall Road,,,Batavia,IL,60510,41.8482,-88.3098
Pizza Hut,37 Plaza Drive,Beardstown Plaza,10:45 AM - 10:30 PM,Beardstown,IL,62618,40.0044,-90.4229
Pizza Hut Express,5601 Belleville Crossing St.,,,Belleville,IL,62223,38.5456,-90.0378
Pizza Hut,5720 N. Belt West,Suite 38,10:30 AM - 10:00 PM,Belleville,IL,62226,38.5352,-90.0006
Pizza Hut,652 Carlyle Ave,,10:30 AM - 10:00 PM,Belleville,IL,62221,38.5396,-89.9583
Pizza Hut,744 Beloit Road,,10:00 AM - 11:00 PM,Belvidere,IL,61008,42.2595,-88.8509
Pizza Hut,639 W Main St,,10:45 AM - 10:00 PM,Benton,IL,62812,38,-88.9227
Pizza Hut,5545 W. St. Charles Road,,1:00 PM - 8:00 PM,Berkeley,IL,60163,41.8888,-87.909
Pizza Hut,103 E Hamilton Rd,South Main,10:00 AM - 11:00 PM,Bloomington,IL,61704,40.4705,-88.9433
Pizza Hut,503 W Boughton Rd,,11:00 AM - 10:00 PM,Bolingbrook,IL,60440,41.6976,-88.0873
Pizza Hut,559 Main St NW,,10:00 AM - 11:00 PM,Bourbonnais,IL,60914,41.1661,-87.879
Pizza Hut Express,582 Main NW,,,Bourbonnais,IL,60914,41.1661,-87.879
Pizza Hut,7876 S Harlem Ave,,11:00 AM - 10:00 PM,Bridgeview,IL,60455,41.7431,-87.8066
Pizza Hut,2828 S. 17th Ave.,Suite C,11:00 AM - 10:00 PM,Broadview,IL,60155,41.8577,-87.8562
Pizza Hut Express,800 Broadview Village Square,,,Broadview,IL,60155,41.8577,-87.8562
Pizza Hut,1230 Camp Jackson Rd,,11:00 AM - 10:00 PM,Cahokia,IL,62206,38.5514,-90.1544
Pizza Hut,1590 E Chestnut St,,10:00 AM - 10:00 PM,Canton,IL,61520,40.5601,-90.0242
Pizza Hut,310 E Walnut St,,10:45 AM - 10:00 PM,Carbondale,IL,62901,37.72,-89.2158
Pizza Hut,1190 12th St,,10:30 AM - 10:00 PM,Carlyle,IL,62231,38.6066,-89.3805
Pizza Hut,1714 W Main St,,10:00 AM - 10:30 PM,Carmi,IL,62821,38.0808,-88.167
Pizza Hut,299 S Schmale Road,,11:00 AM - 10:00 PM,Carol Stream,IL,60188,41.9178,-88.137
Pizza Hut,772 W Army Trail Rd.,B1,2:00 PM - 8:00 PM,Carol Stream,IL,60188,41.9178,-88.137
Pizza Hut,168 South Western Avenue,,11:00 AM - 10:00 PM,Carpentersville,IL,60110,42.123,-88.2606
Pizza Hut,925 N Route 49,,11:00 AM - 9:00 PM,Casey,IL,62420,39.3017,-87.9913
Pizza Hut,409 N Mattis Ave,,11:00 AM - 10:00 PM,Champaign,IL,61821,40.1073,-88.2788
Pizza Hut,27025 W Eames St,Suite I (Letter I),10:00 AM - 10:00 PM,Channahon,IL,60410,41.4347,-88.2138
Pizza Hut,1025 Jason Place,,10:00 AM - 10:00 PM,Chatham,IL,62629,39.6737,-89.7112
Pizza Hut Express,1101 W Jackson Blvd.,,,Chicago,IL,60607,41.8721,-87.6578
Pizza Hut,11708 S. Marshfield Ave,,10:00 AM - 11:00 PM,Chicago,IL,60643,41.6996,-87.6628
Pizza Hut Express,1940 W. 33rd Street,,,Chicago,IL,60608,41.8515,-87.6694
Pizza Hut,2042 W 47th St,,10:00 AM - 12:00 AM,Chicago,IL,60609,41.8097,-87.6533
Pizza Hut,2516 W North Ave,,10:00 AM - 12:00 AM,Chicago,IL,60647,41.9209,-87.7043
Pizza Hut,3009 N. Clark St.,,11:00 AM - 10:00 PM,Chicago,IL,60657,41.9399,-87.6528
Pizza Hut,3045 North Pulaski Rd,,10:00 AM - 12:00 AM,Chicago,IL,60641,41.9453,-87.7474
Pizza Hut,4350 S Pulaski Rd,,10:00 AM - 11:00 PM,Chicago,IL,60632,41.8093,-87.7052
Pizza Hut Express,4466 N Broadway Street,,,Chicago,IL,60640,41.9719,-87.6624
Pizza Hut Express,500 West Madison Street Suite F-009,Citigroup Center,,Chicago,IL,60661,41.8814,-87.643
Pizza Hut,5401 S Wentworth Ave,,10:00 AM - 11:00 PM,Chicago,IL,60609,41.8097,-87.6533
Pizza Hut Express,6525 W. Diversey,,,Chicago,IL,60707,41.9232,-87.8185
Pizza Hut,8849 S Stony Island Ave,,10:00 AM - 11:00 PM,Chicago,IL,60617,41.7257,-87.556
Pizza Hut,420 N 4th Street,Suite F,10:00 AM - 11:00 PM,Chillicothe,IL,61523,40.9013,-89.5068
Pizza Hut Express,2901 South Cicero Avenue,,,Cicero,IL,60804,41.8378,-87.7602
Pizza Hut,5020 W Cermak Rd,,11:00 AM - 11:00 PM,Cicero,IL,60804,41.8378,-87.7602
Pizza Hut,608 N Bluff Rd,,10:30 AM - 11:00 PM,Collinsville,IL,62234,38.6835,-89.9853
